{"type":"FeatureCollection","features":[{"type":"Feature","geometry":{"type":"Point","coordinates":[-97.727721,32.9004]},"properties":{"locationId":"184CR174","locatedOn":"-","locOnAlias":"","type":"SPOT","category":"URBAN ACR","routeType":"","route":"","active":"Yes","fnctClass":"(5)Major Collector","latestAadt":1965,"latestAadtYear":2024,"latestDhv30":178,"latestKPercent":9,"latestDPercent":null,"latestVolumeCount":2070,"latestVolumeDate":"2024-05-22","extractedAt":"2025-08-01T19:30:33Z"}},{"type":"Feature","geometry":{"type":"Point","coordinates":[-97.727409,32.899739]},"properties":{"locationId":"184D4","locatedOn":"FM0051","locOnAlias":"FM0051-KG","type":"SPOT","category":"INACTIVE","routeType":"FM","route":"0051","active":"No","fnctClass":"(4)Minor Arterial","latestAadt":7564,"latestAadtYear":2020,"latestDhv30":719,"latestKPercent":10,"latestDPercent":null,"latestVolumeCount":8307,"latestVolumeDate":"2020-08-12","extractedAt":"2025-08-01T23:40:41Z"}}]}