{"type":"FeatureCollection","features":[{"type":"Feature","geometry":{"type":"Point","coordinates":[-97.716662,32.82466]},"properties":{"locationId":"184CR225","locatedOn":"NAUPPER DENTON","locOnAlias":"","type":"SPOT","category":"URBAN ACR","routeType":"","route":"","active":"Yes","fnctClass":"(6)Minor Collector","latestAadt":296,"latestAadtYear":2019,"latestDhv30":29,"latestKPercent":10,"latestDPercent":null,"latestVolumeCount":325,"latestVolumeDate":"2019-05-13","extractedAt":"2025-08-01T19:58:04Z"}},{"type":"Feature","geometry":{"type":"Point","coordinates":[-97.714693,32.826655]},"properties":{"locationId":"184CR52A","locatedOn":"-","locOnAlias":"","type":"SPOT","category":"URBAN ACR","routeType":"","route":"","active":"Yes","fnctClass":"(7)Local","latestAadt":862,"latestAadtYear":2024,"latestDhv30":81,"latestKPercent":9,"latestDPercent":null,"latestVolumeCount":839,"latestVolumeDate":"2024-05-22","extractedAt":"2025-08-01T21:25:33Z"}}]}