{"type":"FeatureCollection","features":[{"type":"Feature","geometry":{"type":"Point","coordinates":[-98.005227,32.805881]},"properties":{"locationId":"184CR230","locatedOn":"NAHOLDERS CHAPEL","locOnAlias":"","type":"SPOT","category":"INACTIVE","routeType":"","route":"","active":"No","fnctClass":"(7)Local","latestAadt":59,"latestAadtYear":2019,"latestDhv30":8,"latestKPercent":14,"latestDPercent":null,"latestVolumeCount":63,"latestVolumeDate":"2019-05-08","extractedAt":"2025-08-01T19:59:22Z"}},{"type":"Feature","geometry":{"type":"Point","coordinates":[-98.039351,32.811388]},"properties":{"locationId":"184FS100","locatedOn":"PR0071","locOnAlias":"PR0071-KG","type":"SPOT","category":"INACTIVE","routeType":"PR","route":"0071","active":"No","fnctClass":"(5)Major Collector","latestAadt":118,"latestAadtYear":2014,"latestDhv30":19,"latestKPercent":21,"latestDPercent":null,"latestVolumeCount":123,"latestVolumeDate":"2014-04-21","extractedAt":"2025-08-01T23:58:48Z"}}]}