{"type":"FeatureCollection","features":[{"type":"Feature","geometry":{"type":"Point","coordinates":[-98.00813,32.750033]},"properties":{"locationId":"184FS317","locatedOn":"LS0000","locOnAlias":"1173001","type":"SPOT","category":"URBAN ACR","routeType":"LS","route":"0000","active":"Yes","fnctClass":"(7)Local","latestAadt":107,"latestAadtYear":2019,"latestDhv30":30,"latestKPercent":28,"latestDPercent":null,"latestVolumeCount":115,"latestVolumeDate":"2019-05-08","extractedAt":"2025-08-02T00:42:09Z"}},{"type":"Feature","geometry":{"type":"Point","coordinates":[-98.011307,32.748684]},"properties":{"locationId":"184T26","locatedOn":"FM0113","locOnAlias":"FM0113-KG","type":"SPOT","category":"ANNUAL ACR","routeType":"FM","route":"0113","active":"Yes","fnctClass":"(5)Major Collector","latestAadt":42443,"latestAadtYear":2024,"latestDhv30":null,"latestKPercent":null,"latestDPercent":null,"latestVolumeCount":4333,"latestVolumeDate":"2023-07-19","extractedAt":"2025-08-02T15:42:21Z"}},{"type":"Feature","geometry":{"type":"Point","coordinates":[-98.00932,32.747083]},"properties":{"locationId":"184T27","locatedOn":"FM0113","locOnAlias":"FM0113-KG","type":"SPOT","category":"ANNUAL ACR","routeType":"FM","route":"0113","active":"Yes","fnctClass":"(5)Major Collector","latestAadt":45883,"latestAadtYear":2024,"latestDhv30":null,"latestKPercent":null,"latestDPercent":null,"latestVolumeCount":4685,"latestVolumeDate":"2023-07-19","extractedAt":"2025-08-02T15:42:37Z"}}]}