{"type":"FeatureCollection","features":[{"type":"Feature","geometry":{"type":"Point","coordinates":[-98.039015,32.668305]},"properties":{"locationId":"184CR102","locatedOn":"-","locOnAlias":"","type":"SPOT","category":"URBAN ACR","routeType":"","route":"","active":"Yes","fnctClass":"(7)Local","latestAadt":648,"latestAadtYear":2024,"latestDhv30":65,"latestKPercent":10,"latestDPercent":null,"latestVolumeCount":666,"latestVolumeDate":"2024-05-06","extractedAt":"2025-08-01T19:06:45Z"}},{"type":"Feature","geometry":{"type":"Point","coordinates":[-98.006732,32.682248]},"properties":{"locationId":"184RP20105","locatedOn":"IH0020","locOnAlias":"IH0020-KG","type":"SPOT","category":"RAMP","routeType":"IH","route":"0020","active":"Yes","fnctClass":"(1)Interstate","latestAadt":8498,"latestAadtYear":2024,"latestDhv30":139,"latestKPercent":16,"latestDPercent":null,"latestVolumeCount":1298,"latestVolumeDate":"2024-04-08","extractedAt":"2025-08-02T13:38:43Z"}},{"type":"Feature","geometry":{"type":"Point","coordinates":[-98.00703,32.682861]},"properties":{"locationId":"184RP20106","locatedOn":"IH0020","locOnAlias":"IH0020-KG","type":"SPOT","category":"RAMP","routeType":"","route":"","active":"Yes","fnctClass":"(1)Interstate","latestAadt":12478,"latestAadtYear":2024,"latestDhv30":130,"latestKPercent":10,"latestDPercent":null,"latestVolumeCount":1136,"latestVolumeDate":"2024-04-08","extractedAt":"2025-08-02T13:38:57Z"}},{"type":"Feature","geometry":{"type":"Point","coordinates":[-98.025336,32.669824]},"properties":{"locationId":"184RP20107","locatedOn":"IH0020","locOnAlias":"IH0020-KG","type":"SPOT","category":"RAMP","routeType":"","route":"","active":"Yes","fnctClass":"(1)Interstate","latestAadt":3578,"latestAadtYear":2024,"latestDhv30":28,"latestKPercent":8,"latestDPercent":null,"latestVolumeCount":266,"latestVolumeDate":"2024-04-08","extractedAt":"2025-08-02T13:39:13Z"}},{"type":"Feature","geometry":{"type":"Point","coordinates":[-98.024719,32.67097]},"properties":{"locationId":"184RP20108","locatedOn":"IH0020","locOnAlias":"IH0020-KG","type":"SPOT","category":"RAMP","routeType":"","route":"","active":"Yes","fnctClass":"(1)Interstate","latestAadt":3348,"latestAadtYear":2024,"latestDhv30":43,"latestKPercent":13,"latestDPercent":null,"latestVolumeCount":365,"latestVolumeDate":"2024-04-08","extractedAt":"2025-08-02T13:39:30Z"}},{"type":"Feature","geometry":{"type":"Point","coordinates":[-98.041685,32.658807]},"properties":{"locationId":"184RP20109","locatedOn":"IH0020","locOnAlias":"IH0020-KG","type":"SPOT","category":"RAMP","routeType":"","route":"","active":"Yes","fnctClass":"(1)Interstate","latestAadt":3828,"latestAadtYear":2024,"latestDhv30":58,"latestKPercent":15,"latestDPercent":null,"latestVolumeCount":605,"latestVolumeDate":"2024-05-01","extractedAt":"2025-08-02T13:39:46Z"}},{"type":"Feature","geometry":{"type":"Point","coordinates":[-98.041602,32.659809]},"properties":{"locationId":"184RP20110","locatedOn":"IH0020","locOnAlias":"","type":"SPOT","category":"RAMP","routeType":"","route":"","active":"Yes","fnctClass":"(1)Interstate","latestAadt":5468,"latestAadtYear":2024,"latestDhv30":51,"latestKPercent":9,"latestDPercent":null,"latestVolumeCount":503,"latestVolumeDate":"2024-04-08","extractedAt":"2025-08-02T13:40:28Z"}}]}