{"type":"FeatureCollection","features":[{"type":"Feature","geometry":{"type":"Point","coordinates":[-97.605021,32.716497]},"properties":{"locationId":"184CR40","locatedOn":"Bankhead Highway","locOnAlias":"184AA0879","type":"SPOT","category":"URBAN ACR","routeType":"CR","route":"0000","active":"Yes","fnctClass":"(5)Major Collector","latestAadt":8008,"latestAadtYear":2024,"latestDhv30":787,"latestKPercent":10,"latestDPercent":null,"latestVolumeCount":8072,"latestVolumeDate":"2024-05-13","extractedAt":"2025-08-01T21:19:16Z"}}]}