{"type":"FeatureCollection","features":[{"type":"Feature","geometry":{"type":"Point","coordinates":[-97.609766,32.676101]},"properties":{"locationId":"184E27B","locatedOn":"FM0005","locOnAlias":"FM0005-KG","type":"SPOT","category":"INACTIVE","routeType":"FM","route":"0005","active":"No","fnctClass":"(5)Major Collector","latestAadt":3751,"latestAadtYear":2019,"latestDhv30":462,"latestKPercent":12,"latestDPercent":null,"latestVolumeCount":4002,"latestVolumeDate":"2019-04-16","extractedAt":"2025-08-01T23:57:37Z"}}]}