{"type":"FeatureCollection","features":[{"type":"Feature","geometry":{"type":"Point","coordinates":[-97.604871,32.702807]},"properties":{"locationId":"184RS26","locatedOn":"JOHN","locOnAlias":"","type":"SPOT","category":"URBAN ACR","routeType":"","route":"","active":"Yes","fnctClass":"(7)Local","latestAadt":186,"latestAadtYear":2024,"latestDhv30":22,"latestKPercent":12,"latestDPercent":null,"latestVolumeCount":192,"latestVolumeDate":"2024-05-13","extractedAt":"2025-08-02T15:18:41Z"}},{"type":"Feature","geometry":{"type":"Point","coordinates":[-97.603132,32.696368]},"properties":{"locationId":"184T24","locatedOn":"FM1187","locOnAlias":"FM1187-KG","type":"SPOT","category":"ANNUAL ACR","routeType":"FM","route":"1187","active":"Yes","fnctClass":"(4)Minor Arterial","latestAadt":194203,"latestAadtYear":2024,"latestDhv30":null,"latestKPercent":null,"latestDPercent":null,"latestVolumeCount":16781,"latestVolumeDate":"2016-06-15","extractedAt":"2025-08-02T15:41:19Z"}},{"type":"Feature","geometry":{"type":"Point","coordinates":[-97.603848,32.69687]},"properties":{"locationId":"184T24SBDR","locatedOn":"FM1187","locOnAlias":"FM1187-KG","type":"SPOT","category":"ANNUAL ACR","routeType":"FM","route":"1187","active":"Yes","fnctClass":"(4)Minor Arterial","latestAadt":9545,"latestAadtYear":2024,"latestDhv30":1085,"latestKPercent":11,"latestDPercent":null,"latestVolumeCount":10618,"latestVolumeDate":"2024-05-13","extractedAt":"2025-08-02T15:41:50Z"}}]}