{"type":"FeatureCollection","features":[{"type":"Feature","geometry":{"type":"Point","coordinates":[-97.758594,32.724029]},"properties":{"locationId":"184HP8045","locatedOn":"NACLEAR LAKE","locOnAlias":"","type":"SPOT","category":"URBAN ACR","routeType":"","route":"","active":"Yes","fnctClass":"(5)Major Collector","latestAadt":1241,"latestAadtYear":2019,"latestDhv30":126,"latestKPercent":10,"latestDPercent":null,"latestVolumeCount":1554,"latestVolumeDate":"2019-05-15","extractedAt":"2025-08-02T13:01:11Z"}}]}