{"type":"FeatureCollection","features":[{"type":"Feature","geometry":{"type":"Point","coordinates":[-97.976086,32.878099]},"properties":{"locationId":"184CR133","locatedOn":"-","locOnAlias":"","type":"SPOT","category":"URBAN ACR","routeType":"","route":"","active":"Yes","fnctClass":"(7)Local","latestAadt":641,"latestAadtYear":2024,"latestDhv30":86,"latestKPercent":14,"latestDPercent":null,"latestVolumeCount":625,"latestVolumeDate":"2024-05-15","extractedAt":"2025-08-01T18:06:04Z"}},{"type":"Feature","geometry":{"type":"Point","coordinates":[-97.947128,32.877695]},"properties":{"locationId":"184CR133A","locatedOn":"-","locOnAlias":"","type":"SPOT","category":"INACTIVE","routeType":"","route":"","active":"No","fnctClass":"(7)Local","latestAadt":23,"latestAadtYear":2019,"latestDhv30":4,"latestKPercent":17,"latestDPercent":null,"latestVolumeCount":25,"latestVolumeDate":"2019-05-15","extractedAt":"2025-08-01T18:06:18Z"}},{"type":"Feature","geometry":{"type":"Point","coordinates":[-97.922155,32.886269]},"properties":{"locationId":"184CR142","locatedOn":"-","locOnAlias":"","type":"SPOT","category":"URBAN ACR","routeType":"","route":"","active":"Yes","fnctClass":"(7)Local","latestAadt":806,"latestAadtYear":2024,"latestDhv30":77,"latestKPercent":10,"latestDPercent":null,"latestVolumeCount":786,"latestVolumeDate":"2024-05-15","extractedAt":"2025-08-01T18:07:47Z"}},{"type":"Feature","geometry":{"type":"Point","coordinates":[-97.923626,32.892377]},"properties":{"locationId":"184CR142A","locatedOn":"-","locOnAlias":"","type":"SPOT","category":"URBAN ACR","routeType":"","route":"","active":"Yes","fnctClass":"(7)Local","latestAadt":669,"latestAadtYear":2024,"latestDhv30":59,"latestKPercent":9,"latestDPercent":null,"latestVolumeCount":653,"latestVolumeDate":"2024-05-15","extractedAt":"2025-08-01T18:08:03Z"}},{"type":"Feature","geometry":{"type":"Point","coordinates":[-97.927387,32.913136]},"properties":{"locationId":"184CR208","locatedOn":"NAADVANCE","locOnAlias":"","type":"SPOT","category":"URBAN ACR","routeType":"","route":"","active":"Yes","fnctClass":"(7)Local","latestAadt":472,"latestAadtYear":2024,"latestDhv30":44,"latestKPercent":9,"latestDPercent":null,"latestVolumeCount":460,"latestVolumeDate":"2024-05-15","extractedAt":"2025-08-01T19:42:26Z"}},{"type":"Feature","geometry":{"type":"Point","coordinates":[-97.97822,32.912436]},"properties":{"locationId":"184D13","locatedOn":"FM1885","locOnAlias":"FM1885-KG","type":"SPOT","category":"ANNUAL ACR","routeType":"FM","route":"1885","active":"Yes","fnctClass":"(5)Major Collector","latestAadt":2446,"latestAadtYear":2024,"latestDhv30":219,"latestKPercent":9,"latestDPercent":null,"latestVolumeCount":2587,"latestVolumeDate":"2024-05-14","extractedAt":"2025-08-01T23:38:29Z"}},{"type":"Feature","geometry":{"type":"Point","coordinates":[-97.983384,32.90523]},"properties":{"locationId":"184RS10","locatedOn":"NAPEACH TREE","locOnAlias":"","type":"SPOT","category":"INACTIVE","routeType":"","route":"","active":"No","fnctClass":"(7)Local","latestAadt":22,"latestAadtYear":2019,"latestDhv30":6,"latestKPercent":27,"latestDPercent":null,"latestVolumeCount":24,"latestVolumeDate":"2019-05-15","extractedAt":"2025-08-02T14:25:03Z"}}]}