{"type":"FeatureCollection","features":[{"type":"Feature","geometry":{"type":"Point","coordinates":[-97.995326,32.831636]},"properties":{"locationId":"184CR129","locatedOn":"-","locOnAlias":"","type":"SPOT","category":"URBAN ACR","routeType":"","route":"","active":"Yes","fnctClass":"(7)Local","latestAadt":907,"latestAadtYear":2024,"latestDhv30":95,"latestKPercent":11,"latestDPercent":null,"latestVolumeCount":884,"latestVolumeDate":"2024-05-15","extractedAt":"2025-08-01T17:38:09Z"}},{"type":"Feature","geometry":{"type":"Point","coordinates":[-97.986231,32.832047]},"properties":{"locationId":"184CR130","locatedOn":"-","locOnAlias":"","type":"SPOT","category":"URBAN ACR","routeType":"","route":"","active":"Yes","fnctClass":"(6)Minor Collector","latestAadt":504,"latestAadtYear":2024,"latestDhv30":157,"latestKPercent":31,"latestDPercent":null,"latestVolumeCount":519,"latestVolumeDate":"2024-05-15","extractedAt":"2025-08-01T17:38:26Z"}},{"type":"Feature","geometry":{"type":"Point","coordinates":[-97.989136,32.833167]},"properties":{"locationId":"184CR130A","locatedOn":"-","locOnAlias":"","type":"SPOT","category":"INACTIVE","routeType":"","route":"","active":"No","fnctClass":"(7)Local","latestAadt":12,"latestAadtYear":2019,"latestDhv30":3,"latestKPercent":25,"latestDPercent":null,"latestVolumeCount":13,"latestVolumeDate":"2019-05-15","extractedAt":"2025-08-01T17:38:41Z"}},{"type":"Feature","geometry":{"type":"Point","coordinates":[-97.985821,32.834441]},"properties":{"locationId":"184CR131","locatedOn":"-","locOnAlias":"","type":"SPOT","category":"URBAN ACR","routeType":"","route":"","active":"Yes","fnctClass":"(7)Local","latestAadt":406,"latestAadtYear":2024,"latestDhv30":48,"latestKPercent":12,"latestDPercent":null,"latestVolumeCount":396,"latestVolumeDate":"2024-05-15","extractedAt":"2025-08-01T17:38:56Z"}},{"type":"Feature","geometry":{"type":"Point","coordinates":[-97.992124,32.836287]},"properties":{"locationId":"184CR132","locatedOn":"-","locOnAlias":"","type":"SPOT","category":"URBAN ACR","routeType":"","route":"","active":"Yes","fnctClass":"(7)Local","latestAadt":126,"latestAadtYear":2024,"latestDhv30":10,"latestKPercent":9,"latestDPercent":null,"latestVolumeCount":124,"latestVolumeDate":"2024-05-15","extractedAt":"2025-08-01T17:39:11Z"}},{"type":"Feature","geometry":{"type":"Point","coordinates":[-97.913709,32.824585]},"properties":{"locationId":"184CR144B","locatedOn":"-","locOnAlias":"","type":"SPOT","category":"URBAN ACR","routeType":"","route":"","active":"Yes","fnctClass":"(7)Local","latestAadt":267,"latestAadtYear":2024,"latestDhv30":28,"latestKPercent":11,"latestDPercent":null,"latestVolumeCount":260,"latestVolumeDate":"2024-05-15","extractedAt":"2025-08-01T18:14:46Z"}},{"type":"Feature","geometry":{"type":"Point","coordinates":[-97.947184,32.824694]},"properties":{"locationId":"184CR207","locatedOn":"NAOLD GARNER","locOnAlias":"","type":"SPOT","category":"INACTIVE","routeType":"","route":"","active":"No","fnctClass":"(6)Minor Collector","latestAadt":183,"latestAadtYear":2019,"latestDhv30":28,"latestKPercent":15,"latestDPercent":null,"latestVolumeCount":199,"latestVolumeDate":"2019-05-15","extractedAt":"2025-08-01T19:36:53Z"}},{"type":"Feature","geometry":{"type":"Point","coordinates":[-97.921616,32.771147]},"properties":{"locationId":"184CR209","locatedOn":"NAOLD MILLSAP","locOnAlias":"","type":"SPOT","category":"INACTIVE","routeType":"","route":"","active":"No","fnctClass":"(7)Local","latestAadt":287,"latestAadtYear":2019,"latestDhv30":30,"latestKPercent":10,"latestDPercent":null,"latestVolumeCount":309,"latestVolumeDate":"2019-05-08","extractedAt":"2025-08-01T19:42:41Z"}},{"type":"Feature","geometry":{"type":"Point","coordinates":[-97.932354,32.839393]},"properties":{"locationId":"184FS39","locatedOn":"CR0000","locOnAlias":"184AA0233","type":"SPOT","category":"INACTIVE","routeType":"CR","route":"0000","active":"No","fnctClass":"(7)Local","latestAadt":13,"latestAadtYear":2019,"latestDhv30":3,"latestKPercent":23,"latestDPercent":null,"latestVolumeCount":14,"latestVolumeDate":"2019-05-15","extractedAt":"2025-08-02T00:54:55Z"}},{"type":"Feature","geometry":{"type":"Point","coordinates":[-97.986689,32.832551]},"properties":{"locationId":"184T28","locatedOn":"FM0113","locOnAlias":"FM0113-KG","type":"SPOT","category":"ANNUAL ACR","routeType":"FM","route":"0113","active":"Yes","fnctClass":"(5)Major Collector","latestAadt":2529,"latestAadtYear":2024,"latestDhv30":295,"latestKPercent":12,"latestDPercent":null,"latestVolumeCount":2675,"latestVolumeDate":"2024-05-14","extractedAt":"2025-08-02T15:42:54Z"}}]}