{"type":"FeatureCollection","features":[{"type":"Feature","geometry":{"type":"Point","coordinates":[-97.959952,32.706812]},"properties":{"locationId":"184CR106","locatedOn":"-","locOnAlias":"","type":"SPOT","category":"URBAN ACR","routeType":"","route":"","active":"Yes","fnctClass":"(7)Local","latestAadt":1206,"latestAadtYear":2024,"latestDhv30":124,"latestKPercent":10,"latestDPercent":null,"latestVolumeCount":1237,"latestVolumeDate":"2024-05-06","extractedAt":"2025-08-01T16:58:21Z"}},{"type":"Feature","geometry":{"type":"Point","coordinates":[-97.962815,32.728547]},"properties":{"locationId":"184CR106A","locatedOn":"Fairview Rd","locOnAlias":"184AA0482","type":"SPOT","category":"URBAN ACR","routeType":"CR","route":"0000","active":"Yes","fnctClass":"(7)Local","latestAadt":780,"latestAadtYear":2009,"latestDhv30":null,"latestKPercent":null,"latestDPercent":null,"latestVolumeCount":null,"latestVolumeDate":null,"extractedAt":"2025-08-01T16:58:36Z"}},{"type":"Feature","geometry":{"type":"Point","coordinates":[-97.957383,32.732329]},"properties":{"locationId":"184CR106B","locatedOn":"-","locOnAlias":"","type":"SPOT","category":"URBAN ACR","routeType":"","route":"","active":"Yes","fnctClass":"(7)Local","latestAadt":267,"latestAadtYear":2024,"latestDhv30":26,"latestKPercent":10,"latestDPercent":null,"latestVolumeCount":274,"latestVolumeDate":"2024-05-06","extractedAt":"2025-08-01T16:58:51Z"}},{"type":"Feature","geometry":{"type":"Point","coordinates":[-97.953528,32.741822]},"properties":{"locationId":"184CR107A","locatedOn":"-","locOnAlias":"","type":"SPOT","category":"INACTIVE","routeType":"","route":"","active":"No","fnctClass":"(7)Local","latestAadt":91,"latestAadtYear":2019,"latestDhv30":14,"latestKPercent":15,"latestDPercent":null,"latestVolumeCount":98,"latestVolumeDate":"2019-05-08","extractedAt":"2025-08-01T16:59:06Z"}},{"type":"Feature","geometry":{"type":"Point","coordinates":[-97.914811,32.756471]},"properties":{"locationId":"184CR108A","locatedOn":"-","locOnAlias":"","type":"SPOT","category":"INACTIVE","routeType":"","route":"","active":"No","fnctClass":"(6)Minor Collector","latestAadt":154,"latestAadtYear":2019,"latestDhv30":24,"latestKPercent":16,"latestDPercent":null,"latestVolumeCount":167,"latestVolumeDate":"2019-05-08","extractedAt":"2025-08-01T16:59:20Z"}},{"type":"Feature","geometry":{"type":"Point","coordinates":[-97.922204,32.720696]},"properties":{"locationId":"184CR108B","locatedOn":"-","locOnAlias":"","type":"SPOT","category":"INACTIVE","routeType":"","route":"","active":"No","fnctClass":"(7)Local","latestAadt":96,"latestAadtYear":2019,"latestDhv30":14,"latestKPercent":15,"latestDPercent":null,"latestVolumeCount":104,"latestVolumeDate":"2019-05-15","extractedAt":"2025-08-01T16:59:33Z"}},{"type":"Feature","geometry":{"type":"Point","coordinates":[-97.980144,32.697761]},"properties":{"locationId":"184CR105","locatedOn":"-","locOnAlias":"","type":"SPOT","category":"URBAN ACR","routeType":"","route":"","active":"Yes","fnctClass":"(7)Local","latestAadt":512,"latestAadtYear":2024,"latestDhv30":62,"latestKPercent":12,"latestDPercent":null,"latestVolumeCount":525,"latestVolumeDate":"2024-05-06","extractedAt":"2025-08-01T19:08:35Z"}},{"type":"Feature","geometry":{"type":"Point","coordinates":[-97.978642,32.738568]},"properties":{"locationId":"184CR229","locatedOn":"NAFAIRVIEW","locOnAlias":"","type":"SPOT","category":"URBAN ACR","routeType":"","route":"","active":"Yes","fnctClass":"(7)Local","latestAadt":907,"latestAadtYear":2024,"latestDhv30":98,"latestKPercent":11,"latestDPercent":null,"latestVolumeCount":929,"latestVolumeDate":"2024-05-06","extractedAt":"2025-08-01T19:59:06Z"}},{"type":"Feature","geometry":{"type":"Point","coordinates":[-97.997002,32.754922]},"properties":{"locationId":"184CR233","locatedOn":"NACOOL JUNCTION","locOnAlias":"","type":"SPOT","category":"URBAN ACR","routeType":"","route":"","active":"Yes","fnctClass":"(7)Local","latestAadt":123,"latestAadtYear":2019,"latestDhv30":16,"latestKPercent":13,"latestDPercent":null,"latestVolumeCount":132,"latestVolumeDate":"2019-05-08","extractedAt":"2025-08-01T20:00:03Z"}},{"type":"Feature","geometry":{"type":"Point","coordinates":[-97.997002,32.754922]},"properties":{"locationId":"184CR233","locatedOn":"NACOOL JUNCTION","locOnAlias":"","type":"SPOT","category":"URBAN ACR","routeType":"","route":"","active":"Yes","fnctClass":"(7)Local","latestAadt":123,"latestAadtYear":2019,"latestDhv30":16,"latestKPercent":13,"latestDPercent":null,"latestVolumeCount":132,"latestVolumeDate":"2019-05-08","extractedAt":"2025-08-01T20:00:21Z"}},{"type":"Feature","geometry":{"type":"Point","coordinates":[-97.955161,32.6995]},"properties":{"locationId":"184CR99","locatedOn":"-","locOnAlias":"","type":"SPOT","category":"URBAN ACR","routeType":"","route":"","active":"Yes","fnctClass":"(7)Local","latestAadt":2615,"latestAadtYear":2024,"latestDhv30":417,"latestKPercent":16,"latestDPercent":null,"latestVolumeCount":2585,"latestVolumeDate":"2024-05-15","extractedAt":"2025-08-01T23:32:08Z"}},{"type":"Feature","geometry":{"type":"Point","coordinates":[-97.954942,32.702695]},"properties":{"locationId":"184RP20101","locatedOn":"IH0020","locOnAlias":"IH0020-KG","type":"SPOT","category":"RAMP","routeType":"IH","route":"0020","active":"Yes","fnctClass":"(1)Interstate","latestAadt":25048,"latestAadtYear":2024,"latestDhv30":304,"latestKPercent":12,"latestDPercent":null,"latestVolumeCount":2234,"latestVolumeDate":"2024-04-08","extractedAt":"2025-08-02T13:32:23Z"}},{"type":"Feature","geometry":{"type":"Point","coordinates":[-97.954956,32.703366]},"properties":{"locationId":"184RP20102","locatedOn":"IH0020","locOnAlias":"IH0020-KG","type":"SPOT","category":"RAMP","routeType":"IH","route":"0020","active":"Yes","fnctClass":"(1)Interstate","latestAadt":24468,"latestAadtYear":2024,"latestDhv30":236,"latestKPercent":10,"latestDPercent":null,"latestVolumeCount":2405,"latestVolumeDate":"2024-04-08","extractedAt":"2025-08-02T13:32:35Z"}},{"type":"Feature","geometry":{"type":"Point","coordinates":[-97.965061,32.699163]},"properties":{"locationId":"184RP20103","locatedOn":"IH0020","locOnAlias":"IH0020-KG","type":"SPOT","category":"RAMP","routeType":"","route":"","active":"Yes","fnctClass":"(1)Interstate","latestAadt":7618,"latestAadtYear":2024,"latestDhv30":86,"latestKPercent":11,"latestDPercent":null,"latestVolumeCount":867,"latestVolumeDate":"2024-04-08","extractedAt":"2025-08-02T13:32:49Z"}},{"type":"Feature","geometry":{"type":"Point","coordinates":[-97.968532,32.698596]},"properties":{"locationId":"184RP20104","locatedOn":"IH0020","locOnAlias":"IH0020-KG","type":"SPOT","category":"RAMP","routeType":"","route":"","active":"Yes","fnctClass":"(1)Interstate","latestAadt":8338,"latestAadtYear":2024,"latestDhv30":77,"latestKPercent":9,"latestDPercent":null,"latestVolumeCount":842,"latestVolumeDate":"2024-04-08","extractedAt":"2025-08-02T13:33:04Z"}}]}