{"type":"FeatureCollection","features":[{"type":"Feature","geometry":{"type":"Point","coordinates":[-97.989258,32.59259]},"properties":{"locationId":"184CR212","locatedOn":"NACOUGAR","locOnAlias":"","type":"SPOT","category":"INACTIVE","routeType":"","route":"","active":"No","fnctClass":"(7)Local","latestAadt":26,"latestAadtYear":2019,"latestDhv30":6,"latestKPercent":23,"latestDPercent":null,"latestVolumeCount":28,"latestVolumeDate":"2019-05-15","extractedAt":"2025-08-01T19:43:27Z"}},{"type":"Feature","geometry":{"type":"Point","coordinates":[-97.921897,32.588898]},"properties":{"locationId":"184CR94","locatedOn":"-","locOnAlias":"","type":"SPOT","category":"URBAN ACR","routeType":"","route":"","active":"Yes","fnctClass":"(7)Local","latestAadt":342,"latestAadtYear":2024,"latestDhv30":34,"latestKPercent":10,"latestDPercent":null,"latestVolumeCount":338,"latestVolumeDate":"2024-05-15","extractedAt":"2025-08-01T23:30:21Z"}}]}