{"type":"FeatureCollection","features":[{"type":"Feature","geometry":{"type":"Point","coordinates":[-97.788866,32.78478]},"properties":{"locationId":"184FS20","locatedOn":"CR0000","locOnAlias":"184AA0656","type":"SPOT","category":"INACTIVE","routeType":"CR","route":"0000","active":"No","fnctClass":"(7)Local","latestAadt":198,"latestAadtYear":2019,"latestDhv30":22,"latestKPercent":11,"latestDPercent":null,"latestVolumeCount":209,"latestVolumeDate":"2019-05-06","extractedAt":"2025-08-02T00:11:07Z"}}]}