{"type":"FeatureCollection","features":[{"type":"Feature","geometry":{"type":"Point","coordinates":[-97.784703,32.721664]},"properties":{"locationId":"184U19","locatedOn":"SH0171","locOnAlias":"SH0171-KG","type":"SPOT","category":"URBAN ACR","routeType":"SH","route":"171","active":"Yes","fnctClass":"(4)Minor Arterial","latestAadt":14924,"latestAadtYear":2024,"latestDhv30":1350,"latestKPercent":9,"latestDPercent":null,"latestVolumeCount":17624,"latestVolumeDate":"2024-05-15","extractedAt":"2025-08-02T15:58:52Z"}}]}