{"type":"FeatureCollection","features":[{"type":"Feature","geometry":{"type":"Point","coordinates":[-97.783727,32.733914]},"properties":{"locationId":"184HP8042","locatedOn":"Washington Dr","locOnAlias":"267320","type":"SPOT","category":"URBAN ACR","routeType":"FC","route":"0000","active":"Yes","fnctClass":"(5)Major Collector","latestAadt":1920,"latestAadtYear":2024,"latestDhv30":211,"latestKPercent":11,"latestDPercent":null,"latestVolumeCount":1950,"latestVolumeDate":"2024-05-13","extractedAt":"2025-08-02T13:00:23Z"}},{"type":"Feature","geometry":{"type":"Point","coordinates":[-97.779618,32.73393]},"properties":{"locationId":"184U10","locatedOn":"RED OAK/WASHINGTON","locOnAlias":"","type":"SPOT","category":"INACTIVE","routeType":"","route":"","active":"No","fnctClass":"(5)Major Collector","latestAadt":1727,"latestAadtYear":2019,"latestDhv30":192,"latestKPercent":11,"latestDPercent":54,"latestVolumeCount":2090,"latestVolumeDate":"2019-05-06","extractedAt":"2025-08-02T15:57:32Z"}}]}