{"type":"FeatureCollection","features":[{"type":"Feature","geometry":{"type":"Point","coordinates":[-97.787593,32.749111]},"properties":{"locationId":"184HP8040","locatedOn":"Foster","locOnAlias":"290226","type":"SPOT","category":"URBAN ACR","routeType":"FC","route":"0000","active":"Yes","fnctClass":"(5)Major Collector","latestAadt":8820,"latestAadtYear":2024,"latestDhv30":812,"latestKPercent":9,"latestDPercent":55,"latestVolumeCount":9490,"latestVolumeDate":"2024-05-13","extractedAt":"2025-08-02T12:59:56Z"}},{"type":"Feature","geometry":{"type":"Point","coordinates":[-97.783224,32.741328]},"properties":{"locationId":"184HP8043","locatedOn":"TEXAS DR","locOnAlias":"267321","type":"SPOT","category":"URBAN ACR","routeType":"FC","route":"0000","active":"Yes","fnctClass":"(5)Major Collector","latestAadt":3679,"latestAadtYear":2024,"latestDhv30":337,"latestKPercent":9,"latestDPercent":null,"latestVolumeCount":3735,"latestVolumeDate":"2024-05-13","extractedAt":"2025-08-02T13:00:40Z"}},{"type":"Feature","geometry":{"type":"Point","coordinates":[-97.787922,32.741894]},"properties":{"locationId":"184HP8061","locatedOn":"COLLEGE PARK DR","locOnAlias":"290225","type":"SPOT","category":"URBAN ACR","routeType":"CS","route":"290225","active":"Yes","fnctClass":"(4)Minor Arterial","latestAadt":10006,"latestAadtYear":2024,"latestDhv30":942,"latestKPercent":9,"latestDPercent":null,"latestVolumeCount":12151,"latestVolumeDate":"2024-05-13","extractedAt":"2025-08-02T13:15:52Z"}},{"type":"Feature","geometry":{"type":"Point","coordinates":[-97.782462,32.747459]},"properties":{"locationId":"184T7A","locatedOn":"FM2552","locOnAlias":"FM2552-KG","type":"SPOT","category":"ANNUAL ACR","routeType":"FM","route":"2552","active":"Yes","fnctClass":"(4)Minor Arterial","latestAadt":160453,"latestAadtYear":2024,"latestDhv30":null,"latestKPercent":null,"latestDPercent":null,"latestVolumeCount":18521,"latestVolumeDate":"2023-07-19","extractedAt":"2025-08-02T15:50:35Z"}}]}