{"type":"FeatureCollection","features":[{"type":"Feature","geometry":{"type":"Point","coordinates":[-97.788549,32.758667]},"properties":{"locationId":"184D6EBSR","locatedOn":"US0180","locOnAlias":"US0180-AG","type":"SPOT","category":"ANNUAL ACR","routeType":"US","route":"0180","active":"Yes","fnctClass":"(7)Local","latestAadt":202,"latestAadtYear":2024,"latestDhv30":40,"latestKPercent":20,"latestDPercent":null,"latestVolumeCount":217,"latestVolumeDate":"2024-05-13","extractedAt":"2025-08-01T23:50:16Z"}},{"type":"Feature","geometry":{"type":"Point","coordinates":[-97.788544,32.758985]},"properties":{"locationId":"184D6WBSR","locatedOn":"US0180","locOnAlias":"Fort Worth Highway","type":"SPOT","category":"ANNUAL ACR","routeType":"US","route":"0180","active":"Yes","fnctClass":"(7)Local","latestAadt":159,"latestAadtYear":2024,"latestDhv30":23,"latestKPercent":15,"latestDPercent":null,"latestVolumeCount":174,"latestVolumeDate":"2024-05-13","extractedAt":"2025-08-01T23:50:28Z"}},{"type":"Feature","geometry":{"type":"Point","coordinates":[-97.783504,32.757531]},"properties":{"locationId":"184FS101","locatedOn":"E Oak St","locOnAlias":"1250476","type":"SPOT","category":"URBAN ACR","routeType":"LS","route":"0000","active":"Yes","fnctClass":"(7)Local","latestAadt":918,"latestAadtYear":2024,"latestDhv30":86,"latestKPercent":9,"latestDPercent":null,"latestVolumeCount":903,"latestVolumeDate":"2024-05-21","extractedAt":"2025-08-01T23:59:03Z"}},{"type":"Feature","geometry":{"type":"Point","coordinates":[-97.784295,32.759418]},"properties":{"locationId":"184HP8032","locatedOn":"DENTON","locOnAlias":"250316","type":"SPOT","category":"URBAN ACR","routeType":"FC","route":"0000","active":"Yes","fnctClass":"(5)Major Collector","latestAadt":6209,"latestAadtYear":2024,"latestDhv30":615,"latestKPercent":10,"latestDPercent":null,"latestVolumeCount":6523,"latestVolumeDate":"2024-05-21","extractedAt":"2025-08-02T12:52:46Z"}},{"type":"Feature","geometry":{"type":"Point","coordinates":[-97.784263,32.756769]},"properties":{"locationId":"184PT1","locatedOn":"FC0000","locOnAlias":"Jack Borden Way","type":"SPOT","category":"ANNUAL ACR","routeType":"FC","route":"7470","active":"Yes","fnctClass":"(5)Major Collector","latestAadt":11748,"latestAadtYear":2024,"latestDhv30":1044,"latestKPercent":9,"latestDPercent":53,"latestVolumeCount":13129,"latestVolumeDate":"2024-05-22","extractedAt":"2025-08-02T13:22:52Z"}},{"type":"Feature","geometry":{"type":"Point","coordinates":[-97.786648,32.750375]},"properties":{"locationId":"184PT2","locatedOn":"Foster Ln","locOnAlias":"290226","type":"SPOT","category":"ANNUAL ACR","routeType":"LS","route":"0000","active":"Yes","fnctClass":"(5)Major Collector","latestAadt":11268,"latestAadtYear":2024,"latestDhv30":964,"latestKPercent":9,"latestDPercent":50,"latestVolumeCount":12593,"latestVolumeDate":"2024-05-22","extractedAt":"2025-08-02T13:24:11Z"}},{"type":"Feature","geometry":{"type":"Point","coordinates":[-97.788832,32.759457]},"properties":{"locationId":"184RS11","locatedOn":"NMILL","locOnAlias":"","type":"SPOT","category":"URBAN ACR","routeType":"","route":"","active":"Yes","fnctClass":"(7)Local","latestAadt":392,"latestAadtYear":2024,"latestDhv30":41,"latestKPercent":11,"latestDPercent":null,"latestVolumeCount":385,"latestVolumeDate":"2024-05-21","extractedAt":"2025-08-02T14:25:18Z"}}]}