{"type":"FeatureCollection","features":[{"type":"Feature","geometry":{"type":"Point","coordinates":[-97.718924,32.724676]},"properties":{"locationId":"184CR328B","locatedOn":"Dixon Rd","locOnAlias":"289916","type":"SPOT","category":"URBAN ACR","routeType":"FC","route":"0000","active":"Yes","fnctClass":"(6)Minor Collector","latestAadt":618,"latestAadtYear":2024,"latestDhv30":63,"latestKPercent":10,"latestDPercent":null,"latestVolumeCount":610,"latestVolumeDate":"2024-05-13","extractedAt":"2025-08-01T20:48:17Z"}}]}