{"type":"FeatureCollection","features":[{"type":"Feature","geometry":{"type":"Point","coordinates":[-97.599878,32.831262]},"properties":{"locationId":"184E28A","locatedOn":"FM1886","locOnAlias":"FM1886-KG","type":"SPOT","category":"ANNUAL ACR","routeType":"FM","route":"1886","active":"Yes","fnctClass":"(5)Major Collector","latestAadt":3645,"latestAadtYear":2024,"latestDhv30":283,"latestKPercent":8,"latestDPercent":null,"latestVolumeCount":3533,"latestVolumeDate":"2024-07-08","extractedAt":"2025-08-01T23:57:51Z"}}]}