{"type":"FeatureCollection","features":[{"type":"Feature","geometry":{"type":"Point","coordinates":[-97.599782,32.694082]},"properties":{"locationId":"184CR69A","locatedOn":"Chestnut St","locOnAlias":"1002153","type":"SPOT","category":"URBAN ACR","routeType":"LS","route":"0000","active":"Yes","fnctClass":"(7)Local","latestAadt":390,"latestAadtYear":2009,"latestDhv30":null,"latestKPercent":null,"latestDPercent":null,"latestVolumeCount":null,"latestVolumeDate":null,"extractedAt":"2025-08-01T21:33:53Z"}}]}