{"type":"FeatureCollection","features":[{"type":"Feature","geometry":{"type":"Point","coordinates":[-97.7958,32.788445]},"properties":{"locationId":"184CR304","locatedOn":"Hawkins Lilly","locOnAlias":"184AA0660","type":"SPOT","category":"INACTIVE","routeType":"CR","route":"0000","active":"No","fnctClass":"(7)Local","latestAadt":600,"latestAadtYear":2009,"latestDhv30":null,"latestKPercent":null,"latestDPercent":null,"latestVolumeCount":null,"latestVolumeDate":null,"extractedAt":"2025-08-01T20:23:06Z"}}]}