{"type":"FeatureCollection","features":[{"type":"Feature","geometry":{"type":"Point","coordinates":[-97.795421,32.76238]},"properties":{"locationId":"184CR301","locatedOn":"-","locOnAlias":"","type":"SPOT","category":"URBAN ACR","routeType":"","route":"","active":"Yes","fnctClass":"(5)Major Collector","latestAadt":4868,"latestAadtYear":2024,"latestDhv30":420,"latestKPercent":9,"latestDPercent":null,"latestVolumeCount":5115,"latestVolumeDate":"2024-05-21","extractedAt":"2025-08-01T20:14:57Z"}},{"type":"Feature","geometry":{"type":"Point","coordinates":[-97.795819,32.761376]},"properties":{"locationId":"184CR301A","locatedOn":"-","locOnAlias":"","type":"SPOT","category":"URBAN ACR","routeType":"","route":"","active":"Yes","fnctClass":"(7)Local","latestAadt":4804,"latestAadtYear":2024,"latestDhv30":403,"latestKPercent":8,"latestDPercent":null,"latestVolumeCount":4701,"latestVolumeDate":"2024-05-21","extractedAt":"2025-08-01T20:15:13Z"}},{"type":"Feature","geometry":{"type":"Point","coordinates":[-97.798769,32.763038]},"properties":{"locationId":"184HP8022","locatedOn":"Water St","locOnAlias":"267328","type":"SPOT","category":"URBAN ACR","routeType":"FC","route":"0000","active":"Yes","fnctClass":"(5)Major Collector","latestAadt":1415,"latestAadtYear":2019,"latestDhv30":147,"latestKPercent":10,"latestDPercent":null,"latestVolumeCount":1712,"latestVolumeDate":"2019-05-06","extractedAt":"2025-08-02T12:51:48Z"}},{"type":"Feature","geometry":{"type":"Point","coordinates":[-97.796425,32.764136]},"properties":{"locationId":"184HP8036","locatedOn":"FRONT STREET","locOnAlias":"267490","type":"SPOT","category":"URBAN ACR","routeType":"FC","route":"0000","active":"Yes","fnctClass":"(5)Major Collector","latestAadt":3946,"latestAadtYear":2024,"latestDhv30":358,"latestKPercent":9,"latestDPercent":73,"latestVolumeCount":4162,"latestVolumeDate":"2024-05-22","extractedAt":"2025-08-02T12:53:33Z"}},{"type":"Feature","geometry":{"type":"Point","coordinates":[-97.799843,32.760573]},"properties":{"locationId":"184HP8053","locatedOn":"SPRING","locOnAlias":"","type":"SPOT","category":"URBAN ACR","routeType":"","route":"","active":"Yes","fnctClass":"(5)Major Collector","latestAadt":1663,"latestAadtYear":2019,"latestDhv30":186,"latestKPercent":11,"latestDPercent":null,"latestVolumeCount":2012,"latestVolumeDate":"2019-05-06","extractedAt":"2025-08-02T13:08:30Z"}},{"type":"Feature","geometry":{"type":"Point","coordinates":[-97.797353,32.759868]},"properties":{"locationId":"184T1","locatedOn":"FM0051","locOnAlias":"N Main St","type":"SPOT","category":"ANNUAL ACR","routeType":"FM","route":"0051","active":"Yes","fnctClass":"(4)Minor Arterial","latestAadt":12716,"latestAadtYear":2024,"latestDhv30":1021,"latestKPercent":8,"latestDPercent":50,"latestVolumeCount":13877,"latestVolumeDate":"2024-05-22","extractedAt":"2025-08-02T15:27:15Z"}}]}