{"type":"FeatureCollection","features":[{"type":"Feature","geometry":{"type":"Point","coordinates":[-97.797975,32.76979]},"properties":{"locationId":"184HP8004","locatedOn":"1st St","locOnAlias":"1250784","type":"SPOT","category":"URBAN ACR","routeType":"LS","route":"0000","active":"Yes","fnctClass":"(7)Local","latestAadt":723,"latestAadtYear":2014,"latestDhv30":68,"latestKPercent":9,"latestDPercent":null,"latestVolumeCount":753,"latestVolumeDate":"2014-04-23","extractedAt":"2025-08-02T12:45:05Z"}},{"type":"Feature","geometry":{"type":"Point","coordinates":[-97.79728,32.773109]},"properties":{"locationId":"184T2","locatedOn":"FM0051","locOnAlias":"FM0051-KG","type":"SPOT","category":"ANNUAL ACR","routeType":"FM","route":"0051","active":"Yes","fnctClass":"(4)Minor Arterial","latestAadt":20222,"latestAadtYear":2024,"latestDhv30":1674,"latestKPercent":8,"latestDPercent":68,"latestVolumeCount":21976,"latestVolumeDate":"2024-05-22","extractedAt":"2025-08-02T15:35:08Z"}}]}