{"type":"FeatureCollection","features":[{"type":"Feature","geometry":{"type":"Point","coordinates":[-97.796604,32.773742]},"properties":{"locationId":"184HP8044","locatedOn":"E 4th St","locOnAlias":"267483","type":"SPOT","category":"URBAN ACR","routeType":"FC","route":"0000","active":"Yes","fnctClass":"(5)Major Collector","latestAadt":1910,"latestAadtYear":2009,"latestDhv30":null,"latestKPercent":null,"latestDPercent":null,"latestVolumeCount":null,"latestVolumeDate":null,"extractedAt":"2025-08-02T13:00:57Z"}},{"type":"Feature","geometry":{"type":"Point","coordinates":[-97.797815,32.773757]},"properties":{"locationId":"184T3","locatedOn":"FM0920","locOnAlias":"FM0920-KG","type":"SPOT","category":"ANNUAL ACR","routeType":"FM","route":"0920","active":"Yes","fnctClass":"(5)Major Collector","latestAadt":9549,"latestAadtYear":2024,"latestDhv30":760,"latestKPercent":8,"latestDPercent":null,"latestVolumeCount":10300,"latestVolumeDate":"2024-05-22","extractedAt":"2025-08-02T15:43:09Z"}},{"type":"Feature","geometry":{"type":"Point","coordinates":[-97.797271,32.774201]},"properties":{"locationId":"184T4","locatedOn":"FM0051","locOnAlias":"FM0051-KG","type":"SPOT","category":"ANNUAL ACR","routeType":"FM","route":"0051","active":"Yes","fnctClass":"(4)Minor Arterial","latestAadt":12867,"latestAadtYear":2024,"latestDhv30":1163,"latestKPercent":9,"latestDPercent":58,"latestVolumeCount":13995,"latestVolumeDate":"2024-05-22","extractedAt":"2025-08-02T15:49:35Z"}}]}