{"type":"FeatureCollection","features":[{"type":"Feature","geometry":{"type":"Point","coordinates":[-97.797863,32.725584]},"properties":{"locationId":"184HP8001A","locatedOn":"Tin Top","locOnAlias":"250317","type":"SPOT","category":"URBAN ACR","routeType":"FC","route":"0000","active":"Yes","fnctClass":"(5)Major Collector","latestAadt":5536,"latestAadtYear":2024,"latestDhv30":556,"latestKPercent":10,"latestDPercent":null,"latestVolumeCount":5833,"latestVolumeDate":"2024-05-15","extractedAt":"2025-08-02T12:44:50Z"}}]}