{"type":"FeatureCollection","features":[{"type":"Feature","geometry":{"type":"Point","coordinates":[-97.7955,32.757873]},"properties":{"locationId":"184HP8060","locatedOn":"ELM ST","locOnAlias":"267484","type":"SPOT","category":"URBAN ACR","routeType":"CS","route":"267484","active":"Yes","fnctClass":"(5)Major Collector","latestAadt":1696,"latestAadtYear":2024,"latestDhv30":164,"latestKPercent":10,"latestDPercent":null,"latestVolumeCount":1851,"latestVolumeDate":"2024-05-21","extractedAt":"2025-08-02T13:15:38Z"}},{"type":"Feature","geometry":{"type":"Point","coordinates":[-97.795784,32.75894]},"properties":{"locationId":"184T5","locatedOn":"US0180","locOnAlias":"US0180-KG","type":"SPOT","category":"ANNUAL ACR","routeType":"US","route":"0180","active":"Yes","fnctClass":"(3)Principal Arterial-Other","latestAadt":144943,"latestAadtYear":2024,"latestDhv30":null,"latestKPercent":null,"latestDPercent":null,"latestVolumeCount":15586,"latestVolumeDate":"2023-07-19","extractedAt":"2025-08-02T15:49:49Z"}},{"type":"Feature","geometry":{"type":"Point","coordinates":[-97.79739,32.757948]},"properties":{"locationId":"184T8","locatedOn":"SH0171","locOnAlias":"SH0171-KG","type":"SPOT","category":"ANNUAL ACR","routeType":"SH","route":"0171","active":"Yes","fnctClass":"(3)Principal Arterial-Other","latestAadt":16640,"latestAadtYear":2024,"latestDhv30":1379,"latestKPercent":8,"latestDPercent":53,"latestVolumeCount":18291,"latestVolumeDate":"2024-05-22","extractedAt":"2025-08-02T15:50:49Z"}},{"type":"Feature","geometry":{"type":"Point","coordinates":[-97.798786,32.758988]},"properties":{"locationId":"184T9","locatedOn":"US0180","locOnAlias":"US0180-KG","type":"SPOT","category":"ANNUAL ACR","routeType":"US","route":"0180","active":"Yes","fnctClass":"(3)Principal Arterial-Other","latestAadt":15349,"latestAadtYear":2024,"latestDhv30":1409,"latestKPercent":9,"latestDPercent":55,"latestVolumeCount":16324,"latestVolumeDate":"2024-05-13","extractedAt":"2025-08-02T15:57:00Z"}}]}