{"type":"FeatureCollection","features":[{"type":"Feature","geometry":{"type":"Point","coordinates":[-97.79984,32.735232]},"properties":{"locationId":"184HP8001","locatedOn":"Tin Top","locOnAlias":"250317","type":"SPOT","category":"URBAN ACR","routeType":"FC","route":"0000","active":"Yes","fnctClass":"(5)Major Collector","latestAadt":5978,"latestAadtYear":2024,"latestDhv30":null,"latestKPercent":null,"latestDPercent":null,"latestVolumeCount":5970,"latestVolumeDate":"2019-05-06","extractedAt":"2025-08-02T12:44:34Z"}}]}