{"type":"FeatureCollection","features":[{"type":"Feature","geometry":{"type":"Point","coordinates":[-97.797107,32.754665]},"properties":{"locationId":"184HP8039","locatedOn":"Lee Ave","locOnAlias":"267482","type":"SPOT","category":"URBAN ACR","routeType":"FC","route":"0000","active":"Yes","fnctClass":"(5)Major Collector","latestAadt":2666,"latestAadtYear":2024,"latestDhv30":257,"latestKPercent":10,"latestDPercent":null,"latestVolumeCount":2799,"latestVolumeDate":"2024-05-21","extractedAt":"2025-08-02T12:59:42Z"}}]}