{"type":"FeatureCollection","features":[{"type":"Feature","geometry":{"type":"Point","coordinates":[-97.904071,32.696599]},"properties":{"locationId":"184CR213","locatedOn":"NAOLD BROCK","locOnAlias":"","type":"SPOT","category":"URBAN ACR","routeType":"","route":"","active":"Yes","fnctClass":"(7)Local","latestAadt":1211,"latestAadtYear":2024,"latestDhv30":219,"latestKPercent":18,"latestDPercent":null,"latestVolumeCount":1205,"latestVolumeDate":"2024-05-15","extractedAt":"2025-08-01T19:43:41Z"}}]}