{"type":"FeatureCollection","features":[{"type":"Feature","geometry":{"type":"Point","coordinates":[-97.887911,32.72509]},"properties":{"locationId":"184RP201","locatedOn":"IH0020","locOnAlias":"IH0020-KG","type":"SPOT","category":"RAMP","routeType":"IH","route":"0020","active":"Yes","fnctClass":"(1)Interstate","latestAadt":10818,"latestAadtYear":2024,"latestDhv30":116,"latestKPercent":11,"latestDPercent":null,"latestVolumeCount":1280,"latestVolumeDate":"2024-05-01","extractedAt":"2025-08-02T13:31:50Z"}}]}