{"type":"FeatureCollection","features":[{"type":"Feature","geometry":{"type":"Point","coordinates":[-97.787602,32.794922]},"properties":{"locationId":"184CR305","locatedOn":"-","locOnAlias":"","type":"SPOT","category":"URBAN ACR","routeType":"","route":"","active":"Yes","fnctClass":"(7)Local","latestAadt":10603,"latestAadtYear":2024,"latestDhv30":null,"latestKPercent":null,"latestDPercent":null,"latestVolumeCount":873,"latestVolumeDate":"2019-05-06","extractedAt":"2025-08-01T20:23:21Z"}},{"type":"Feature","geometry":{"type":"Point","coordinates":[-97.783521,32.804682]},"properties":{"locationId":"184CR306","locatedOn":"-","locOnAlias":"","type":"SPOT","category":"URBAN ACR","routeType":"","route":"","active":"Yes","fnctClass":"(7)Local","latestAadt":289,"latestAadtYear":2024,"latestDhv30":28,"latestKPercent":10,"latestDPercent":null,"latestVolumeCount":294,"latestVolumeDate":"2024-05-22","extractedAt":"2025-08-01T20:24:20Z"}},{"type":"Feature","geometry":{"type":"Point","coordinates":[-97.784998,32.792059]},"properties":{"locationId":"184RS25","locatedOn":"NAMEADOW BRIDGE","locOnAlias":"","type":"SPOT","category":"URBAN ACR","routeType":"","route":"","active":"Yes","fnctClass":"(7)Local","latestAadt":84,"latestAadtYear":2019,"latestDhv30":10,"latestKPercent":12,"latestDPercent":null,"latestVolumeCount":89,"latestVolumeDate":"2019-05-06","extractedAt":"2025-08-02T15:18:23Z"}}]}