{"type":"FeatureCollection","features":[{"type":"Feature","geometry":{"type":"Point","coordinates":[-97.795421,32.76238]},"properties":{"locationId":"184CR301","locatedOn":"-","locOnAlias":"","type":"SPOT","category":"URBAN ACR","routeType":"","route":"","active":"Yes","fnctClass":"(5)Major Collector","latestAadt":4868,"latestAadtYear":2024,"latestDhv30":420,"latestKPercent":9,"latestDPercent":null,"latestVolumeCount":5115,"latestVolumeDate":"2024-05-21","extractedAt":"2025-08-01T20:14:57Z"}},{"type":"Feature","geometry":{"type":"Point","coordinates":[-97.795819,32.761376]},"properties":{"locationId":"184CR301A","locatedOn":"-","locOnAlias":"","type":"SPOT","category":"URBAN ACR","routeType":"","route":"","active":"Yes","fnctClass":"(7)Local","latestAadt":4804,"latestAadtYear":2024,"latestDhv30":403,"latestKPercent":8,"latestDPercent":null,"latestVolumeCount":4701,"latestVolumeDate":"2024-05-21","extractedAt":"2025-08-01T20:15:13Z"}},{"type":"Feature","geometry":{"type":"Point","coordinates":[-97.791813,32.758731]},"properties":{"locationId":"184D5AEBSR","locatedOn":"US0180","locOnAlias":"US0180-AG","type":"SPOT","category":"ANNUAL ACR","routeType":"US","route":"0180","active":"Yes","fnctClass":"(7)Local","latestAadt":120,"latestAadtYear":2024,"latestDhv30":14,"latestKPercent":12,"latestDPercent":null,"latestVolumeCount":131,"latestVolumeDate":"2024-05-13","extractedAt":"2025-08-01T23:43:53Z"}},{"type":"Feature","geometry":{"type":"Point","coordinates":[-97.791813,32.759004]},"properties":{"locationId":"184D5AWBSR","locatedOn":"US0180","locOnAlias":"US0180-XG","type":"SPOT","category":"ANNUAL ACR","routeType":"US","route":"0180","active":"Yes","fnctClass":"(7)Local","latestAadt":101,"latestAadtYear":2024,"latestDhv30":11,"latestKPercent":11,"latestDPercent":null,"latestVolumeCount":110,"latestVolumeDate":"2024-05-13","extractedAt":"2025-08-01T23:49:29Z"}},{"type":"Feature","geometry":{"type":"Point","coordinates":[-97.788549,32.758667]},"properties":{"locationId":"184D6EBSR","locatedOn":"US0180","locOnAlias":"US0180-AG","type":"SPOT","category":"ANNUAL ACR","routeType":"US","route":"0180","active":"Yes","fnctClass":"(7)Local","latestAadt":202,"latestAadtYear":2024,"latestDhv30":40,"latestKPercent":20,"latestDPercent":null,"latestVolumeCount":217,"latestVolumeDate":"2024-05-13","extractedAt":"2025-08-01T23:50:16Z"}},{"type":"Feature","geometry":{"type":"Point","coordinates":[-97.788544,32.758985]},"properties":{"locationId":"184D6WBSR","locatedOn":"US0180","locOnAlias":"Fort Worth Highway","type":"SPOT","category":"ANNUAL ACR","routeType":"US","route":"0180","active":"Yes","fnctClass":"(7)Local","latestAadt":159,"latestAadtYear":2024,"latestDhv30":23,"latestKPercent":15,"latestDPercent":null,"latestVolumeCount":174,"latestVolumeDate":"2024-05-13","extractedAt":"2025-08-01T23:50:28Z"}},{"type":"Feature","geometry":{"type":"Point","coordinates":[-97.783504,32.757531]},"properties":{"locationId":"184FS101","locatedOn":"E Oak St","locOnAlias":"1250476","type":"SPOT","category":"URBAN ACR","routeType":"LS","route":"0000","active":"Yes","fnctClass":"(7)Local","latestAadt":918,"latestAadtYear":2024,"latestDhv30":86,"latestKPercent":9,"latestDPercent":null,"latestVolumeCount":903,"latestVolumeDate":"2024-05-21","extractedAt":"2025-08-01T23:59:03Z"}},{"type":"Feature","geometry":{"type":"Point","coordinates":[-97.79233,32.764714]},"properties":{"locationId":"184HP8009","locatedOn":"Rusk","locOnAlias":"267487","type":"SPOT","category":"URBAN ACR","routeType":"FC","route":"0000","active":"Yes","fnctClass":"(5)Major Collector","latestAadt":967,"latestAadtYear":2024,"latestDhv30":94,"latestKPercent":10,"latestDPercent":null,"latestVolumeCount":1016,"latestVolumeDate":"2024-05-21","extractedAt":"2025-08-02T12:45:46Z"}},{"type":"Feature","geometry":{"type":"Point","coordinates":[-97.798769,32.763038]},"properties":{"locationId":"184HP8022","locatedOn":"Water St","locOnAlias":"267328","type":"SPOT","category":"URBAN ACR","routeType":"FC","route":"0000","active":"Yes","fnctClass":"(5)Major Collector","latestAadt":1415,"latestAadtYear":2019,"latestDhv30":147,"latestKPercent":10,"latestDPercent":null,"latestVolumeCount":1712,"latestVolumeDate":"2019-05-06","extractedAt":"2025-08-02T12:51:48Z"}},{"type":"Feature","geometry":{"type":"Point","coordinates":[-97.784295,32.759418]},"properties":{"locationId":"184HP8032","locatedOn":"DENTON","locOnAlias":"250316","type":"SPOT","category":"URBAN ACR","routeType":"FC","route":"0000","active":"Yes","fnctClass":"(5)Major Collector","latestAadt":6209,"latestAadtYear":2024,"latestDhv30":615,"latestKPercent":10,"latestDPercent":null,"latestVolumeCount":6523,"latestVolumeDate":"2024-05-21","extractedAt":"2025-08-02T12:52:46Z"}},{"type":"Feature","geometry":{"type":"Point","coordinates":[-97.796425,32.764136]},"properties":{"locationId":"184HP8036","locatedOn":"FRONT STREET","locOnAlias":"267490","type":"SPOT","category":"URBAN ACR","routeType":"FC","route":"0000","active":"Yes","fnctClass":"(5)Major Collector","latestAadt":3946,"latestAadtYear":2024,"latestDhv30":358,"latestKPercent":9,"latestDPercent":73,"latestVolumeCount":4162,"latestVolumeDate":"2024-05-22","extractedAt":"2025-08-02T12:53:33Z"}},{"type":"Feature","geometry":{"type":"Point","coordinates":[-97.797107,32.754665]},"properties":{"locationId":"184HP8039","locatedOn":"Lee Ave","locOnAlias":"267482","type":"SPOT","category":"URBAN ACR","routeType":"FC","route":"0000","active":"Yes","fnctClass":"(5)Major Collector","latestAadt":2666,"latestAadtYear":2024,"latestDhv30":257,"latestKPercent":10,"latestDPercent":null,"latestVolumeCount":2799,"latestVolumeDate":"2024-05-21","extractedAt":"2025-08-02T12:59:42Z"}},{"type":"Feature","geometry":{"type":"Point","coordinates":[-97.799843,32.760573]},"properties":{"locationId":"184HP8053","locatedOn":"SPRING","locOnAlias":"","type":"SPOT","category":"URBAN ACR","routeType":"","route":"","active":"Yes","fnctClass":"(5)Major Collector","latestAadt":1663,"latestAadtYear":2019,"latestDhv30":186,"latestKPercent":11,"latestDPercent":null,"latestVolumeCount":2012,"latestVolumeDate":"2019-05-06","extractedAt":"2025-08-02T13:08:30Z"}},{"type":"Feature","geometry":{"type":"Point","coordinates":[-97.7955,32.757873]},"properties":{"locationId":"184HP8060","locatedOn":"ELM ST","locOnAlias":"267484","type":"SPOT","category":"URBAN ACR","routeType":"CS","route":"267484","active":"Yes","fnctClass":"(5)Major Collector","latestAadt":1696,"latestAadtYear":2024,"latestDhv30":164,"latestKPercent":10,"latestDPercent":null,"latestVolumeCount":1851,"latestVolumeDate":"2024-05-21","extractedAt":"2025-08-02T13:15:38Z"}},{"type":"Feature","geometry":{"type":"Point","coordinates":[-97.784263,32.756769]},"properties":{"locationId":"184PT1","locatedOn":"FC0000","locOnAlias":"Jack Borden Way","type":"SPOT","category":"ANNUAL ACR","routeType":"FC","route":"7470","active":"Yes","fnctClass":"(5)Major Collector","latestAadt":11748,"latestAadtYear":2024,"latestDhv30":1044,"latestKPercent":9,"latestDPercent":53,"latestVolumeCount":13129,"latestVolumeDate":"2024-05-22","extractedAt":"2025-08-02T13:22:52Z"}},{"type":"Feature","geometry":{"type":"Point","coordinates":[-97.786648,32.750375]},"properties":{"locationId":"184PT2","locatedOn":"Foster Ln","locOnAlias":"290226","type":"SPOT","category":"ANNUAL ACR","routeType":"LS","route":"0000","active":"Yes","fnctClass":"(5)Major Collector","latestAadt":11268,"latestAadtYear":2024,"latestDhv30":964,"latestKPercent":9,"latestDPercent":50,"latestVolumeCount":12593,"latestVolumeDate":"2024-05-22","extractedAt":"2025-08-02T13:24:11Z"}},{"type":"Feature","geometry":{"type":"Point","coordinates":[-97.788832,32.759457]},"properties":{"locationId":"184RS11","locatedOn":"NMILL","locOnAlias":"","type":"SPOT","category":"URBAN ACR","routeType":"","route":"","active":"Yes","fnctClass":"(7)Local","latestAadt":392,"latestAadtYear":2024,"latestDhv30":41,"latestKPercent":11,"latestDPercent":null,"latestVolumeCount":385,"latestVolumeDate":"2024-05-21","extractedAt":"2025-08-02T14:25:18Z"}},{"type":"Feature","geometry":{"type":"Point","coordinates":[-97.797353,32.759868]},"properties":{"locationId":"184T1","locatedOn":"FM0051","locOnAlias":"N Main St","type":"SPOT","category":"ANNUAL ACR","routeType":"FM","route":"0051","active":"Yes","fnctClass":"(4)Minor Arterial","latestAadt":12716,"latestAadtYear":2024,"latestDhv30":1021,"latestKPercent":8,"latestDPercent":50,"latestVolumeCount":13877,"latestVolumeDate":"2024-05-22","extractedAt":"2025-08-02T15:27:15Z"}},{"type":"Feature","geometry":{"type":"Point","coordinates":[-97.795784,32.75894]},"properties":{"locationId":"184T5","locatedOn":"US0180","locOnAlias":"US0180-KG","type":"SPOT","category":"ANNUAL ACR","routeType":"US","route":"0180","active":"Yes","fnctClass":"(3)Principal Arterial-Other","latestAadt":144943,"latestAadtYear":2024,"latestDhv30":null,"latestKPercent":null,"latestDPercent":null,"latestVolumeCount":15586,"latestVolumeDate":"2023-07-19","extractedAt":"2025-08-02T15:49:49Z"}},{"type":"Feature","geometry":{"type":"Point","coordinates":[-97.792826,32.758357]},"properties":{"locationId":"184T7","locatedOn":"FM2552","locOnAlias":"FM2552-KG","type":"SPOT","category":"ANNUAL ACR","routeType":"FM","route":"2552","active":"Yes","fnctClass":"(4)Minor Arterial","latestAadt":10148,"latestAadtYear":2024,"latestDhv30":910,"latestKPercent":9,"latestDPercent":51,"latestVolumeCount":11786,"latestVolumeDate":"2024-05-22","extractedAt":"2025-08-02T15:50:21Z"}},{"type":"Feature","geometry":{"type":"Point","coordinates":[-97.79739,32.757948]},"properties":{"locationId":"184T8","locatedOn":"SH0171","locOnAlias":"SH0171-KG","type":"SPOT","category":"ANNUAL ACR","routeType":"SH","route":"0171","active":"Yes","fnctClass":"(3)Principal Arterial-Other","latestAadt":16640,"latestAadtYear":2024,"latestDhv30":1379,"latestKPercent":8,"latestDPercent":53,"latestVolumeCount":18291,"latestVolumeDate":"2024-05-22","extractedAt":"2025-08-02T15:50:49Z"}},{"type":"Feature","geometry":{"type":"Point","coordinates":[-97.798786,32.758988]},"properties":{"locationId":"184T9","locatedOn":"US0180","locOnAlias":"US0180-KG","type":"SPOT","category":"ANNUAL ACR","routeType":"US","route":"0180","active":"Yes","fnctClass":"(3)Principal Arterial-Other","latestAadt":15349,"latestAadtYear":2024,"latestDhv30":1409,"latestKPercent":9,"latestDPercent":55,"latestVolumeCount":16324,"latestVolumeDate":"2024-05-13","extractedAt":"2025-08-02T15:57:00Z"}}]}