{"type":"FeatureCollection","features":[{"type":"Feature","geometry":{"type":"Point","coordinates":[-97.79984,32.735232]},"properties":{"locationId":"184HP8001","locatedOn":"Tin Top","locOnAlias":"250317","type":"SPOT","category":"URBAN ACR","routeType":"FC","route":"0000","active":"Yes","fnctClass":"(5)Major Collector","latestAadt":5978,"latestAadtYear":2024,"latestDhv30":null,"latestKPercent":null,"latestDPercent":null,"latestVolumeCount":5970,"latestVolumeDate":"2019-05-06","extractedAt":"2025-08-02T12:44:34Z"}},{"type":"Feature","geometry":{"type":"Point","coordinates":[-97.797179,32.742408]},"properties":{"locationId":"184HP8034","locatedOn":"E Park Ave","locOnAlias":"250325","type":"SPOT","category":"URBAN ACR","routeType":"FC","route":"0000","active":"Yes","fnctClass":"(4)Minor Arterial","latestAadt":4493,"latestAadtYear":2024,"latestDhv30":422,"latestKPercent":9,"latestDPercent":null,"latestVolumeCount":5076,"latestVolumeDate":"2024-05-08","extractedAt":"2025-08-02T12:53:01Z"}},{"type":"Feature","geometry":{"type":"Point","coordinates":[-97.787593,32.749111]},"properties":{"locationId":"184HP8040","locatedOn":"Foster","locOnAlias":"290226","type":"SPOT","category":"URBAN ACR","routeType":"FC","route":"0000","active":"Yes","fnctClass":"(5)Major Collector","latestAadt":8820,"latestAadtYear":2024,"latestDhv30":812,"latestKPercent":9,"latestDPercent":55,"latestVolumeCount":9490,"latestVolumeDate":"2024-05-13","extractedAt":"2025-08-02T12:59:56Z"}},{"type":"Feature","geometry":{"type":"Point","coordinates":[-97.783727,32.733914]},"properties":{"locationId":"184HP8042","locatedOn":"Washington Dr","locOnAlias":"267320","type":"SPOT","category":"URBAN ACR","routeType":"FC","route":"0000","active":"Yes","fnctClass":"(5)Major Collector","latestAadt":1920,"latestAadtYear":2024,"latestDhv30":211,"latestKPercent":11,"latestDPercent":null,"latestVolumeCount":1950,"latestVolumeDate":"2024-05-13","extractedAt":"2025-08-02T13:00:23Z"}},{"type":"Feature","geometry":{"type":"Point","coordinates":[-97.783224,32.741328]},"properties":{"locationId":"184HP8043","locatedOn":"TEXAS DR","locOnAlias":"267321","type":"SPOT","category":"URBAN ACR","routeType":"FC","route":"0000","active":"Yes","fnctClass":"(5)Major Collector","latestAadt":3679,"latestAadtYear":2024,"latestDhv30":337,"latestKPercent":9,"latestDPercent":null,"latestVolumeCount":3735,"latestVolumeDate":"2024-05-13","extractedAt":"2025-08-02T13:00:40Z"}},{"type":"Feature","geometry":{"type":"Point","coordinates":[-97.790166,32.734805]},"properties":{"locationId":"184HP8052","locatedOn":"MARTIN","locOnAlias":"","type":"SPOT","category":"URBAN ACR","routeType":"","route":"","active":"Yes","fnctClass":"(4)Minor Arterial","latestAadt":5477,"latestAadtYear":2019,"latestDhv30":637,"latestKPercent":12,"latestDPercent":null,"latestVolumeCount":6753,"latestVolumeDate":"2019-05-06","extractedAt":"2025-08-02T13:08:14Z"}},{"type":"Feature","geometry":{"type":"Point","coordinates":[-97.787922,32.741894]},"properties":{"locationId":"184HP8061","locatedOn":"COLLEGE PARK DR","locOnAlias":"290225","type":"SPOT","category":"URBAN ACR","routeType":"CS","route":"290225","active":"Yes","fnctClass":"(4)Minor Arterial","latestAadt":10006,"latestAadtYear":2024,"latestDhv30":942,"latestKPercent":9,"latestDPercent":null,"latestVolumeCount":12151,"latestVolumeDate":"2024-05-13","extractedAt":"2025-08-02T13:15:52Z"}},{"type":"Feature","geometry":{"type":"Point","coordinates":[-97.782462,32.747459]},"properties":{"locationId":"184T7A","locatedOn":"FM2552","locOnAlias":"FM2552-KG","type":"SPOT","category":"ANNUAL ACR","routeType":"FM","route":"2552","active":"Yes","fnctClass":"(4)Minor Arterial","latestAadt":160453,"latestAadtYear":2024,"latestDhv30":null,"latestKPercent":null,"latestDPercent":null,"latestVolumeCount":18521,"latestVolumeDate":"2023-07-19","extractedAt":"2025-08-02T15:50:35Z"}},{"type":"Feature","geometry":{"type":"Point","coordinates":[-97.792001,32.732371]},"properties":{"locationId":"184T8A","locatedOn":"SH0171","locOnAlias":"SH0171-KG","type":"SPOT","category":"ANNUAL ACR","routeType":"SH","route":"0171","active":"Yes","fnctClass":"(3)Principal Arterial-Other","latestAadt":24481,"latestAadtYear":2024,"latestDhv30":2282,"latestKPercent":9,"latestDPercent":53,"latestVolumeCount":26984,"latestVolumeDate":"2024-05-22","extractedAt":"2025-08-02T15:51:04Z"}},{"type":"Feature","geometry":{"type":"Point","coordinates":[-97.779618,32.73393]},"properties":{"locationId":"184U10","locatedOn":"RED OAK/WASHINGTON","locOnAlias":"","type":"SPOT","category":"INACTIVE","routeType":"","route":"","active":"No","fnctClass":"(5)Major Collector","latestAadt":1727,"latestAadtYear":2019,"latestDhv30":192,"latestKPercent":11,"latestDPercent":54,"latestVolumeCount":2090,"latestVolumeDate":"2019-05-06","extractedAt":"2025-08-02T15:57:32Z"}}]}