{"type":"FeatureCollection","features":[{"type":"Feature","geometry":{"type":"Point","coordinates":[-97.78432,32.72512]},"properties":{"locationId":"184CR331A","locatedOn":"-","locOnAlias":"","type":"SPOT","category":"URBAN ACR","routeType":"","route":"","active":"Yes","fnctClass":"(7)Local","latestAadt":1826,"latestAadtYear":2024,"latestDhv30":178,"latestKPercent":10,"latestDPercent":null,"latestVolumeCount":1830,"latestVolumeDate":"2024-05-15","extractedAt":"2025-08-01T20:55:07Z"}},{"type":"Feature","geometry":{"type":"Point","coordinates":[-97.797863,32.725584]},"properties":{"locationId":"184HP8001A","locatedOn":"Tin Top","locOnAlias":"250317","type":"SPOT","category":"URBAN ACR","routeType":"FC","route":"0000","active":"Yes","fnctClass":"(5)Major Collector","latestAadt":5536,"latestAadtYear":2024,"latestDhv30":556,"latestKPercent":10,"latestDPercent":null,"latestVolumeCount":5833,"latestVolumeDate":"2024-05-15","extractedAt":"2025-08-02T12:44:50Z"}},{"type":"Feature","geometry":{"type":"Point","coordinates":[-97.781799,32.72992]},"properties":{"locationId":"184HP8054","locatedOn":"EBB FIELDER","locOnAlias":"","type":"SPOT","category":"URBAN ACR","routeType":"","route":"","active":"Yes","fnctClass":"(5)Major Collector","latestAadt":2440,"latestAadtYear":2024,"latestDhv30":278,"latestKPercent":11,"latestDPercent":null,"latestVolumeCount":2570,"latestVolumeDate":"2024-05-15","extractedAt":"2025-08-02T13:08:45Z"}},{"type":"Feature","geometry":{"type":"Point","coordinates":[-97.788827,32.724862]},"properties":{"locationId":"184HP8056","locatedOn":"WBB FIELDER","locOnAlias":"","type":"SPOT","category":"URBAN ACR","routeType":"","route":"","active":"Yes","fnctClass":"(5)Major Collector","latestAadt":5278,"latestAadtYear":2024,"latestDhv30":639,"latestKPercent":12,"latestDPercent":61,"latestVolumeCount":5560,"latestVolumeDate":"2024-05-15","extractedAt":"2025-08-02T13:09:15Z"}},{"type":"Feature","geometry":{"type":"Point","coordinates":[-97.786227,32.730772]},"properties":{"locationId":"184PT16","locatedOn":"IH0020","locOnAlias":"IH0020-XG","type":"SPOT","category":"ANNUAL ACR","routeType":"IH","route":"0020","active":"Yes","fnctClass":"(5)Major Collector","latestAadt":15504,"latestAadtYear":2024,"latestDhv30":1285,"latestKPercent":8,"latestDPercent":null,"latestVolumeCount":15964,"latestVolumeDate":"2024-05-13","extractedAt":"2025-08-02T13:23:56Z"}},{"type":"Feature","geometry":{"type":"Point","coordinates":[-97.789864,32.729087]},"properties":{"locationId":"184PT4","locatedOn":"IH0020","locOnAlias":"IH0020-AG","type":"SPOT","category":"ANNUAL ACR","routeType":"IH","route":"0020","active":"Yes","fnctClass":"(5)Major Collector","latestAadt":14463,"latestAadtYear":2024,"latestDhv30":null,"latestKPercent":null,"latestDPercent":null,"latestVolumeCount":1551,"latestVolumeDate":"2023-07-19","extractedAt":"2025-08-02T13:24:28Z"}},{"type":"Feature","geometry":{"type":"Point","coordinates":[-97.78948,32.72987]},"properties":{"locationId":"184PT5","locatedOn":"IH0020","locOnAlias":"IH0020-XG","type":"SPOT","category":"ANNUAL ACR","routeType":"IH","route":"0020","active":"Yes","fnctClass":"(5)Major Collector","latestAadt":4330,"latestAadtYear":2024,"latestDhv30":389,"latestKPercent":9,"latestDPercent":null,"latestVolumeCount":4455,"latestVolumeDate":"2024-05-13","extractedAt":"2025-08-02T13:24:43Z"}},{"type":"Feature","geometry":{"type":"Point","coordinates":[-97.793422,32.728213]},"properties":{"locationId":"184RP2011","locatedOn":"IH0020","locOnAlias":"","type":"SPOT","category":"RAMP","routeType":"","route":"","active":"Yes","fnctClass":"(1)Interstate","latestAadt":46008,"latestAadtYear":2024,"latestDhv30":420,"latestKPercent":9,"latestDPercent":null,"latestVolumeCount":5481,"latestVolumeDate":"2024-04-10","extractedAt":"2025-08-02T13:40:13Z"}},{"type":"Feature","geometry":{"type":"Point","coordinates":[-97.792626,32.728952]},"properties":{"locationId":"184RP2012","locatedOn":"IH0020","locOnAlias":"","type":"SPOT","category":"RAMP","routeType":"","route":"","active":"Yes","fnctClass":"(1)Interstate","latestAadt":45378,"latestAadtYear":2024,"latestDhv30":360,"latestKPercent":8,"latestDPercent":null,"latestVolumeCount":4799,"latestVolumeDate":"2024-04-10","extractedAt":"2025-08-02T13:46:39Z"}},{"type":"Feature","geometry":{"type":"Point","coordinates":[-97.786346,32.73013]},"properties":{"locationId":"184RP2013","locatedOn":"IH0020","locOnAlias":"","type":"SPOT","category":"RAMP","routeType":"","route":"","active":"Yes","fnctClass":"(1)Interstate","latestAadt":11588,"latestAadtYear":2024,"latestDhv30":143,"latestKPercent":12,"latestDPercent":null,"latestVolumeCount":1380,"latestVolumeDate":"2024-04-10","extractedAt":"2025-08-02T13:46:56Z"}},{"type":"Feature","geometry":{"type":"Point","coordinates":[-97.778469,32.731769]},"properties":{"locationId":"184RP2013A","locatedOn":"IH0020","locOnAlias":"","type":"SPOT","category":"RAMP","routeType":"","route":"","active":"Yes","fnctClass":"(1)Interstate","latestAadt":116398,"latestAadtYear":2024,"latestDhv30":916,"latestKPercent":8,"latestDPercent":null,"latestVolumeCount":11817,"latestVolumeDate":"2024-04-10","extractedAt":"2025-08-02T13:47:11Z"}},{"type":"Feature","geometry":{"type":"Point","coordinates":[-97.784794,32.73093]},"properties":{"locationId":"184RP2014","locatedOn":"IH0020","locOnAlias":"IH0020-KG","type":"SPOT","category":"RAMP","routeType":"IH","route":"0020","active":"Yes","fnctClass":"(1)Interstate","latestAadt":22388,"latestAadtYear":2024,"latestDhv30":215,"latestKPercent":10,"latestDPercent":null,"latestVolumeCount":2367,"latestVolumeDate":"2024-04-10","extractedAt":"2025-08-02T13:47:28Z"}},{"type":"Feature","geometry":{"type":"Point","coordinates":[-97.784703,32.721664]},"properties":{"locationId":"184U19","locatedOn":"SH0171","locOnAlias":"SH0171-KG","type":"SPOT","category":"URBAN ACR","routeType":"SH","route":"171","active":"Yes","fnctClass":"(4)Minor Arterial","latestAadt":14924,"latestAadtYear":2024,"latestDhv30":1350,"latestKPercent":9,"latestDPercent":null,"latestVolumeCount":17624,"latestVolumeDate":"2024-05-15","extractedAt":"2025-08-02T15:58:52Z"}}]}