{"type":"FeatureCollection","features":[{"type":"Feature","geometry":{"type":"Point","coordinates":[-97.794111,32.71142]},"properties":{"locationId":"184CR215","locatedOn":"NATIN TOP","locOnAlias":"","type":"SPOT","category":"URBAN ACR","routeType":"","route":"","active":"Yes","fnctClass":"(6)Minor Collector","latestAadt":6704,"latestAadtYear":2024,"latestDhv30":699,"latestKPercent":10,"latestDPercent":null,"latestVolumeCount":6949,"latestVolumeDate":"2024-05-15","extractedAt":"2025-08-01T19:44:13Z"}}]}