{"type":"FeatureCollection","features":[{"type":"Feature","geometry":{"type":"Point","coordinates":[-97.835197,32.728039]},"properties":{"locationId":"184RP205A","locatedOn":"IH0020","locOnAlias":"IH0020-KG","type":"SPOT","category":"RAMP","routeType":"IH","route":"0020","active":"Yes","fnctClass":"(1)Interstate","latestAadt":62618,"latestAadtYear":2024,"latestDhv30":486,"latestKPercent":8,"latestDPercent":null,"latestVolumeCount":5587,"latestVolumeDate":"2024-04-08","extractedAt":"2025-08-02T14:16:31Z"}},{"type":"Feature","geometry":{"type":"Point","coordinates":[-97.8355,32.728551]},"properties":{"locationId":"184RP206A","locatedOn":"IH0020","locOnAlias":"IH0020-KG","type":"SPOT","category":"RAMP","routeType":"IH","route":"0020","active":"Yes","fnctClass":"(1)Interstate","latestAadt":74818,"latestAadtYear":2024,"latestDhv30":651,"latestKPercent":9,"latestDPercent":null,"latestVolumeCount":7354,"latestVolumeDate":"2024-04-08","extractedAt":"2025-08-02T14:17:15Z"}}]}