{"type":"FeatureCollection","features":[{"type":"Feature","geometry":{"type":"Point","coordinates":[-97.578013,32.723835]},"properties":{"locationId":"184ML30X","locatedOn":"IH0030","locOnAlias":"IH0030-KG","type":"SPOT","category":"INACTIVE","routeType":"IH","route":"0020","active":"No","fnctClass":"(1)Interstate","latestAadt":337638,"latestAadtYear":2019,"latestDhv30":null,"latestKPercent":null,"latestDPercent":null,"latestVolumeCount":null,"latestVolumeDate":null,"extractedAt":"2025-08-02T13:17:12Z"}},{"type":"Feature","geometry":{"type":"Point","coordinates":[-97.578036,32.724363]},"properties":{"locationId":"184RP2040","locatedOn":"IH0020","locOnAlias":"","type":"SPOT","category":"RAMP","routeType":"","route":"","active":"Yes","fnctClass":"(1)Interstate","latestAadt":203508,"latestAadtYear":2024,"latestDhv30":2502,"latestKPercent":12,"latestDPercent":null,"latestVolumeCount":25727,"latestVolumeDate":"2024-05-01","extractedAt":"2025-08-02T14:15:47Z"}}]}