{"type":"FeatureCollection","features":[{"type":"Feature","geometry":{"type":"Point","coordinates":[-97.712364,32.833161]},"properties":{"locationId":"184CR5B","locatedOn":"-","locOnAlias":"","type":"SPOT","category":"URBAN ACR","routeType":"","route":"","active":"Yes","fnctClass":"(6)Minor Collector","latestAadt":1070,"latestAadtYear":2024,"latestDhv30":113,"latestKPercent":11,"latestDPercent":null,"latestVolumeCount":1098,"latestVolumeDate":"2024-05-22","extractedAt":"2025-08-01T21:26:15Z"}}]}