{"type":"FeatureCollection","features":[{"type":"Feature","geometry":{"type":"Point","coordinates":[-97.710674,32.75781]},"properties":{"locationId":"184CR326","locatedOn":"-","locOnAlias":"","type":"SPOT","category":"URBAN ACR","routeType":"","route":"","active":"Yes","fnctClass":"(5)Major Collector","latestAadt":6994,"latestAadtYear":2024,"latestDhv30":597,"latestKPercent":9,"latestDPercent":null,"latestVolumeCount":7195,"latestVolumeDate":"2024-05-21","extractedAt":"2025-08-01T20:47:21Z"}},{"type":"Feature","geometry":{"type":"Point","coordinates":[-97.711752,32.755152]},"properties":{"locationId":"184HP8057","locatedOn":"SOAKRIDGE","locOnAlias":"","type":"SPOT","category":"URBAN ACR","routeType":"","route":"","active":"Yes","fnctClass":"(5)Major Collector","latestAadt":5009,"latestAadtYear":2024,"latestDhv30":433,"latestKPercent":9,"latestDPercent":null,"latestVolumeCount":5237,"latestVolumeDate":"2024-05-21","extractedAt":"2025-08-02T13:14:57Z"}}]}