{"type":"FeatureCollection","features":[{"type":"Feature","geometry":{"type":"Point","coordinates":[-97.707466,32.753057]},"properties":{"locationId":"184CR325A","locatedOn":"Newell Dr","locOnAlias":"297488","type":"SPOT","category":"URBAN ACR","routeType":"LS","route":"0000","active":"Yes","fnctClass":"(6)Minor Collector","latestAadt":526,"latestAadtYear":2024,"latestDhv30":49,"latestKPercent":9,"latestDPercent":null,"latestVolumeCount":524,"latestVolumeDate":"2024-05-13","extractedAt":"2025-08-01T20:46:53Z"}}]}