{"type":"FeatureCollection","features":[{"type":"Feature","geometry":{"type":"Point","coordinates":[-98.025336,32.669824]},"properties":{"locationId":"184RP20107","locatedOn":"IH0020","locOnAlias":"IH0020-KG","type":"SPOT","category":"RAMP","routeType":"","route":"","active":"Yes","fnctClass":"(1)Interstate","latestAadt":3578,"latestAadtYear":2024,"latestDhv30":28,"latestKPercent":8,"latestDPercent":null,"latestVolumeCount":266,"latestVolumeDate":"2024-04-08","extractedAt":"2025-08-02T13:39:13Z"}},{"type":"Feature","geometry":{"type":"Point","coordinates":[-98.024719,32.67097]},"properties":{"locationId":"184RP20108","locatedOn":"IH0020","locOnAlias":"IH0020-KG","type":"SPOT","category":"RAMP","routeType":"","route":"","active":"Yes","fnctClass":"(1)Interstate","latestAadt":3348,"latestAadtYear":2024,"latestDhv30":43,"latestKPercent":13,"latestDPercent":null,"latestVolumeCount":365,"latestVolumeDate":"2024-04-08","extractedAt":"2025-08-02T13:39:30Z"}}]}