{"type":"FeatureCollection","features":[{"type":"Feature","geometry":{"type":"Point","coordinates":[-97.955161,32.6995]},"properties":{"locationId":"184CR99","locatedOn":"-","locOnAlias":"","type":"SPOT","category":"URBAN ACR","routeType":"","route":"","active":"Yes","fnctClass":"(7)Local","latestAadt":2615,"latestAadtYear":2024,"latestDhv30":417,"latestKPercent":16,"latestDPercent":null,"latestVolumeCount":2585,"latestVolumeDate":"2024-05-15","extractedAt":"2025-08-01T23:32:08Z"}},{"type":"Feature","geometry":{"type":"Point","coordinates":[-97.954942,32.702695]},"properties":{"locationId":"184RP20101","locatedOn":"IH0020","locOnAlias":"IH0020-KG","type":"SPOT","category":"RAMP","routeType":"IH","route":"0020","active":"Yes","fnctClass":"(1)Interstate","latestAadt":25048,"latestAadtYear":2024,"latestDhv30":304,"latestKPercent":12,"latestDPercent":null,"latestVolumeCount":2234,"latestVolumeDate":"2024-04-08","extractedAt":"2025-08-02T13:32:23Z"}},{"type":"Feature","geometry":{"type":"Point","coordinates":[-97.954956,32.703366]},"properties":{"locationId":"184RP20102","locatedOn":"IH0020","locOnAlias":"IH0020-KG","type":"SPOT","category":"RAMP","routeType":"IH","route":"0020","active":"Yes","fnctClass":"(1)Interstate","latestAadt":24468,"latestAadtYear":2024,"latestDhv30":236,"latestKPercent":10,"latestDPercent":null,"latestVolumeCount":2405,"latestVolumeDate":"2024-04-08","extractedAt":"2025-08-02T13:32:35Z"}},{"type":"Feature","geometry":{"type":"Point","coordinates":[-97.965061,32.699163]},"properties":{"locationId":"184RP20103","locatedOn":"IH0020","locOnAlias":"IH0020-KG","type":"SPOT","category":"RAMP","routeType":"","route":"","active":"Yes","fnctClass":"(1)Interstate","latestAadt":7618,"latestAadtYear":2024,"latestDhv30":86,"latestKPercent":11,"latestDPercent":null,"latestVolumeCount":867,"latestVolumeDate":"2024-04-08","extractedAt":"2025-08-02T13:32:49Z"}}]}