{"type":"FeatureCollection","features":[{"type":"Feature","geometry":{"type":"Point","coordinates":[-97.554733,32.70725]},"properties":{"locationId":"184D6A","locatedOn":"IH0020","locOnAlias":"IH0020-KG","type":"SPOT","category":"INACTIVE","routeType":"IH","route":"0020","active":"No","fnctClass":"(1)Interstate","latestAadt":320058,"latestAadtYear":2019,"latestDhv30":null,"latestKPercent":null,"latestDPercent":null,"latestVolumeCount":null,"latestVolumeDate":null,"extractedAt":"2025-08-01T23:49:46Z"}}]}