{"type":"FeatureCollection","features":[{"type":"Feature","geometry":{"type":"Point","coordinates":[-97.555646,32.60696]},"properties":{"locationId":"184D7","locatedOn":"US0377","locOnAlias":"US0377-KG","type":"SPOT","category":"INACTIVE","routeType":"US","route":"0377","active":"No","fnctClass":"(3)Principal Arterial-Other","latestAadt":24281,"latestAadtYear":2019,"latestDhv30":null,"latestKPercent":null,"latestDPercent":null,"latestVolumeCount":23064,"latestVolumeDate":"2018-07-30","extractedAt":"2025-08-01T23:50:43Z"}}]}