{"type":"FeatureCollection","features":[{"type":"Feature","geometry":{"type":"Point","coordinates":[-97.747676,32.74402]},"properties":{"locationId":"184CR330","locatedOn":"-","locOnAlias":"","type":"SPOT","category":"URBAN ACR","routeType":"","route":"","active":"Yes","fnctClass":"(5)Major Collector","latestAadt":8741,"latestAadtYear":2024,"latestDhv30":972,"latestKPercent":11,"latestDPercent":null,"latestVolumeCount":8909,"latestVolumeDate":"2024-05-13","extractedAt":"2025-08-01T20:54:51Z"}},{"type":"Feature","geometry":{"type":"Point","coordinates":[-97.746769,32.742546]},"properties":{"locationId":"184RP2019","locatedOn":"IH0020","locOnAlias":"","type":"SPOT","category":"RAMP","routeType":"","route":"","active":"Yes","fnctClass":"(1)Interstate","latestAadt":27298,"latestAadtYear":2024,"latestDhv30":230,"latestKPercent":8,"latestDPercent":null,"latestVolumeCount":2946,"latestVolumeDate":"2024-04-10","extractedAt":"2025-08-02T13:49:04Z"}},{"type":"Feature","geometry":{"type":"Point","coordinates":[-97.748029,32.742848]},"properties":{"locationId":"184RP2020","locatedOn":"IH0020","locOnAlias":"","type":"SPOT","category":"RAMP","routeType":"","route":"","active":"Yes","fnctClass":"(1)Interstate","latestAadt":36358,"latestAadtYear":2024,"latestDhv30":362,"latestKPercent":10,"latestDPercent":null,"latestVolumeCount":3424,"latestVolumeDate":"2024-04-10","extractedAt":"2025-08-02T13:54:58Z"}}]}