{"type":"FeatureCollection","features":[{"type":"Feature","geometry":{"type":"Point","coordinates":[-97.751239,32.777863]},"properties":{"locationId":"184FS29","locatedOn":"CR0000","locOnAlias":"184AA1039","type":"SPOT","category":"INACTIVE","routeType":"CR","route":"0000","active":"No","fnctClass":"(7)Local","latestAadt":26,"latestAadtYear":2019,"latestDhv30":6,"latestKPercent":23,"latestDPercent":null,"latestVolumeCount":27,"latestVolumeDate":"2019-05-06","extractedAt":"2025-08-02T00:12:40Z"}}]}