{"type":"FeatureCollection","features":[{"type":"Feature","geometry":{"type":"Point","coordinates":[-97.559327,32.904466]},"properties":{"locationId":"184U3575WBSR","locatedOn":"SH0199","locOnAlias":"SH0199-XG","type":"SPOT","category":"INACTIVE","routeType":"SH","route":"0199","active":"No","fnctClass":"(5)Major Collector","latestAadt":2541,"latestAadtYear":2020,"latestDhv30":303,"latestKPercent":12,"latestDPercent":null,"latestVolumeCount":2987,"latestVolumeDate":"2020-08-24","extractedAt":"2025-08-02T16:05:51Z"}}]}