{"type":"FeatureCollection","features":[{"type":"Feature","geometry":{"type":"Point","coordinates":[-97.565384,32.891752]},"properties":{"locationId":"184U11","locatedOn":"FM0730","locOnAlias":"FM0730-KG","type":"SPOT","category":"URBAN ACR","routeType":"FM","route":"730","active":"Yes","fnctClass":"(5)Major Collector","latestAadt":13580,"latestAadtYear":2024,"latestDhv30":1259,"latestKPercent":9,"latestDPercent":null,"latestVolumeCount":14793,"latestVolumeDate":"2024-05-21","extractedAt":"2025-08-02T15:57:45Z"}}]}