{"type":"FeatureCollection","features":[{"type":"Feature","geometry":{"type":"Point","coordinates":[-97.568954,32.722168]},"properties":{"locationId":"184D6AWBSR","locatedOn":"IH0020","locOnAlias":"IH0020-XG","type":"SPOT","category":"ANNUAL ACR","routeType":"IH","route":"0020","active":"Yes","fnctClass":"(5)Major Collector","latestAadt":3963,"latestAadtYear":2024,"latestDhv30":null,"latestKPercent":null,"latestDPercent":null,"latestVolumeCount":409,"latestVolumeDate":"2023-07-19","extractedAt":"2025-08-01T23:50:00Z"}},{"type":"Feature","geometry":{"type":"Point","coordinates":[-97.569143,32.72161]},"properties":{"locationId":"184DC2030NWF","locatedOn":"IH0020","locOnAlias":"IH0020-KG","type":"SPOT","category":"RAMP","routeType":"IH","route":"0020","active":"Yes","fnctClass":"(1)Interstate","latestAadt":18524,"latestAadtYear":2024,"latestDhv30":1773,"latestKPercent":10,"latestDPercent":null,"latestVolumeCount":19267,"latestVolumeDate":"2024-04-10","extractedAt":"2025-08-01T23:51:30Z"}},{"type":"Feature","geometry":{"type":"Point","coordinates":[-97.56869,32.721861]},"properties":{"locationId":"184RP2040A","locatedOn":"IH0030","locOnAlias":"IH0030-XG","type":"SPOT","category":"RAMP","routeType":"IH","route":"0030","active":"Yes","fnctClass":"(5)Major Collector","latestAadt":1082,"latestAadtYear":2024,"latestDhv30":143,"latestKPercent":13,"latestDPercent":null,"latestVolumeCount":1164,"latestVolumeDate":"2024-04-10","extractedAt":"2025-08-02T14:16:01Z"}},{"type":"Feature","geometry":{"type":"Point","coordinates":[-97.569092,32.720844]},"properties":{"locationId":"184RP301","locatedOn":"IH0030","locOnAlias":"IH0030-KG","type":"SPOT","category":"RAMP","routeType":"IH","route":"0030","active":"Yes","fnctClass":"(1)Interstate","latestAadt":675,"latestAadtYear":2024,"latestDhv30":94,"latestKPercent":14,"latestDPercent":null,"latestVolumeCount":702,"latestVolumeDate":"2024-05-01","extractedAt":"2025-08-02T14:23:58Z"}}]}