{"type":"FeatureCollection","features":[{"type":"Feature","geometry":{"type":"Point","coordinates":[-97.629659,32.73336]},"properties":{"locationId":"184RP2033","locatedOn":"IH0020","locOnAlias":"","type":"SPOT","category":"RAMP","routeType":"","route":"","active":"Yes","fnctClass":"(1)Interstate","latestAadt":57708,"latestAadtYear":2024,"latestDhv30":669,"latestKPercent":12,"latestDPercent":null,"latestVolumeCount":5772,"latestVolumeDate":"2024-12-11","extractedAt":"2025-08-02T14:08:26Z"}},{"type":"Feature","geometry":{"type":"Point","coordinates":[-97.629435,32.733848]},"properties":{"locationId":"184RP2034","locatedOn":"IH0020","locOnAlias":"","type":"SPOT","category":"RAMP","routeType":"","route":"","active":"Yes","fnctClass":"(1)Interstate","latestAadt":74108,"latestAadtYear":2024,"latestDhv30":858,"latestKPercent":12,"latestDPercent":null,"latestVolumeCount":7720,"latestVolumeDate":"2024-04-10","extractedAt":"2025-08-02T14:08:40Z"}}]}