{"type":"FeatureCollection","features":[{"type":"Feature","geometry":{"type":"Point","coordinates":[-98.052038,32.830625]},"properties":{"locationId":"184CR127F","locatedOn":"Pershing Rd","locOnAlias":"1173334","type":"SPOT","category":"INACTIVE","routeType":"LS","route":"0000","active":"No","fnctClass":"(7)Local","latestAadt":130,"latestAadtYear":2009,"latestDhv30":null,"latestKPercent":null,"latestDPercent":null,"latestVolumeCount":null,"latestVolumeDate":null,"extractedAt":"2025-08-01T17:37:07Z"}}]}