{"type":"FeatureCollection","features":[{"type":"Feature","geometry":{"type":"Point","coordinates":[-97.760267,32.792736]},"properties":{"locationId":"184HP7","locatedOn":"Upper Denton","locOnAlias":"184AA0261","type":"SPOT","category":"ANNUAL ACR","routeType":"CR","route":"0000","active":"Yes","fnctClass":"(6)Minor Collector","latestAadt":1281,"latestAadtYear":2024,"latestDhv30":119,"latestKPercent":9,"latestDPercent":66,"latestVolumeCount":1283,"latestVolumeDate":"2024-05-15","extractedAt":"2025-08-02T12:44:07Z"}}]}