{"type":"FeatureCollection","features":[{"type":"Feature","geometry":{"type":"Point","coordinates":[-97.760035,32.736488]},"properties":{"locationId":"184CR329A","locatedOn":"-","locOnAlias":"","type":"SPOT","category":"URBAN ACR","routeType":"","route":"","active":"Yes","fnctClass":"(7)Local","latestAadt":4144,"latestAadtYear":2019,"latestDhv30":386,"latestKPercent":9,"latestDPercent":null,"latestVolumeCount":4497,"latestVolumeDate":"2019-05-15","extractedAt":"2025-08-01T20:48:48Z"}},{"type":"Feature","geometry":{"type":"Point","coordinates":[-97.760611,32.737668]},"properties":{"locationId":"184RP2017","locatedOn":"IH0020","locOnAlias":"","type":"SPOT","category":"RAMP","routeType":"","route":"","active":"Yes","fnctClass":"(1)Interstate","latestAadt":54088,"latestAadtYear":2024,"latestDhv30":407,"latestKPercent":8,"latestDPercent":null,"latestVolumeCount":5491,"latestVolumeDate":"2024-04-10","extractedAt":"2025-08-02T13:48:30Z"}},{"type":"Feature","geometry":{"type":"Point","coordinates":[-97.760671,32.73834]},"properties":{"locationId":"184RP2018","locatedOn":"IH0020","locOnAlias":"","type":"SPOT","category":"RAMP","routeType":"","route":"","active":"Yes","fnctClass":"(1)Interstate","latestAadt":59368,"latestAadtYear":2024,"latestDhv30":502,"latestKPercent":8,"latestDPercent":null,"latestVolumeCount":6249,"latestVolumeDate":"2024-04-10","extractedAt":"2025-08-02T13:48:46Z"}}]}