{"type":"FeatureCollection","features":[{"type":"Feature","geometry":{"type":"Point","coordinates":[-97.698041,32.760701]},"properties":{"locationId":"184FS306","locatedOn":"CR0000","locOnAlias":"184AA2071","type":"SPOT","category":"INACTIVE","routeType":"CR","route":"0000","active":"No","fnctClass":"(7)Local","latestAadt":209,"latestAadtYear":2019,"latestDhv30":22,"latestKPercent":11,"latestDPercent":null,"latestVolumeCount":219,"latestVolumeDate":"2019-05-06","extractedAt":"2025-08-02T00:34:15Z"}},{"type":"Feature","geometry":{"type":"Point","coordinates":[-97.699882,32.760673]},"properties":{"locationId":"184FS311","locatedOn":"LS0000","locOnAlias":"1132791","type":"SPOT","category":"URBAN ACR","routeType":"LS","route":"0000","active":"Yes","fnctClass":"(7)Local","latestAadt":1305,"latestAadtYear":2024,"latestDhv30":157,"latestKPercent":12,"latestDPercent":null,"latestVolumeCount":1334,"latestVolumeDate":"2024-05-21","extractedAt":"2025-08-02T00:35:15Z"}},{"type":"Feature","geometry":{"type":"Point","coordinates":[-97.70094,32.763604]},"properties":{"locationId":"184FS33","locatedOn":"LS0000","locOnAlias":"1250776","type":"SPOT","category":"INACTIVE","routeType":"LS","route":"0000","active":"No","fnctClass":"(7)Local","latestAadt":282,"latestAadtYear":2014,"latestDhv30":34,"latestKPercent":16,"latestDPercent":null,"latestVolumeCount":294,"latestVolumeDate":"2014-04-21","extractedAt":"2025-08-02T00:42:42Z"}},{"type":"Feature","geometry":{"type":"Point","coordinates":[-97.698929,32.761531]},"properties":{"locationId":"184HP8051","locatedOn":"NALAKESHORE","locOnAlias":"","type":"SPOT","category":"URBAN ACR","routeType":"","route":"","active":"Yes","fnctClass":"(5)Major Collector","latestAadt":4190,"latestAadtYear":2024,"latestDhv30":380,"latestKPercent":9,"latestDPercent":null,"latestVolumeCount":4381,"latestVolumeDate":"2024-05-21","extractedAt":"2025-08-02T13:07:56Z"}}]}