{"type":"FeatureCollection","features":[{"type":"Feature","geometry":{"type":"Point","coordinates":[-97.976086,32.878099]},"properties":{"locationId":"184CR133","locatedOn":"-","locOnAlias":"","type":"SPOT","category":"URBAN ACR","routeType":"","route":"","active":"Yes","fnctClass":"(7)Local","latestAadt":641,"latestAadtYear":2024,"latestDhv30":86,"latestKPercent":14,"latestDPercent":null,"latestVolumeCount":625,"latestVolumeDate":"2024-05-15","extractedAt":"2025-08-01T18:06:04Z"}},{"type":"Feature","geometry":{"type":"Point","coordinates":[-98.019908,32.95659]},"properties":{"locationId":"184CR137","locatedOn":"-","locOnAlias":"","type":"SPOT","category":"URBAN ACR","routeType":"","route":"","active":"Yes","fnctClass":"(7)Local","latestAadt":227,"latestAadtYear":2024,"latestDhv30":26,"latestKPercent":12,"latestDPercent":null,"latestVolumeCount":258,"latestVolumeDate":"2024-05-15","extractedAt":"2025-08-01T18:06:49Z"}},{"type":"Feature","geometry":{"type":"Point","coordinates":[-97.922155,32.886269]},"properties":{"locationId":"184CR142","locatedOn":"-","locOnAlias":"","type":"SPOT","category":"URBAN ACR","routeType":"","route":"","active":"Yes","fnctClass":"(7)Local","latestAadt":806,"latestAadtYear":2024,"latestDhv30":77,"latestKPercent":10,"latestDPercent":null,"latestVolumeCount":786,"latestVolumeDate":"2024-05-15","extractedAt":"2025-08-01T18:07:47Z"}},{"type":"Feature","geometry":{"type":"Point","coordinates":[-97.923626,32.892377]},"properties":{"locationId":"184CR142A","locatedOn":"-","locOnAlias":"","type":"SPOT","category":"URBAN ACR","routeType":"","route":"","active":"Yes","fnctClass":"(7)Local","latestAadt":669,"latestAadtYear":2024,"latestDhv30":59,"latestKPercent":9,"latestDPercent":null,"latestVolumeCount":653,"latestVolumeDate":"2024-05-15","extractedAt":"2025-08-01T18:08:03Z"}},{"type":"Feature","geometry":{"type":"Point","coordinates":[-97.905687,32.868558]},"properties":{"locationId":"184CR143","locatedOn":"-","locOnAlias":"","type":"SPOT","category":"URBAN ACR","routeType":"","route":"","active":"Yes","fnctClass":"(7)Local","latestAadt":885,"latestAadtYear":2024,"latestDhv30":104,"latestKPercent":12,"latestDPercent":null,"latestVolumeCount":863,"latestVolumeDate":"2024-05-15","extractedAt":"2025-08-01T18:08:18Z"}},{"type":"Feature","geometry":{"type":"Point","coordinates":[-97.866327,32.866495]},"properties":{"locationId":"184CR147","locatedOn":"-","locOnAlias":"","type":"SPOT","category":"URBAN ACR","routeType":"","route":"","active":"Yes","fnctClass":"(7)Local","latestAadt":2684,"latestAadtYear":2024,"latestDhv30":653,"latestKPercent":24,"latestDPercent":null,"latestVolumeCount":2615,"latestVolumeDate":"2024-05-15","extractedAt":"2025-08-01T18:15:15Z"}},{"type":"Feature","geometry":{"type":"Point","coordinates":[-97.866081,32.878198]},"properties":{"locationId":"184CR149","locatedOn":"-","locOnAlias":"","type":"SPOT","category":"URBAN ACR","routeType":"","route":"","active":"Yes","fnctClass":"(7)Local","latestAadt":458,"latestAadtYear":2024,"latestDhv30":69,"latestKPercent":15,"latestDPercent":null,"latestVolumeCount":443,"latestVolumeDate":"2024-05-15","extractedAt":"2025-08-01T18:15:29Z"}},{"type":"Feature","geometry":{"type":"Point","coordinates":[-97.861851,32.897817]},"properties":{"locationId":"184CR150","locatedOn":"-","locOnAlias":"","type":"SPOT","category":"URBAN ACR","routeType":"","route":"","active":"Yes","fnctClass":"(7)Local","latestAadt":643,"latestAadtYear":2024,"latestDhv30":68,"latestKPercent":11,"latestDPercent":null,"latestVolumeCount":620,"latestVolumeDate":"2024-05-15","extractedAt":"2025-08-01T18:16:30Z"}},{"type":"Feature","geometry":{"type":"Point","coordinates":[-97.855128,32.934509]},"properties":{"locationId":"184CR152","locatedOn":"-","locOnAlias":"","type":"SPOT","category":"URBAN ACR","routeType":"","route":"","active":"Yes","fnctClass":"(7)Local","latestAadt":383,"latestAadtYear":2024,"latestDhv30":43,"latestKPercent":11,"latestDPercent":null,"latestVolumeCount":370,"latestVolumeDate":"2024-05-15","extractedAt":"2025-08-01T18:31:49Z"}},{"type":"Feature","geometry":{"type":"Point","coordinates":[-97.869445,32.980165]},"properties":{"locationId":"184CR158","locatedOn":"-","locOnAlias":"","type":"SPOT","category":"URBAN ACR","routeType":"","route":"","active":"Yes","fnctClass":"(7)Local","latestAadt":299,"latestAadtYear":2024,"latestDhv30":33,"latestKPercent":11,"latestDPercent":null,"latestVolumeCount":291,"latestVolumeDate":"2024-05-15","extractedAt":"2025-08-01T18:32:05Z"}},{"type":"Feature","geometry":{"type":"Point","coordinates":[-97.858405,32.974822]},"properties":{"locationId":"184CR160","locatedOn":"-","locOnAlias":"","type":"SPOT","category":"URBAN ACR","routeType":"","route":"","active":"Yes","fnctClass":"(7)Local","latestAadt":1979,"latestAadtYear":2024,"latestDhv30":293,"latestKPercent":15,"latestDPercent":null,"latestVolumeCount":1920,"latestVolumeDate":"2024-05-15","extractedAt":"2025-08-01T18:32:20Z"}},{"type":"Feature","geometry":{"type":"Point","coordinates":[-97.854589,32.983187]},"properties":{"locationId":"184CR162","locatedOn":"-","locOnAlias":"","type":"SPOT","category":"URBAN ACR","routeType":"","route":"","active":"Yes","fnctClass":"(7)Local","latestAadt":2559,"latestAadtYear":2024,"latestDhv30":290,"latestKPercent":11,"latestDPercent":null,"latestVolumeCount":2486,"latestVolumeDate":"2024-05-15","extractedAt":"2025-08-01T18:32:35Z"}},{"type":"Feature","geometry":{"type":"Point","coordinates":[-97.822314,32.963845]},"properties":{"locationId":"184CR162A","locatedOn":"-","locOnAlias":"","type":"SPOT","category":"URBAN ACR","routeType":"","route":"","active":"Yes","fnctClass":"(6)Minor Collector","latestAadt":565,"latestAadtYear":2019,"latestDhv30":56,"latestKPercent":10,"latestDPercent":null,"latestVolumeCount":616,"latestVolumeDate":"2019-05-13","extractedAt":"2025-08-01T18:32:51Z"}},{"type":"Feature","geometry":{"type":"Point","coordinates":[-97.800009,32.978033]},"properties":{"locationId":"184CR162B","locatedOn":"-","locOnAlias":"","type":"SPOT","category":"URBAN ACR","routeType":"","route":"","active":"Yes","fnctClass":"(7)Local","latestAadt":828,"latestAadtYear":2024,"latestDhv30":72,"latestKPercent":9,"latestDPercent":null,"latestVolumeCount":807,"latestVolumeDate":"2024-05-22","extractedAt":"2025-08-01T18:33:08Z"}},{"type":"Feature","geometry":{"type":"Point","coordinates":[-97.822702,32.992617]},"properties":{"locationId":"184CR163","locatedOn":"-","locOnAlias":"","type":"SPOT","category":"URBAN ACR","routeType":"","route":"","active":"Yes","fnctClass":"(7)Local","latestAadt":1756,"latestAadtYear":2019,"latestDhv30":232,"latestKPercent":13,"latestDPercent":null,"latestVolumeCount":1847,"latestVolumeDate":"2019-05-13","extractedAt":"2025-08-01T18:33:23Z"}},{"type":"Feature","geometry":{"type":"Point","coordinates":[-97.788881,32.97516]},"properties":{"locationId":"184CR165","locatedOn":"-","locOnAlias":"","type":"SPOT","category":"URBAN ACR","routeType":"","route":"","active":"Yes","fnctClass":"(6)Minor Collector","latestAadt":701,"latestAadtYear":2024,"latestDhv30":74,"latestKPercent":11,"latestDPercent":null,"latestVolumeCount":720,"latestVolumeDate":"2024-05-22","extractedAt":"2025-08-01T18:33:37Z"}},{"type":"Feature","geometry":{"type":"Point","coordinates":[-97.786071,32.974822]},"properties":{"locationId":"184CR166","locatedOn":"-","locOnAlias":"","type":"SPOT","category":"URBAN ACR","routeType":"","route":"","active":"Yes","fnctClass":"(7)Local","latestAadt":216,"latestAadtYear":2024,"latestDhv30":35,"latestKPercent":16,"latestDPercent":null,"latestVolumeCount":214,"latestVolumeDate":"2024-05-22","extractedAt":"2025-08-01T19:16:23Z"}},{"type":"Feature","geometry":{"type":"Point","coordinates":[-97.787629,32.982158]},"properties":{"locationId":"184CR167","locatedOn":"-","locOnAlias":"","type":"SPOT","category":"URBAN ACR","routeType":"","route":"","active":"Yes","fnctClass":"(7)Local","latestAadt":1202,"latestAadtYear":2024,"latestDhv30":101,"latestKPercent":8,"latestDPercent":null,"latestVolumeCount":1172,"latestVolumeDate":"2024-05-22","extractedAt":"2025-08-01T19:16:38Z"}},{"type":"Feature","geometry":{"type":"Point","coordinates":[-97.755145,32.985779]},"properties":{"locationId":"184CR168","locatedOn":"-","locOnAlias":"","type":"SPOT","category":"URBAN ACR","routeType":"","route":"","active":"Yes","fnctClass":"(7)Local","latestAadt":469,"latestAadtYear":2024,"latestDhv30":50,"latestKPercent":11,"latestDPercent":null,"latestVolumeCount":486,"latestVolumeDate":"2024-05-20","extractedAt":"2025-08-01T19:16:55Z"}},{"type":"Feature","geometry":{"type":"Point","coordinates":[-97.743507,32.973449]},"properties":{"locationId":"184CR169","locatedOn":"-","locOnAlias":"","type":"SPOT","category":"URBAN ACR","routeType":"","route":"","active":"Yes","fnctClass":"(7)Local","latestAadt":701,"latestAadtYear":2014,"latestDhv30":64,"latestKPercent":9,"latestDPercent":null,"latestVolumeCount":730,"latestVolumeDate":"2014-04-23","extractedAt":"2025-08-01T19:17:10Z"}},{"type":"Feature","geometry":{"type":"Point","coordinates":[-97.820667,32.92691]},"properties":{"locationId":"184CR173","locatedOn":"-","locOnAlias":"","type":"SPOT","category":"URBAN ACR","routeType":"","route":"","active":"Yes","fnctClass":"(5)Major Collector","latestAadt":686,"latestAadtYear":2024,"latestDhv30":65,"latestKPercent":10,"latestDPercent":null,"latestVolumeCount":723,"latestVolumeDate":"2024-05-15","extractedAt":"2025-08-01T19:30:04Z"}},{"type":"Feature","geometry":{"type":"Point","coordinates":[-97.825812,32.859753]},"properties":{"locationId":"184CR173C","locatedOn":"-","locOnAlias":"","type":"SPOT","category":"URBAN ACR","routeType":"","route":"","active":"Yes","fnctClass":"(7)Local","latestAadt":1350,"latestAadtYear":2024,"latestDhv30":297,"latestKPercent":22,"latestDPercent":null,"latestVolumeCount":1313,"latestVolumeDate":"2024-05-15","extractedAt":"2025-08-01T19:30:19Z"}},{"type":"Feature","geometry":{"type":"Point","coordinates":[-97.73861,32.904967]},"properties":{"locationId":"184CR174A","locatedOn":"-","locOnAlias":"","type":"SPOT","category":"URBAN ACR","routeType":"","route":"","active":"Yes","fnctClass":"(5)Major Collector","latestAadt":1688,"latestAadtYear":2024,"latestDhv30":163,"latestKPercent":10,"latestDPercent":null,"latestVolumeCount":1778,"latestVolumeDate":"2024-05-22","extractedAt":"2025-08-01T19:34:35Z"}},{"type":"Feature","geometry":{"type":"Point","coordinates":[-97.779838,32.887817]},"properties":{"locationId":"184CR175A","locatedOn":"-","locOnAlias":"","type":"SPOT","category":"URBAN ACR","routeType":"","route":"","active":"Yes","fnctClass":"(6)Minor Collector","latestAadt":265,"latestAadtYear":2019,"latestDhv30":37,"latestKPercent":14,"latestDPercent":null,"latestVolumeCount":290,"latestVolumeDate":"2019-05-13","extractedAt":"2025-08-01T19:34:49Z"}},{"type":"Feature","geometry":{"type":"Point","coordinates":[-97.737762,32.943357]},"properties":{"locationId":"184CR204","locatedOn":"NAJE WOODY","locOnAlias":"","type":"SPOT","category":"URBAN ACR","routeType":"","route":"","active":"Yes","fnctClass":"(7)Local","latestAadt":906,"latestAadtYear":2024,"latestDhv30":76,"latestKPercent":8,"latestDPercent":null,"latestVolumeCount":916,"latestVolumeDate":"2024-05-22","extractedAt":"2025-08-01T19:36:08Z"}},{"type":"Feature","geometry":{"type":"Point","coordinates":[-97.927197,32.958692]},"properties":{"locationId":"184CR205","locatedOn":"NAADVANCE","locOnAlias":"","type":"SPOT","category":"URBAN ACR","routeType":"","route":"","active":"Yes","fnctClass":"(7)Local","latestAadt":185,"latestAadtYear":2024,"latestDhv30":19,"latestKPercent":11,"latestDPercent":null,"latestVolumeCount":180,"latestVolumeDate":"2024-05-15","extractedAt":"2025-08-01T19:36:25Z"}},{"type":"Feature","geometry":{"type":"Point","coordinates":[-97.948227,32.941513]},"properties":{"locationId":"184CR206","locatedOn":"NABALLARD","locOnAlias":"","type":"SPOT","category":"URBAN ACR","routeType":"","route":"","active":"Yes","fnctClass":"(7)Local","latestAadt":113,"latestAadtYear":2024,"latestDhv30":9,"latestKPercent":9,"latestDPercent":null,"latestVolumeCount":110,"latestVolumeDate":"2024-05-15","extractedAt":"2025-08-01T19:36:38Z"}},{"type":"Feature","geometry":{"type":"Point","coordinates":[-97.927387,32.913136]},"properties":{"locationId":"184CR208","locatedOn":"NAADVANCE","locOnAlias":"","type":"SPOT","category":"URBAN ACR","routeType":"","route":"","active":"Yes","fnctClass":"(7)Local","latestAadt":472,"latestAadtYear":2024,"latestDhv30":44,"latestKPercent":9,"latestDPercent":null,"latestVolumeCount":460,"latestVolumeDate":"2024-05-15","extractedAt":"2025-08-01T19:42:26Z"}},{"type":"Feature","geometry":{"type":"Point","coordinates":[-97.788855,32.94173]},"properties":{"locationId":"184CR218","locatedOn":"NAOLD AGNES","locOnAlias":"","type":"SPOT","category":"URBAN ACR","routeType":"","route":"","active":"Yes","fnctClass":"(6)Minor Collector","latestAadt":245,"latestAadtYear":2024,"latestDhv30":34,"latestKPercent":14,"latestDPercent":null,"latestVolumeCount":243,"latestVolumeDate":"2024-05-20","extractedAt":"2025-08-01T19:44:44Z"}},{"type":"Feature","geometry":{"type":"Point","coordinates":[-97.841458,32.967179]},"properties":{"locationId":"184CR219","locatedOn":"NAERWIN","locOnAlias":"","type":"SPOT","category":"URBAN ACR","routeType":"","route":"","active":"Yes","fnctClass":"(5)Major Collector","latestAadt":984,"latestAadtYear":2024,"latestDhv30":113,"latestKPercent":12,"latestDPercent":null,"latestVolumeCount":1038,"latestVolumeDate":"2024-05-15","extractedAt":"2025-08-01T19:50:19Z"}},{"type":"Feature","geometry":{"type":"Point","coordinates":[-97.884617,32.897752]},"properties":{"locationId":"184CR220","locatedOn":"WDRY CREEK","locOnAlias":"","type":"SPOT","category":"URBAN ACR","routeType":"","route":"","active":"Yes","fnctClass":"(7)Local","latestAadt":873,"latestAadtYear":2024,"latestDhv30":90,"latestKPercent":10,"latestDPercent":null,"latestVolumeCount":844,"latestVolumeDate":"2024-05-15","extractedAt":"2025-08-01T19:51:27Z"}},{"type":"Feature","geometry":{"type":"Point","coordinates":[-97.927251,32.935068]},"properties":{"locationId":"184CR221","locatedOn":"NAADVANCE","locOnAlias":"","type":"SPOT","category":"URBAN ACR","routeType":"","route":"","active":"Yes","fnctClass":"(7)Local","latestAadt":381,"latestAadtYear":2024,"latestDhv30":39,"latestKPercent":10,"latestDPercent":null,"latestVolumeCount":371,"latestVolumeDate":"2024-05-15","extractedAt":"2025-08-01T19:51:42Z"}},{"type":"Feature","geometry":{"type":"Point","coordinates":[-97.856458,32.974777]},"properties":{"locationId":"184CR223","locatedOn":"NAERWIN","locOnAlias":"","type":"SPOT","category":"URBAN ACR","routeType":"","route":"","active":"Yes","fnctClass":"(5)Major Collector","latestAadt":749,"latestAadtYear":2024,"latestDhv30":75,"latestKPercent":10,"latestDPercent":null,"latestVolumeCount":790,"latestVolumeDate":"2024-05-15","extractedAt":"2025-08-01T19:52:12Z"}},{"type":"Feature","geometry":{"type":"Point","coordinates":[-97.910115,32.851395]},"properties":{"locationId":"184CR231","locatedOn":"NACABANISS","locOnAlias":"","type":"SPOT","category":"URBAN ACR","routeType":"","route":"","active":"Yes","fnctClass":"(7)Local","latestAadt":159,"latestAadtYear":2024,"latestDhv30":17,"latestKPercent":11,"latestDPercent":null,"latestVolumeCount":156,"latestVolumeDate":"2024-05-15","extractedAt":"2025-08-01T19:59:37Z"}},{"type":"Feature","geometry":{"type":"Point","coordinates":[-98.050288,32.917346]},"properties":{"locationId":"184D11","locatedOn":"FM1885","locOnAlias":"FM1885-KG","type":"SPOT","category":"ANNUAL ACR","routeType":"FM","route":"1885","active":"Yes","fnctClass":"(5)Major Collector","latestAadt":21603,"latestAadtYear":2024,"latestDhv30":null,"latestKPercent":null,"latestDPercent":null,"latestVolumeCount":2327,"latestVolumeDate":"2023-07-19","extractedAt":"2025-08-01T23:37:57Z"}},{"type":"Feature","geometry":{"type":"Point","coordinates":[-97.97822,32.912436]},"properties":{"locationId":"184D13","locatedOn":"FM1885","locOnAlias":"FM1885-KG","type":"SPOT","category":"ANNUAL ACR","routeType":"FM","route":"1885","active":"Yes","fnctClass":"(5)Major Collector","latestAadt":2446,"latestAadtYear":2024,"latestDhv30":219,"latestKPercent":9,"latestDPercent":null,"latestVolumeCount":2587,"latestVolumeDate":"2024-05-14","extractedAt":"2025-08-01T23:38:29Z"}},{"type":"Feature","geometry":{"type":"Point","coordinates":[-97.84294,32.861736]},"properties":{"locationId":"184FS22","locatedOn":"CR0000","locOnAlias":"184AA1048","type":"SPOT","category":"URBAN ACR","routeType":"CR","route":"0000","active":"Yes","fnctClass":"(7)Local","latestAadt":1357,"latestAadtYear":2024,"latestDhv30":313,"latestKPercent":23,"latestDPercent":null,"latestVolumeCount":1320,"latestVolumeDate":"2024-05-15","extractedAt":"2025-08-02T00:11:20Z"}},{"type":"Feature","geometry":{"type":"Point","coordinates":[-97.90066,32.966802]},"properties":{"locationId":"184FS27","locatedOn":"CR0000","locOnAlias":"184AA0212","type":"SPOT","category":"URBAN ACR","routeType":"CR","route":"0000","active":"Yes","fnctClass":"(7)Local","latestAadt":242,"latestAadtYear":2024,"latestDhv30":25,"latestKPercent":11,"latestDPercent":null,"latestVolumeCount":234,"latestVolumeDate":"2024-05-15","extractedAt":"2025-08-02T00:12:24Z"}},{"type":"Feature","geometry":{"type":"Point","coordinates":[-97.742925,32.90992]},"properties":{"locationId":"184HP8046","locatedOn":"NAPRATHER","locOnAlias":"","type":"SPOT","category":"URBAN ACR","routeType":"","route":"","active":"Yes","fnctClass":"(5)Major Collector","latestAadt":404,"latestAadtYear":2024,"latestDhv30":43,"latestKPercent":11,"latestDPercent":null,"latestVolumeCount":425,"latestVolumeDate":"2024-05-22","extractedAt":"2025-08-02T13:01:25Z"}},{"type":"Feature","geometry":{"type":"Point","coordinates":[-97.741201,32.906524]},"properties":{"locationId":"184HP8047","locatedOn":"NACARTER","locOnAlias":"","type":"SPOT","category":"URBAN ACR","routeType":"","route":"","active":"Yes","fnctClass":"(5)Major Collector","latestAadt":1350,"latestAadtYear":2024,"latestDhv30":134,"latestKPercent":10,"latestDPercent":null,"latestVolumeCount":1422,"latestVolumeDate":"2024-05-22","extractedAt":"2025-08-02T13:06:59Z"}},{"type":"Feature","geometry":{"type":"Point","coordinates":[-98.02033,32.955269]},"properties":{"locationId":"184T32","locatedOn":"FM0052","locOnAlias":"FM0052-KG","type":"SPOT","category":"ANNUAL ACR","routeType":"FM","route":"0052","active":"Yes","fnctClass":"(5)Major Collector","latestAadt":11453,"latestAadtYear":2024,"latestDhv30":null,"latestKPercent":null,"latestDPercent":null,"latestVolumeCount":911,"latestVolumeDate":"2023-07-17","extractedAt":"2025-08-02T15:48:44Z"}},{"type":"Feature","geometry":{"type":"Point","coordinates":[-97.859175,32.969928]},"properties":{"locationId":"184T34","locatedOn":"FM0920","locOnAlias":"FM0920-KG","type":"SPOT","category":"ANNUAL ACR","routeType":"FM","route":"0920","active":"Yes","fnctClass":"(5)Major Collector","latestAadt":4151,"latestAadtYear":2024,"latestDhv30":488,"latestKPercent":12,"latestDPercent":null,"latestVolumeCount":4342,"latestVolumeDate":"2024-05-20","extractedAt":"2025-08-02T15:49:00Z"}},{"type":"Feature","geometry":{"type":"Point","coordinates":[-97.867364,32.871338]},"properties":{"locationId":"184T35","locatedOn":"FM0920","locOnAlias":"FM0920-KG","type":"SPOT","category":"ANNUAL ACR","routeType":"FM","route":"0920","active":"Yes","fnctClass":"(5)Major Collector","latestAadt":7115,"latestAadtYear":2024,"latestDhv30":918,"latestKPercent":13,"latestDPercent":null,"latestVolumeCount":7425,"latestVolumeDate":"2024-05-20","extractedAt":"2025-08-02T15:49:17Z"}},{"type":"Feature","geometry":{"type":"Point","coordinates":[-97.857995,32.916309]},"properties":{"locationId":"184U1","locatedOn":"FM0920-KG","locOnAlias":"","type":"SPOT","category":"URBAN ACR","routeType":"","route":"","active":"Yes","fnctClass":"(5)Major Collector","latestAadt":4333,"latestAadtYear":2024,"latestDhv30":427,"latestKPercent":10,"latestDPercent":null,"latestVolumeCount":4673,"latestVolumeDate":"2024-05-15","extractedAt":"2025-08-02T15:57:15Z"}}]}