{"type":"FeatureCollection","features":[{"type":"Feature","geometry":{"type":"Point","coordinates":[-97.97822,32.912436]},"properties":{"locationId":"184D13","locatedOn":"FM1885","locOnAlias":"FM1885-KG","type":"SPOT","category":"ANNUAL ACR","routeType":"FM","route":"1885","active":"Yes","fnctClass":"(5)Major Collector","latestAadt":2446,"latestAadtYear":2024,"latestDhv30":219,"latestKPercent":9,"latestDPercent":null,"latestVolumeCount":2587,"latestVolumeDate":"2024-05-14","extractedAt":"2025-08-01T23:38:29Z"}}]}