{"type":"FeatureCollection","features":[{"type":"Feature","geometry":{"type":"Point","coordinates":[-97.997002,32.754922]},"properties":{"locationId":"184CR233","locatedOn":"NACOOL JUNCTION","locOnAlias":"","type":"SPOT","category":"URBAN ACR","routeType":"","route":"","active":"Yes","fnctClass":"(7)Local","latestAadt":123,"latestAadtYear":2019,"latestDhv30":16,"latestKPercent":13,"latestDPercent":null,"latestVolumeCount":132,"latestVolumeDate":"2019-05-08","extractedAt":"2025-08-01T20:00:03Z"}},{"type":"Feature","geometry":{"type":"Point","coordinates":[-97.997002,32.754922]},"properties":{"locationId":"184CR233","locatedOn":"NACOOL JUNCTION","locOnAlias":"","type":"SPOT","category":"URBAN ACR","routeType":"","route":"","active":"Yes","fnctClass":"(7)Local","latestAadt":123,"latestAadtYear":2019,"latestDhv30":16,"latestKPercent":13,"latestDPercent":null,"latestVolumeCount":132,"latestVolumeDate":"2019-05-08","extractedAt":"2025-08-01T20:00:21Z"}}]}