{"type":"FeatureCollection","features":[{"type":"Feature","geometry":{"type":"Point","coordinates":[-97.623416,32.877469]},"properties":{"locationId":"184CR31B","locatedOn":"-","locOnAlias":"","type":"SPOT","category":"URBAN ACR","routeType":"","route":"","active":"Yes","fnctClass":"(6)Minor Collector","latestAadt":2945,"latestAadtYear":2024,"latestDhv30":290,"latestKPercent":10,"latestDPercent":null,"latestVolumeCount":2914,"latestVolumeDate":"2024-05-21","extractedAt":"2025-08-01T20:38:42Z"}}]}