{"type":"FeatureCollection","features":[{"type":"Feature","geometry":{"type":"Point","coordinates":[-97.616913,32.691718]},"properties":{"locationId":"184CR41A","locatedOn":"-","locOnAlias":"","type":"SPOT","category":"URBAN ACR","routeType":"","route":"","active":"Yes","fnctClass":"(7)Local","latestAadt":5263,"latestAadtYear":2024,"latestDhv30":549,"latestKPercent":10,"latestDPercent":null,"latestVolumeCount":5476,"latestVolumeDate":"2024-05-13","extractedAt":"2025-08-01T21:19:43Z"}},{"type":"Feature","geometry":{"type":"Point","coordinates":[-97.602832,32.692435]},"properties":{"locationId":"184T25","locatedOn":"FM1187","locOnAlias":"FM1187-KG","type":"SPOT","category":"ANNUAL ACR","routeType":"FM","route":"1187","active":"Yes","fnctClass":"(4)Minor Arterial","latestAadt":100983,"latestAadtYear":2024,"latestDhv30":null,"latestKPercent":null,"latestDPercent":null,"latestVolumeCount":11676,"latestVolumeDate":"2023-07-19","extractedAt":"2025-08-02T15:42:07Z"}}]}