{"type":"FeatureCollection","features":[{"type":"Feature","geometry":{"type":"Point","coordinates":[-97.727008,32.742708]},"properties":{"locationId":"184CR329B","locatedOn":"-","locOnAlias":"","type":"SPOT","category":"URBAN ACR","routeType":"","route":"","active":"Yes","fnctClass":"(5)Major Collector","latestAadt":1796,"latestAadtYear":2024,"latestDhv30":211,"latestKPercent":12,"latestDPercent":null,"latestVolumeCount":1824,"latestVolumeDate":"2024-05-13","extractedAt":"2025-08-01T20:54:24Z"}},{"type":"Feature","geometry":{"type":"Point","coordinates":[-97.724224,32.744136]},"properties":{"locationId":"184HP8048","locatedOn":"EBANKHEAD","locOnAlias":"","type":"SPOT","category":"URBAN ACR","routeType":"","route":"","active":"Yes","fnctClass":"(5)Major Collector","latestAadt":1308,"latestAadtYear":2024,"latestDhv30":134,"latestKPercent":10,"latestDPercent":null,"latestVolumeCount":1326,"latestVolumeDate":"2024-05-13","extractedAt":"2025-08-02T13:07:13Z"}}]}