{"type":"FeatureCollection","features":[{"type":"Feature","geometry":{"type":"Point","coordinates":[-97.728794,32.748658]},"properties":{"locationId":"184CR327A","locatedOn":"-","locOnAlias":"","type":"SPOT","category":"URBAN ACR","routeType":"","route":"","active":"Yes","fnctClass":"(6)Minor Collector","latestAadt":868,"latestAadtYear":2024,"latestDhv30":71,"latestKPercent":8,"latestDPercent":null,"latestVolumeCount":866,"latestVolumeDate":"2024-05-13","extractedAt":"2025-08-01T20:47:34Z"}},{"type":"Feature","geometry":{"type":"Point","coordinates":[-97.727718,32.74678]},"properties":{"locationId":"184CR328","locatedOn":"-","locOnAlias":"","type":"SPOT","category":"URBAN ACR","routeType":"","route":"","active":"Yes","fnctClass":"(6)Minor Collector","latestAadt":1486,"latestAadtYear":2024,"latestDhv30":156,"latestKPercent":11,"latestDPercent":null,"latestVolumeCount":1479,"latestVolumeDate":"2024-05-13","extractedAt":"2025-08-01T20:47:47Z"}}]}