{"type":"FeatureCollection","features":[{"type":"Feature","geometry":{"type":"Point","coordinates":[-97.599769,32.914434]},"properties":{"locationId":"184CR27","locatedOn":"-","locOnAlias":"","type":"SPOT","category":"URBAN ACR","routeType":"","route":"","active":"Yes","fnctClass":"(5)Major Collector","latestAadt":2816,"latestAadtYear":2019,"latestDhv30":412,"latestKPercent":15,"latestDPercent":null,"latestVolumeCount":3446,"latestVolumeDate":"2019-05-13","extractedAt":"2025-08-01T20:07:47Z"}},{"type":"Feature","geometry":{"type":"Point","coordinates":[-97.57827,32.910597]},"properties":{"locationId":"184CR28","locatedOn":"-","locOnAlias":"","type":"SPOT","category":"URBAN ACR","routeType":"","route":"","active":"Yes","fnctClass":"(7)Local","latestAadt":524,"latestAadtYear":2024,"latestDhv30":59,"latestKPercent":11,"latestDPercent":null,"latestVolumeCount":511,"latestVolumeDate":"2024-05-22","extractedAt":"2025-08-01T20:08:17Z"}},{"type":"Feature","geometry":{"type":"Point","coordinates":[-97.584166,32.910767]},"properties":{"locationId":"184CR28A","locatedOn":"-","locOnAlias":"","type":"SPOT","category":"URBAN ACR","routeType":"","route":"","active":"Yes","fnctClass":"(7)Local","latestAadt":445,"latestAadtYear":2024,"latestDhv30":46,"latestKPercent":10,"latestDPercent":null,"latestVolumeCount":439,"latestVolumeDate":"2024-05-22","extractedAt":"2025-08-01T20:13:54Z"}},{"type":"Feature","geometry":{"type":"Point","coordinates":[-97.576062,32.882191]},"properties":{"locationId":"184CR29B","locatedOn":"-","locOnAlias":"","type":"SPOT","category":"URBAN ACR","routeType":"","route":"","active":"Yes","fnctClass":"(5)Major Collector","latestAadt":2684,"latestAadtYear":2024,"latestDhv30":395,"latestKPercent":15,"latestDPercent":null,"latestVolumeCount":2812,"latestVolumeDate":"2024-05-21","extractedAt":"2025-08-01T20:14:27Z"}},{"type":"Feature","geometry":{"type":"Point","coordinates":[-97.565384,32.891752]},"properties":{"locationId":"184U11","locatedOn":"FM0730","locOnAlias":"FM0730-KG","type":"SPOT","category":"URBAN ACR","routeType":"FM","route":"730","active":"Yes","fnctClass":"(5)Major Collector","latestAadt":13580,"latestAadtYear":2024,"latestDhv30":1259,"latestKPercent":9,"latestDPercent":null,"latestVolumeCount":14793,"latestVolumeDate":"2024-05-21","extractedAt":"2025-08-02T15:57:45Z"}}]}