{"type":"FeatureCollection","features":[{"type":"Feature","geometry":{"type":"Point","coordinates":[-97.595753,32.879164]},"properties":{"locationId":"184CR31A","locatedOn":"-","locOnAlias":"","type":"SPOT","category":"URBAN ACR","routeType":"","route":"","active":"Yes","fnctClass":"(5)Major Collector","latestAadt":3485,"latestAadtYear":2024,"latestDhv30":337,"latestKPercent":10,"latestDPercent":null,"latestVolumeCount":3653,"latestVolumeDate":"2024-05-21","extractedAt":"2025-08-01T20:33:01Z"}},{"type":"Feature","geometry":{"type":"Point","coordinates":[-97.581849,32.87741]},"properties":{"locationId":"184CR32","locatedOn":"-","locOnAlias":"","type":"SPOT","category":"URBAN ACR","routeType":"","route":"","active":"Yes","fnctClass":"(7)Local","latestAadt":2664,"latestAadtYear":2024,"latestDhv30":284,"latestKPercent":11,"latestDPercent":null,"latestVolumeCount":2679,"latestVolumeDate":"2024-05-21","extractedAt":"2025-08-01T20:39:13Z"}},{"type":"Feature","geometry":{"type":"Point","coordinates":[-97.59417,32.866956]},"properties":{"locationId":"184CR33","locatedOn":"-","locOnAlias":"","type":"SPOT","category":"URBAN ACR","routeType":"","route":"","active":"Yes","fnctClass":"(5)Major Collector","latestAadt":5933,"latestAadtYear":2024,"latestDhv30":550,"latestKPercent":9,"latestDPercent":null,"latestVolumeCount":6214,"latestVolumeDate":"2024-05-21","extractedAt":"2025-08-01T20:54:36Z"}},{"type":"Feature","geometry":{"type":"Point","coordinates":[-97.59663,32.869517]},"properties":{"locationId":"184E29A","locatedOn":"FM0730","locOnAlias":"FM0730-KG","type":"SPOT","category":"ANNUAL ACR","routeType":"FM","route":"0730","active":"Yes","fnctClass":"(5)Major Collector","latestAadt":7511,"latestAadtYear":2024,"latestDhv30":571,"latestKPercent":8,"latestDPercent":null,"latestVolumeCount":7259,"latestVolumeDate":"2024-07-08","extractedAt":"2025-08-01T23:58:06Z"}}]}