{"type":"FeatureCollection","features":[{"type":"Feature","geometry":{"type":"Point","coordinates":[-97.597247,32.835157]},"properties":{"locationId":"184CR34","locatedOn":"-","locOnAlias":"","type":"SPOT","category":"URBAN ACR","routeType":"","route":"","active":"Yes","fnctClass":"(5)Major Collector","latestAadt":5942,"latestAadtYear":2024,"latestDhv30":578,"latestKPercent":10,"latestDPercent":null,"latestVolumeCount":6224,"latestVolumeDate":"2024-05-21","extractedAt":"2025-08-01T21:11:30Z"}},{"type":"Feature","geometry":{"type":"Point","coordinates":[-97.5716,32.830235]},"properties":{"locationId":"184CR34A","locatedOn":"-","locOnAlias":"","type":"SPOT","category":"URBAN ACR","routeType":"","route":"","active":"Yes","fnctClass":"(7)Local","latestAadt":1082,"latestAadtYear":2024,"latestDhv30":92,"latestKPercent":9,"latestDPercent":null,"latestVolumeCount":1095,"latestVolumeDate":"2024-05-21","extractedAt":"2025-08-01T21:11:57Z"}},{"type":"Feature","geometry":{"type":"Point","coordinates":[-97.568338,32.824337]},"properties":{"locationId":"184CR34C","locatedOn":"-","locOnAlias":"","type":"SPOT","category":"URBAN ACR","routeType":"","route":"","active":"Yes","fnctClass":"(7)Local","latestAadt":122,"latestAadtYear":2024,"latestDhv30":16,"latestKPercent":14,"latestDPercent":null,"latestVolumeCount":124,"latestVolumeDate":"2024-05-21","extractedAt":"2025-08-01T21:17:35Z"}},{"type":"Feature","geometry":{"type":"Point","coordinates":[-97.599878,32.831262]},"properties":{"locationId":"184E28A","locatedOn":"FM1886","locOnAlias":"FM1886-KG","type":"SPOT","category":"ANNUAL ACR","routeType":"FM","route":"1886","active":"Yes","fnctClass":"(5)Major Collector","latestAadt":3645,"latestAadtYear":2024,"latestDhv30":283,"latestKPercent":8,"latestDPercent":null,"latestVolumeCount":3533,"latestVolumeDate":"2024-07-08","extractedAt":"2025-08-01T23:57:51Z"}},{"type":"Feature","geometry":{"type":"Point","coordinates":[-97.597284,32.824136]},"properties":{"locationId":"184H17A","locatedOn":"FM3325","locOnAlias":"FM3325-KG","type":"SPOT","category":"ANNUAL ACR","routeType":"FM","route":"3325","active":"Yes","fnctClass":"(5)Major Collector","latestAadt":7551,"latestAadtYear":2024,"latestDhv30":665,"latestKPercent":9,"latestDPercent":null,"latestVolumeCount":7690,"latestVolumeDate":"2024-07-08","extractedAt":"2025-08-02T03:29:14Z"}},{"type":"Feature","geometry":{"type":"Point","coordinates":[-97.592323,32.829484]},"properties":{"locationId":"184H17B","locatedOn":"FM1886","locOnAlias":"FM1886-KG","type":"SPOT","category":"ANNUAL ACR","routeType":"FM","route":"1886","active":"Yes","fnctClass":"(5)Major Collector","latestAadt":3872,"latestAadtYear":2024,"latestDhv30":332,"latestKPercent":9,"latestDPercent":null,"latestVolumeCount":3752,"latestVolumeDate":"2024-07-08","extractedAt":"2025-08-02T03:29:27Z"}},{"type":"Feature","geometry":{"type":"Point","coordinates":[-97.570098,32.836579]},"properties":{"locationId":"184RS6","locatedOn":"NABUCKHORN","locOnAlias":"","type":"SPOT","category":"URBAN ACR","routeType":"","route":"","active":"Yes","fnctClass":"(7)Local","latestAadt":34,"latestAadtYear":2024,"latestDhv30":4,"latestKPercent":15,"latestDPercent":null,"latestVolumeCount":34,"latestVolumeDate":"2024-05-21","extractedAt":"2025-08-02T15:25:30Z"}}]}