{"type":"FeatureCollection","features":[{"type":"Feature","geometry":{"type":"Point","coordinates":[-97.601138,32.785489]},"properties":{"locationId":"184CR36","locatedOn":"-","locOnAlias":"","type":"SPOT","category":"URBAN ACR","routeType":"","route":"","active":"Yes","fnctClass":"(7)Local","latestAadt":1325,"latestAadtYear":2024,"latestDhv30":122,"latestKPercent":9,"latestDPercent":null,"latestVolumeCount":1350,"latestVolumeDate":"2024-05-21","extractedAt":"2025-08-01T21:18:34Z"}},{"type":"Feature","geometry":{"type":"Point","coordinates":[-97.599552,32.795315]},"properties":{"locationId":"184CR36A","locatedOn":"-","locOnAlias":"","type":"SPOT","category":"URBAN ACR","routeType":"","route":"","active":"Yes","fnctClass":"(7)Local","latestAadt":945,"latestAadtYear":2024,"latestDhv30":77,"latestKPercent":8,"latestDPercent":null,"latestVolumeCount":960,"latestVolumeDate":"2024-05-21","extractedAt":"2025-08-01T21:18:49Z"}},{"type":"Feature","geometry":{"type":"Point","coordinates":[-97.595478,32.787864]},"properties":{"locationId":"184CR37","locatedOn":"-","locOnAlias":"","type":"SPOT","category":"URBAN ACR","routeType":"","route":"","active":"Yes","fnctClass":"(5)Major Collector","latestAadt":3890,"latestAadtYear":2024,"latestDhv30":335,"latestKPercent":9,"latestDPercent":null,"latestVolumeCount":4070,"latestVolumeDate":"2024-05-21","extractedAt":"2025-08-01T21:19:04Z"}}]}