{"type":"FeatureCollection","features":[{"type":"Feature","geometry":{"type":"Point","coordinates":[-97.568954,32.722168]},"properties":{"locationId":"184D6AWBSR","locatedOn":"IH0020","locOnAlias":"IH0020-XG","type":"SPOT","category":"ANNUAL ACR","routeType":"IH","route":"0020","active":"Yes","fnctClass":"(5)Major Collector","latestAadt":3963,"latestAadtYear":2024,"latestDhv30":null,"latestKPercent":null,"latestDPercent":null,"latestVolumeCount":409,"latestVolumeDate":"2023-07-19","extractedAt":"2025-08-01T23:50:00Z"}},{"type":"Feature","geometry":{"type":"Point","coordinates":[-97.569143,32.72161]},"properties":{"locationId":"184DC2030NWF","locatedOn":"IH0020","locOnAlias":"IH0020-KG","type":"SPOT","category":"RAMP","routeType":"IH","route":"0020","active":"Yes","fnctClass":"(1)Interstate","latestAadt":18524,"latestAadtYear":2024,"latestDhv30":1773,"latestKPercent":10,"latestDPercent":null,"latestVolumeCount":19267,"latestVolumeDate":"2024-04-10","extractedAt":"2025-08-01T23:51:30Z"}},{"type":"Feature","geometry":{"type":"Point","coordinates":[-97.571595,32.721054]},"properties":{"locationId":"184DC3020ESF","locatedOn":"IH0020","locOnAlias":"IH0020-KG","type":"SPOT","category":"RAMP","routeType":"IH","route":"0020","active":"Yes","fnctClass":"(1)Interstate","latestAadt":182638,"latestAadtYear":2024,"latestDhv30":null,"latestKPercent":null,"latestDPercent":null,"latestVolumeCount":18496,"latestVolumeDate":"2023-05-17","extractedAt":"2025-08-01T23:51:44Z"}},{"type":"Feature","geometry":{"type":"Point","coordinates":[-97.573585,32.721989]},"properties":{"locationId":"184ML2001EB","locatedOn":"IH0020","locOnAlias":"IH0020-KG","type":"SPOT","category":"RAMP","routeType":"IH","route":"0020","active":"Yes","fnctClass":"(1)Interstate","latestAadt":36199,"latestAadtYear":2024,"latestDhv30":3123,"latestKPercent":9,"latestDPercent":null,"latestVolumeCount":38073,"latestVolumeDate":"2024-04-10","extractedAt":"2025-08-02T13:16:25Z"}},{"type":"Feature","geometry":{"type":"Point","coordinates":[-97.572244,32.721838]},"properties":{"locationId":"184ML2001WB","locatedOn":"IH0020","locOnAlias":"IH0020-KG","type":"SPOT","category":"RAMP","routeType":"IH","route":"0020","active":"Yes","fnctClass":"(1)Interstate","latestAadt":31002,"latestAadtYear":2024,"latestDhv30":3071,"latestKPercent":10,"latestDPercent":null,"latestVolumeCount":32223,"latestVolumeDate":"2024-04-10","extractedAt":"2025-08-02T13:16:40Z"}},{"type":"Feature","geometry":{"type":"Point","coordinates":[-97.595623,32.728051]},"properties":{"locationId":"184RP2037","locatedOn":"IH0020","locOnAlias":"","type":"SPOT","category":"RAMP","routeType":"","route":"","active":"Yes","fnctClass":"(1)Interstate","latestAadt":10271,"latestAadtYear":2024,"latestDhv30":1052,"latestKPercent":10,"latestDPercent":null,"latestVolumeCount":10799,"latestVolumeDate":"2024-04-10","extractedAt":"2025-08-02T14:09:24Z"}},{"type":"Feature","geometry":{"type":"Point","coordinates":[-97.593142,32.728411]},"properties":{"locationId":"184RP2038","locatedOn":"IH0020","locOnAlias":"","type":"SPOT","category":"RAMP","routeType":"","route":"","active":"Yes","fnctClass":"(1)Interstate","latestAadt":10306,"latestAadtYear":2024,"latestDhv30":1457,"latestKPercent":14,"latestDPercent":null,"latestVolumeCount":10715,"latestVolumeDate":"2024-04-10","extractedAt":"2025-08-02T14:09:39Z"}},{"type":"Feature","geometry":{"type":"Point","coordinates":[-97.578036,32.724363]},"properties":{"locationId":"184RP2040","locatedOn":"IH0020","locOnAlias":"","type":"SPOT","category":"RAMP","routeType":"","route":"","active":"Yes","fnctClass":"(1)Interstate","latestAadt":203508,"latestAadtYear":2024,"latestDhv30":2502,"latestKPercent":12,"latestDPercent":null,"latestVolumeCount":25727,"latestVolumeDate":"2024-05-01","extractedAt":"2025-08-02T14:15:47Z"}},{"type":"Feature","geometry":{"type":"Point","coordinates":[-97.56869,32.721861]},"properties":{"locationId":"184RP2040A","locatedOn":"IH0030","locOnAlias":"IH0030-XG","type":"SPOT","category":"RAMP","routeType":"IH","route":"0030","active":"Yes","fnctClass":"(5)Major Collector","latestAadt":1082,"latestAadtYear":2024,"latestDhv30":143,"latestKPercent":13,"latestDPercent":null,"latestVolumeCount":1164,"latestVolumeDate":"2024-04-10","extractedAt":"2025-08-02T14:16:01Z"}},{"type":"Feature","geometry":{"type":"Point","coordinates":[-97.569092,32.720844]},"properties":{"locationId":"184RP301","locatedOn":"IH0030","locOnAlias":"IH0030-KG","type":"SPOT","category":"RAMP","routeType":"IH","route":"0030","active":"Yes","fnctClass":"(1)Interstate","latestAadt":675,"latestAadtYear":2024,"latestDhv30":94,"latestKPercent":14,"latestDPercent":null,"latestVolumeCount":702,"latestVolumeDate":"2024-05-01","extractedAt":"2025-08-02T14:23:58Z"}},{"type":"Feature","geometry":{"type":"Point","coordinates":[-97.602421,32.695877]},"properties":{"locationId":"184T24NBDR","locatedOn":"FM1187","locOnAlias":"FM1187-KG","type":"SPOT","category":"ANNUAL ACR","routeType":"FM","route":"1187","active":"Yes","fnctClass":"(4)Minor Arterial","latestAadt":10161,"latestAadtYear":2024,"latestDhv30":1141,"latestKPercent":11,"latestDPercent":null,"latestVolumeCount":11305,"latestVolumeDate":"2024-05-13","extractedAt":"2025-08-02T15:41:33Z"}}]}