{"type":"FeatureCollection","features":[{"type":"Feature","geometry":{"type":"Point","coordinates":[-97.585867,32.668798]},"properties":{"locationId":"184CR68A","locatedOn":"-","locOnAlias":"","type":"SPOT","category":"URBAN ACR","routeType":"","route":"","active":"Yes","fnctClass":"(5)Major Collector","latestAadt":3402,"latestAadtYear":2024,"latestDhv30":328,"latestKPercent":10,"latestDPercent":null,"latestVolumeCount":3527,"latestVolumeDate":"2024-05-13","extractedAt":"2025-08-01T21:33:19Z"}},{"type":"Feature","geometry":{"type":"Point","coordinates":[-97.569059,32.675308]},"properties":{"locationId":"184CR69","locatedOn":"-","locOnAlias":"","type":"SPOT","category":"INACTIVE","routeType":"","route":"","active":"No","fnctClass":"(5)Major Collector","latestAadt":2245,"latestAadtYear":2019,"latestDhv30":328,"latestKPercent":15,"latestDPercent":null,"latestVolumeCount":2793,"latestVolumeDate":"2019-05-08","extractedAt":"2025-08-01T21:33:36Z"}},{"type":"Feature","geometry":{"type":"Point","coordinates":[-97.599782,32.694082]},"properties":{"locationId":"184CR69A","locatedOn":"Chestnut St","locOnAlias":"1002153","type":"SPOT","category":"URBAN ACR","routeType":"LS","route":"0000","active":"Yes","fnctClass":"(7)Local","latestAadt":390,"latestAadtYear":2009,"latestDhv30":null,"latestKPercent":null,"latestDPercent":null,"latestVolumeCount":null,"latestVolumeDate":null,"extractedAt":"2025-08-01T21:33:53Z"}}]}