{"type":"FeatureCollection","features":[{"type":"Feature","geometry":{"type":"Point","coordinates":[-97.723068,32.687179]},"properties":{"locationId":"184CR211","locatedOn":"NABEAR CREEK","locOnAlias":"","type":"SPOT","category":"URBAN ACR","routeType":"","route":"","active":"Yes","fnctClass":"(7)Local","latestAadt":1315,"latestAadtYear":2024,"latestDhv30":140,"latestKPercent":11,"latestDPercent":null,"latestVolumeCount":1418,"latestVolumeDate":"2024-05-13","extractedAt":"2025-08-01T19:43:10Z"}}]}