{"type":"FeatureCollection","features":[{"type":"Feature","geometry":{"type":"Point","coordinates":[-97.698523,32.809344]},"properties":{"locationId":"184CR52","locatedOn":"-","locOnAlias":"","type":"SPOT","category":"URBAN ACR","routeType":"","route":"","active":"Yes","fnctClass":"(7)Local","latestAadt":1230,"latestAadtYear":2024,"latestDhv30":124,"latestKPercent":10,"latestDPercent":null,"latestVolumeCount":1224,"latestVolumeDate":"2024-05-21","extractedAt":"2025-08-01T21:25:19Z"}},{"type":"Feature","geometry":{"type":"Point","coordinates":[-97.700992,32.80655]},"properties":{"locationId":"184H20","locatedOn":"FM0730","locOnAlias":"FM0730-KG","type":"SPOT","category":"ANNUAL ACR","routeType":"FM","route":"0730","active":"Yes","fnctClass":"(5)Major Collector","latestAadt":78673,"latestAadtYear":2024,"latestDhv30":null,"latestKPercent":null,"latestDPercent":null,"latestVolumeCount":7784,"latestVolumeDate":"2023-07-19","extractedAt":"2025-08-02T03:31:04Z"}}]}