{"type":"FeatureCollection","features":[{"type":"Feature","geometry":{"type":"Point","coordinates":[-97.69712,32.755769]},"properties":{"locationId":"184CC1","locatedOn":"GS0000","locOnAlias":"20010","type":"SPOT","category":"RAMP","routeType":"GS","route":"0000","active":"Yes","fnctClass":"(1)Interstate","latestAadt":8388,"latestAadtYear":2024,"latestDhv30":660,"latestKPercent":8,"latestDPercent":null,"latestVolumeCount":8746,"latestVolumeDate":"2024-04-10","extractedAt":"2025-08-01T19:06:31Z"}},{"type":"Feature","geometry":{"type":"Point","coordinates":[-97.698881,32.757352]},"properties":{"locationId":"184CR325","locatedOn":"-","locOnAlias":"","type":"SPOT","category":"URBAN ACR","routeType":"","route":"","active":"Yes","fnctClass":"(5)Major Collector","latestAadt":9701,"latestAadtYear":2024,"latestDhv30":920,"latestKPercent":9,"latestDPercent":51,"latestVolumeCount":9801,"latestVolumeDate":"2024-05-13","extractedAt":"2025-08-01T20:46:39Z"}},{"type":"Feature","geometry":{"type":"Point","coordinates":[-97.699129,32.753452]},"properties":{"locationId":"184CR325B","locatedOn":"-","locOnAlias":"","type":"SPOT","category":"URBAN ACR","routeType":"","route":"","active":"Yes","fnctClass":"(7)Local","latestAadt":1684,"latestAadtYear":2024,"latestDhv30":172,"latestKPercent":10,"latestDPercent":null,"latestVolumeCount":1811,"latestVolumeDate":"2024-05-13","extractedAt":"2025-08-01T20:47:06Z"}},{"type":"Feature","geometry":{"type":"Point","coordinates":[-97.692532,32.755442]},"properties":{"locationId":"184FS305","locatedOn":"LS0000","locOnAlias":"1132827","type":"SPOT","category":"URBAN ACR","routeType":"LS","route":"0000","active":"Yes","fnctClass":"(7)Local","latestAadt":376,"latestAadtYear":2024,"latestDhv30":37,"latestKPercent":10,"latestDPercent":null,"latestVolumeCount":406,"latestVolumeDate":"2024-05-13","extractedAt":"2025-08-02T00:34:01Z"}}]}