{"type":"FeatureCollection","features":[{"type":"Feature","geometry":{"type":"Point","coordinates":[-97.695942,32.712005]},"properties":{"locationId":"184CR328C","locatedOn":"-","locOnAlias":"","type":"SPOT","category":"INACTIVE","routeType":"","route":"","active":"No","fnctClass":"(6)Minor Collector","latestAadt":1258,"latestAadtYear":2019,"latestDhv30":130,"latestKPercent":10,"latestDPercent":null,"latestVolumeCount":1364,"latestVolumeDate":"2019-05-15","extractedAt":"2025-08-01T20:48:34Z"}}]}