{"type":"FeatureCollection","features":[{"type":"Feature","geometry":{"type":"Point","coordinates":[-97.905687,32.868558]},"properties":{"locationId":"184CR143","locatedOn":"-","locOnAlias":"","type":"SPOT","category":"URBAN ACR","routeType":"","route":"","active":"Yes","fnctClass":"(7)Local","latestAadt":885,"latestAadtYear":2024,"latestDhv30":104,"latestKPercent":12,"latestDPercent":null,"latestVolumeCount":863,"latestVolumeDate":"2024-05-15","extractedAt":"2025-08-01T18:08:18Z"}},{"type":"Feature","geometry":{"type":"Point","coordinates":[-97.910122,32.844066]},"properties":{"locationId":"184CR143B","locatedOn":"-","locOnAlias":"","type":"SPOT","category":"INACTIVE","routeType":"","route":"","active":"No","fnctClass":"(7)Local","latestAadt":12,"latestAadtYear":2019,"latestDhv30":2,"latestKPercent":17,"latestDPercent":null,"latestVolumeCount":13,"latestVolumeDate":"2019-05-15","extractedAt":"2025-08-01T18:14:15Z"}},{"type":"Feature","geometry":{"type":"Point","coordinates":[-97.866327,32.866495]},"properties":{"locationId":"184CR147","locatedOn":"-","locOnAlias":"","type":"SPOT","category":"URBAN ACR","routeType":"","route":"","active":"Yes","fnctClass":"(7)Local","latestAadt":2684,"latestAadtYear":2024,"latestDhv30":653,"latestKPercent":24,"latestDPercent":null,"latestVolumeCount":2615,"latestVolumeDate":"2024-05-15","extractedAt":"2025-08-01T18:15:15Z"}},{"type":"Feature","geometry":{"type":"Point","coordinates":[-97.910115,32.851395]},"properties":{"locationId":"184CR231","locatedOn":"NACABANISS","locOnAlias":"","type":"SPOT","category":"URBAN ACR","routeType":"","route":"","active":"Yes","fnctClass":"(7)Local","latestAadt":159,"latestAadtYear":2024,"latestDhv30":17,"latestKPercent":11,"latestDPercent":null,"latestVolumeCount":156,"latestVolumeDate":"2024-05-15","extractedAt":"2025-08-01T19:59:37Z"}},{"type":"Feature","geometry":{"type":"Point","coordinates":[-97.867364,32.871338]},"properties":{"locationId":"184T35","locatedOn":"FM0920","locOnAlias":"FM0920-KG","type":"SPOT","category":"ANNUAL ACR","routeType":"FM","route":"0920","active":"Yes","fnctClass":"(5)Major Collector","latestAadt":7115,"latestAadtYear":2024,"latestDhv30":918,"latestKPercent":13,"latestDPercent":null,"latestVolumeCount":7425,"latestVolumeDate":"2024-05-20","extractedAt":"2025-08-02T15:49:17Z"}}]}