{"type":"FeatureCollection","features":[{"type":"Feature","geometry":{"type":"Point","coordinates":[-97.904071,32.696599]},"properties":{"locationId":"184CR213","locatedOn":"NAOLD BROCK","locOnAlias":"","type":"SPOT","category":"URBAN ACR","routeType":"","route":"","active":"Yes","fnctClass":"(7)Local","latestAadt":1211,"latestAadtYear":2024,"latestDhv30":219,"latestKPercent":18,"latestDPercent":null,"latestVolumeCount":1205,"latestVolumeDate":"2024-05-15","extractedAt":"2025-08-01T19:43:41Z"}},{"type":"Feature","geometry":{"type":"Point","coordinates":[-97.874438,32.722099]},"properties":{"locationId":"184CR90","locatedOn":"-","locOnAlias":"","type":"SPOT","category":"URBAN ACR","routeType":"","route":"","active":"Yes","fnctClass":"(6)Minor Collector","latestAadt":6288,"latestAadtYear":2024,"latestDhv30":588,"latestKPercent":9,"latestDPercent":null,"latestVolumeCount":6504,"latestVolumeDate":"2024-05-15","extractedAt":"2025-08-01T23:12:18Z"}},{"type":"Feature","geometry":{"type":"Point","coordinates":[-97.905504,32.723962]},"properties":{"locationId":"184FS16","locatedOn":"CR0000","locOnAlias":"184AA0507","type":"SPOT","category":"INACTIVE","routeType":"CR","route":"0000","active":"No","fnctClass":"(7)Local","latestAadt":24,"latestAadtYear":2019,"latestDhv30":6,"latestKPercent":25,"latestDPercent":null,"latestVolumeCount":26,"latestVolumeDate":"2019-05-15","extractedAt":"2025-08-02T00:10:38Z"}},{"type":"Feature","geometry":{"type":"Point","coordinates":[-97.887911,32.72509]},"properties":{"locationId":"184RP201","locatedOn":"IH0020","locOnAlias":"IH0020-KG","type":"SPOT","category":"RAMP","routeType":"IH","route":"0020","active":"Yes","fnctClass":"(1)Interstate","latestAadt":10818,"latestAadtYear":2024,"latestDhv30":116,"latestKPercent":11,"latestDPercent":null,"latestVolumeCount":1280,"latestVolumeDate":"2024-05-01","extractedAt":"2025-08-02T13:31:50Z"}},{"type":"Feature","geometry":{"type":"Point","coordinates":[-97.882461,32.727087]},"properties":{"locationId":"184RP202","locatedOn":"IH0020","locOnAlias":"IH0020-KG","type":"SPOT","category":"RAMP","routeType":"IH","route":"0020","active":"Yes","fnctClass":"(1)Interstate","latestAadt":14998,"latestAadtYear":2024,"latestDhv30":185,"latestKPercent":12,"latestDPercent":null,"latestVolumeCount":1517,"latestVolumeDate":"2024-04-08","extractedAt":"2025-08-02T13:54:42Z"}},{"type":"Feature","geometry":{"type":"Point","coordinates":[-97.873184,32.727357]},"properties":{"locationId":"184RP204","locatedOn":"IH0020","locOnAlias":"IH0020-KG","type":"SPOT","category":"RAMP","routeType":"IH","route":"0020","active":"Yes","fnctClass":"(1)Interstate","latestAadt":46328,"latestAadtYear":2024,"latestDhv30":388,"latestKPercent":8,"latestDPercent":null,"latestVolumeCount":4544,"latestVolumeDate":"2024-04-08","extractedAt":"2025-08-02T14:10:09Z"}}]}