{"type":"FeatureCollection","features":[{"type":"Feature","geometry":{"type":"Point","coordinates":[-97.861851,32.897817]},"properties":{"locationId":"184CR150","locatedOn":"-","locOnAlias":"","type":"SPOT","category":"URBAN ACR","routeType":"","route":"","active":"Yes","fnctClass":"(7)Local","latestAadt":643,"latestAadtYear":2024,"latestDhv30":68,"latestKPercent":11,"latestDPercent":null,"latestVolumeCount":620,"latestVolumeDate":"2024-05-15","extractedAt":"2025-08-01T18:16:30Z"}},{"type":"Feature","geometry":{"type":"Point","coordinates":[-97.857995,32.916309]},"properties":{"locationId":"184U1","locatedOn":"FM0920-KG","locOnAlias":"","type":"SPOT","category":"URBAN ACR","routeType":"","route":"","active":"Yes","fnctClass":"(5)Major Collector","latestAadt":4333,"latestAadtYear":2024,"latestDhv30":427,"latestKPercent":10,"latestDPercent":null,"latestVolumeCount":4673,"latestVolumeDate":"2024-05-15","extractedAt":"2025-08-02T15:57:15Z"}}]}