{"type":"FeatureCollection","features":[{"type":"Feature","geometry":{"type":"Point","coordinates":[-97.866081,32.878198]},"properties":{"locationId":"184CR149","locatedOn":"-","locOnAlias":"","type":"SPOT","category":"URBAN ACR","routeType":"","route":"","active":"Yes","fnctClass":"(7)Local","latestAadt":458,"latestAadtYear":2024,"latestDhv30":69,"latestKPercent":15,"latestDPercent":null,"latestVolumeCount":443,"latestVolumeDate":"2024-05-15","extractedAt":"2025-08-01T18:15:29Z"}},{"type":"Feature","geometry":{"type":"Point","coordinates":[-97.825812,32.859753]},"properties":{"locationId":"184CR173C","locatedOn":"-","locOnAlias":"","type":"SPOT","category":"URBAN ACR","routeType":"","route":"","active":"Yes","fnctClass":"(7)Local","latestAadt":1350,"latestAadtYear":2024,"latestDhv30":297,"latestKPercent":22,"latestDPercent":null,"latestVolumeCount":1313,"latestVolumeDate":"2024-05-15","extractedAt":"2025-08-01T19:30:19Z"}},{"type":"Feature","geometry":{"type":"Point","coordinates":[-97.84294,32.861736]},"properties":{"locationId":"184FS22","locatedOn":"CR0000","locOnAlias":"184AA1048","type":"SPOT","category":"URBAN ACR","routeType":"CR","route":"0000","active":"Yes","fnctClass":"(7)Local","latestAadt":1357,"latestAadtYear":2024,"latestDhv30":313,"latestKPercent":23,"latestDPercent":null,"latestVolumeCount":1320,"latestVolumeDate":"2024-05-15","extractedAt":"2025-08-02T00:11:20Z"}}]}