{"type":"FeatureCollection","features":[{"type":"Feature","geometry":{"type":"Point","coordinates":[-97.825573,32.824601]},"properties":{"locationId":"184CR339A","locatedOn":"-","locOnAlias":"","type":"SPOT","category":"URBAN ACR","routeType":"","route":"","active":"Yes","fnctClass":"(7)Local","latestAadt":925,"latestAadtYear":2024,"latestDhv30":76,"latestKPercent":8,"latestDPercent":null,"latestVolumeCount":890,"latestVolumeDate":"2024-05-15","extractedAt":"2025-08-01T21:10:28Z"}},{"type":"Feature","geometry":{"type":"Point","coordinates":[-97.841117,32.808479]},"properties":{"locationId":"184CR339B","locatedOn":"-","locOnAlias":"","type":"SPOT","category":"URBAN ACR","routeType":"","route":"","active":"Yes","fnctClass":"(7)Local","latestAadt":678,"latestAadtYear":2024,"latestDhv30":57,"latestKPercent":8,"latestDPercent":null,"latestVolumeCount":652,"latestVolumeDate":"2024-05-15","extractedAt":"2025-08-01T21:10:46Z"}},{"type":"Feature","geometry":{"type":"Point","coordinates":[-97.854696,32.827053]},"properties":{"locationId":"184D1","locatedOn":"FM0920","locOnAlias":"FM0920-KG","type":"SPOT","category":"ANNUAL ACR","routeType":"FM","route":"0920","active":"Yes","fnctClass":"(5)Major Collector","latestAadt":102573,"latestAadtYear":2024,"latestDhv30":null,"latestKPercent":null,"latestDPercent":null,"latestVolumeCount":10386,"latestVolumeDate":"2023-07-19","extractedAt":"2025-08-01T23:37:44Z"}}]}