{"type":"FeatureCollection","features":[{"type":"Feature","geometry":{"type":"Point","coordinates":[-97.824383,32.786655]},"properties":{"locationId":"184CR337","locatedOn":"-","locOnAlias":"","type":"SPOT","category":"URBAN ACR","routeType":"","route":"","active":"Yes","fnctClass":"(7)Local","latestAadt":718,"latestAadtYear":2024,"latestDhv30":83,"latestKPercent":12,"latestDPercent":null,"latestVolumeCount":691,"latestVolumeDate":"2024-05-15","extractedAt":"2025-08-01T21:09:44Z"}},{"type":"Feature","geometry":{"type":"Point","coordinates":[-97.8299,32.773195]},"properties":{"locationId":"184U3579","locatedOn":"-","locOnAlias":"","type":"SPOT","category":"INACTIVE","routeType":"","route":"","active":"No","fnctClass":"(-)-","latestAadt":2975,"latestAadtYear":2014,"latestDhv30":423,"latestKPercent":14,"latestDPercent":null,"latestVolumeCount":4252,"latestVolumeDate":"2014-04-23","extractedAt":"2025-08-02T16:06:48Z"}}]}