{"type":"FeatureCollection","features":[{"type":"Feature","geometry":{"type":"Point","coordinates":[-97.82702,32.694335]},"properties":{"locationId":"184CR84","locatedOn":"-","locOnAlias":"","type":"SPOT","category":"URBAN ACR","routeType":"","route":"","active":"Yes","fnctClass":"(6)Minor Collector","latestAadt":645,"latestAadtYear":2024,"latestDhv30":56,"latestKPercent":9,"latestDPercent":null,"latestVolumeCount":668,"latestVolumeDate":"2024-05-15","extractedAt":"2025-08-01T23:10:32Z"}},{"type":"Feature","geometry":{"type":"Point","coordinates":[-97.854556,32.692137]},"properties":{"locationId":"184CR84A","locatedOn":"-","locOnAlias":"","type":"SPOT","category":"URBAN ACR","routeType":"","route":"","active":"Yes","fnctClass":"(6)Minor Collector","latestAadt":1649,"latestAadtYear":2024,"latestDhv30":138,"latestKPercent":8,"latestDPercent":null,"latestVolumeCount":1708,"latestVolumeDate":"2024-05-15","extractedAt":"2025-08-01T23:10:48Z"}}]}