{"type":"FeatureCollection","features":[{"type":"Feature","geometry":{"type":"Point","coordinates":[-97.965061,32.699163]},"properties":{"locationId":"184RP20103","locatedOn":"IH0020","locOnAlias":"IH0020-KG","type":"SPOT","category":"RAMP","routeType":"","route":"","active":"Yes","fnctClass":"(1)Interstate","latestAadt":7618,"latestAadtYear":2024,"latestDhv30":86,"latestKPercent":11,"latestDPercent":null,"latestVolumeCount":867,"latestVolumeDate":"2024-04-08","extractedAt":"2025-08-02T13:32:49Z"}}]}