{"type":"FeatureCollection","features":[{"type":"Feature","geometry":{"type":"Point","coordinates":[-97.646026,32.837792]},"properties":{"locationId":"184CR35A","locatedOn":"-","locOnAlias":"","type":"SPOT","category":"URBAN ACR","routeType":"","route":"","active":"Yes","fnctClass":"(7)Local","latestAadt":1014,"latestAadtYear":2024,"latestDhv30":82,"latestKPercent":8,"latestDPercent":null,"latestVolumeCount":1012,"latestVolumeDate":"2024-05-21","extractedAt":"2025-08-01T21:18:02Z"}},{"type":"Feature","geometry":{"type":"Point","coordinates":[-97.643421,32.837159]},"properties":{"locationId":"184H19","locatedOn":"FM0730","locOnAlias":"FM0730-KG","type":"SPOT","category":"ANNUAL ACR","routeType":"FM","route":"0730","active":"Yes","fnctClass":"(5)Major Collector","latestAadt":8191,"latestAadtYear":2024,"latestDhv30":657,"latestKPercent":8,"latestDPercent":null,"latestVolumeCount":7920,"latestVolumeDate":"2024-07-08","extractedAt":"2025-08-02T03:29:46Z"}}]}