{"type":"FeatureCollection","features":[{"type":"Feature","geometry":{"type":"Point","coordinates":[-97.676344,32.764715]},"properties":{"locationId":"184HP8041","locatedOn":"MIKUS RD","locOnAlias":"267319","type":"SPOT","category":"URBAN ACR","routeType":"FC","route":"0000","active":"Yes","fnctClass":"(5)Major Collector","latestAadt":2766,"latestAadtYear":2024,"latestDhv30":296,"latestKPercent":11,"latestDPercent":null,"latestVolumeCount":2892,"latestVolumeDate":"2024-05-21","extractedAt":"2025-08-02T13:00:08Z"}},{"type":"Feature","geometry":{"type":"Point","coordinates":[-97.674516,32.768446]},"properties":{"locationId":"184HP8055","locatedOn":"ELAKE","locOnAlias":"","type":"SPOT","category":"URBAN ACR","routeType":"","route":"","active":"Yes","fnctClass":"(5)Major Collector","latestAadt":2440,"latestAadtYear":2024,"latestDhv30":227,"latestKPercent":9,"latestDPercent":null,"latestVolumeCount":2551,"latestVolumeDate":"2024-05-21","extractedAt":"2025-08-02T13:09:01Z"}}]}