{"type":"FeatureCollection","features":[{"type":"Feature","geometry":{"type":"Point","coordinates":[-97.674234,32.749431]},"properties":{"locationId":"184CR323","locatedOn":"-","locOnAlias":"","type":"SPOT","category":"URBAN ACR","routeType":"","route":"","active":"Yes","fnctClass":"(5)Major Collector","latestAadt":6602,"latestAadtYear":2024,"latestDhv30":565,"latestKPercent":9,"latestDPercent":null,"latestVolumeCount":6673,"latestVolumeDate":"2024-05-13","extractedAt":"2025-08-01T20:40:29Z"}}]}