{"type":"FeatureCollection","features":[{"type":"Feature","geometry":{"type":"Point","coordinates":[-97.822881,32.760947]},"properties":{"locationId":"184HP8031","locatedOn":"Garner Rd","locOnAlias":"296523","type":"SPOT","category":"URBAN ACR","routeType":"FC","route":"0000","active":"Yes","fnctClass":"(6)Minor Collector","latestAadt":1765,"latestAadtYear":2019,"latestDhv30":192,"latestKPercent":11,"latestDPercent":null,"latestVolumeCount":1936,"latestVolumeDate":"2019-05-06","extractedAt":"2025-08-02T12:52:31Z"}}]}