{"type":"FeatureCollection","features":[{"type":"Feature","geometry":{"type":"Point","coordinates":[-97.824629,32.726613]},"properties":{"locationId":"184CR333","locatedOn":"-","locOnAlias":"","type":"SPOT","category":"URBAN ACR","routeType":"","route":"","active":"Yes","fnctClass":"(5)Major Collector","latestAadt":8832,"latestAadtYear":2024,"latestDhv30":653,"latestKPercent":7,"latestDPercent":null,"latestVolumeCount":9307,"latestVolumeDate":"2024-05-15","extractedAt":"2025-08-01T20:55:39Z"}}]}