{"type":"FeatureCollection","features":[{"type":"Feature","geometry":{"type":"Point","coordinates":[-97.824863,32.755281]},"properties":{"locationId":"184CR334","locatedOn":"-","locOnAlias":"","type":"SPOT","category":"URBAN ACR","routeType":"","route":"","active":"Yes","fnctClass":"(5)Major Collector","latestAadt":1242,"latestAadtYear":2024,"latestDhv30":110,"latestKPercent":9,"latestDPercent":null,"latestVolumeCount":1309,"latestVolumeDate":"2024-05-08","extractedAt":"2025-08-01T20:56:08Z"}}]}