{"type":"FeatureCollection","features":[{"type":"Feature","geometry":{"type":"Point","coordinates":[-97.825017,32.728184]},"properties":{"locationId":"184RP205","locatedOn":"IH0020","locOnAlias":"","type":"SPOT","category":"RAMP","routeType":"","route":"","active":"Yes","fnctClass":"(1)Interstate","latestAadt":21798,"latestAadtYear":2024,"latestDhv30":220,"latestKPercent":10,"latestDPercent":null,"latestVolumeCount":2581,"latestVolumeDate":"2024-05-01","extractedAt":"2025-08-02T14:16:18Z"}},{"type":"Feature","geometry":{"type":"Point","coordinates":[-97.8272,32.72861]},"properties":{"locationId":"184RP206","locatedOn":"IH0020","locOnAlias":"","type":"SPOT","category":"RAMP","routeType":"","route":"","active":"Yes","fnctClass":"(1)Interstate","latestAadt":22948,"latestAadtYear":2024,"latestDhv30":191,"latestKPercent":8,"latestDPercent":null,"latestVolumeCount":2317,"latestVolumeDate":"2024-04-08","extractedAt":"2025-08-02T14:17:01Z"}}]}