{"type":"FeatureCollection","features":[{"type":"Feature","geometry":{"type":"Point","coordinates":[-97.673487,32.752015]},"properties":{"locationId":"184CR323A","locatedOn":"-","locOnAlias":"","type":"SPOT","category":"URBAN ACR","routeType":"","route":"","active":"Yes","fnctClass":"(7)Local","latestAadt":3264,"latestAadtYear":2024,"latestDhv30":297,"latestKPercent":9,"latestDPercent":null,"latestVolumeCount":3539,"latestVolumeDate":"2024-05-13","extractedAt":"2025-08-01T20:40:44Z"}},{"type":"Feature","geometry":{"type":"Point","coordinates":[-97.686059,32.753216]},"properties":{"locationId":"184CR324","locatedOn":"-","locOnAlias":"","type":"SPOT","category":"URBAN ACR","routeType":"","route":"","active":"Yes","fnctClass":"(7)Local","latestAadt":241,"latestAadtYear":2019,"latestDhv30":31,"latestKPercent":13,"latestDPercent":null,"latestVolumeCount":259,"latestVolumeDate":"2019-05-08","extractedAt":"2025-08-01T20:40:57Z"}},{"type":"Feature","geometry":{"type":"Point","coordinates":[-97.685584,32.765777]},"properties":{"locationId":"184FS316","locatedOn":"CR0000","locOnAlias":"184AA1172","type":"SPOT","category":"URBAN ACR","routeType":"CR","route":"0000","active":"Yes","fnctClass":"(7)Local","latestAadt":710,"latestAadtYear":2024,"latestDhv30":75,"latestKPercent":11,"latestDPercent":null,"latestVolumeCount":726,"latestVolumeDate":"2024-05-21","extractedAt":"2025-08-02T00:41:55Z"}},{"type":"Feature","geometry":{"type":"Point","coordinates":[-97.676344,32.764715]},"properties":{"locationId":"184HP8041","locatedOn":"MIKUS RD","locOnAlias":"267319","type":"SPOT","category":"URBAN ACR","routeType":"FC","route":"0000","active":"Yes","fnctClass":"(5)Major Collector","latestAadt":2766,"latestAadtYear":2024,"latestDhv30":296,"latestKPercent":11,"latestDPercent":null,"latestVolumeCount":2892,"latestVolumeDate":"2024-05-21","extractedAt":"2025-08-02T13:00:08Z"}},{"type":"Feature","geometry":{"type":"Point","coordinates":[-97.674516,32.768446]},"properties":{"locationId":"184HP8055","locatedOn":"ELAKE","locOnAlias":"","type":"SPOT","category":"URBAN ACR","routeType":"","route":"","active":"Yes","fnctClass":"(5)Major Collector","latestAadt":2440,"latestAadtYear":2024,"latestDhv30":227,"latestKPercent":9,"latestDPercent":null,"latestVolumeCount":2551,"latestVolumeDate":"2024-05-21","extractedAt":"2025-08-02T13:09:01Z"}}]}