{"type":"FeatureCollection","features":[{"type":"Feature","geometry":{"type":"Point","coordinates":[-97.670961,32.739305]},"properties":{"locationId":"184CR321","locatedOn":"-","locOnAlias":"","type":"SPOT","category":"URBAN ACR","routeType":"","route":"","active":"Yes","fnctClass":"(5)Major Collector","latestAadt":846,"latestAadtYear":2024,"latestDhv30":117,"latestKPercent":14,"latestDPercent":null,"latestVolumeCount":862,"latestVolumeDate":"2024-05-13","extractedAt":"2025-08-01T20:39:43Z"}},{"type":"Feature","geometry":{"type":"Point","coordinates":[-97.674234,32.749431]},"properties":{"locationId":"184CR323","locatedOn":"-","locOnAlias":"","type":"SPOT","category":"URBAN ACR","routeType":"","route":"","active":"Yes","fnctClass":"(5)Major Collector","latestAadt":6602,"latestAadtYear":2024,"latestDhv30":565,"latestKPercent":9,"latestDPercent":null,"latestVolumeCount":6673,"latestVolumeDate":"2024-05-13","extractedAt":"2025-08-01T20:40:29Z"}},{"type":"Feature","geometry":{"type":"Point","coordinates":[-97.679896,32.74883]},"properties":{"locationId":"184CR332B","locatedOn":"-","locOnAlias":"","type":"SPOT","category":"URBAN ACR","routeType":"","route":"","active":"Yes","fnctClass":"(7)Local","latestAadt":310,"latestAadtYear":2024,"latestDhv30":35,"latestKPercent":11,"latestDPercent":null,"latestVolumeCount":335,"latestVolumeDate":"2024-05-13","extractedAt":"2025-08-01T20:55:24Z"}}]}