{"type":"FeatureCollection","features":[{"type":"Feature","geometry":{"type":"Point","coordinates":[-97.674023,32.705508]},"properties":{"locationId":"184CR67C","locatedOn":"-","locOnAlias":"","type":"SPOT","category":"URBAN ACR","routeType":"","route":"","active":"Yes","fnctClass":"(7)Local","latestAadt":3467,"latestAadtYear":2024,"latestDhv30":368,"latestKPercent":11,"latestDPercent":null,"latestVolumeCount":3617,"latestVolumeDate":"2024-05-13","extractedAt":"2025-08-01T21:27:31Z"}},{"type":"Feature","geometry":{"type":"Point","coordinates":[-97.688477,32.707509]},"properties":{"locationId":"184FS310F","locatedOn":"-","locOnAlias":"","type":"SPOT","category":"INACTIVE","routeType":"","route":"","active":"No","fnctClass":"(6)Minor Collector","latestAadt":1110,"latestAadtYear":2009,"latestDhv30":null,"latestKPercent":null,"latestDPercent":null,"latestVolumeCount":null,"latestVolumeDate":null,"extractedAt":"2025-08-02T00:35:00Z"}},{"type":"Feature","geometry":{"type":"Point","coordinates":[-97.689846,32.708036]},"properties":{"locationId":"184HP8","locatedOn":"Airport Rd","locOnAlias":"297487","type":"SPOT","category":"ANNUAL ACR","routeType":"FC","route":"0000","active":"Yes","fnctClass":"(6)Minor Collector","latestAadt":11493,"latestAadtYear":2024,"latestDhv30":null,"latestKPercent":null,"latestDPercent":null,"latestVolumeCount":1336,"latestVolumeDate":"2023-07-17","extractedAt":"2025-08-02T12:44:20Z"}}]}