{"type":"FeatureCollection","features":[{"type":"Feature","geometry":{"type":"Point","coordinates":[-97.783224,32.741328]},"properties":{"locationId":"184HP8043","locatedOn":"TEXAS DR","locOnAlias":"267321","type":"SPOT","category":"URBAN ACR","routeType":"FC","route":"0000","active":"Yes","fnctClass":"(5)Major Collector","latestAadt":3679,"latestAadtYear":2024,"latestDhv30":337,"latestKPercent":9,"latestDPercent":null,"latestVolumeCount":3735,"latestVolumeDate":"2024-05-13","extractedAt":"2025-08-02T13:00:40Z"}}]}