{"type":"FeatureCollection","features":[{"type":"Feature","geometry":{"type":"Point","coordinates":[-97.781799,32.72992]},"properties":{"locationId":"184HP8054","locatedOn":"EBB FIELDER","locOnAlias":"","type":"SPOT","category":"URBAN ACR","routeType":"","route":"","active":"Yes","fnctClass":"(5)Major Collector","latestAadt":2440,"latestAadtYear":2024,"latestDhv30":278,"latestKPercent":11,"latestDPercent":null,"latestVolumeCount":2570,"latestVolumeDate":"2024-05-15","extractedAt":"2025-08-02T13:08:45Z"}},{"type":"Feature","geometry":{"type":"Point","coordinates":[-97.778469,32.731769]},"properties":{"locationId":"184RP2013A","locatedOn":"IH0020","locOnAlias":"","type":"SPOT","category":"RAMP","routeType":"","route":"","active":"Yes","fnctClass":"(1)Interstate","latestAadt":116398,"latestAadtYear":2024,"latestDhv30":916,"latestKPercent":8,"latestDPercent":null,"latestVolumeCount":11817,"latestVolumeDate":"2024-04-10","extractedAt":"2025-08-02T13:47:11Z"}}]}