{"type":"FeatureCollection","features":[{"type":"Feature","geometry":{"type":"Point","coordinates":[-97.783504,32.757531]},"properties":{"locationId":"184FS101","locatedOn":"E Oak St","locOnAlias":"1250476","type":"SPOT","category":"URBAN ACR","routeType":"LS","route":"0000","active":"Yes","fnctClass":"(7)Local","latestAadt":918,"latestAadtYear":2024,"latestDhv30":86,"latestKPercent":9,"latestDPercent":null,"latestVolumeCount":903,"latestVolumeDate":"2024-05-21","extractedAt":"2025-08-01T23:59:03Z"}}]}