{"type":"FeatureCollection","features":[{"type":"Feature","geometry":{"type":"Point","coordinates":[-97.640454,32.943185]},"properties":{"locationId":"184CR14","locatedOn":"-","locOnAlias":"","type":"SPOT","category":"URBAN ACR","routeType":"","route":"","active":"Yes","fnctClass":"(7)Local","latestAadt":740,"latestAadtYear":2024,"latestDhv30":63,"latestKPercent":9,"latestDPercent":null,"latestVolumeCount":729,"latestVolumeDate":"2024-05-22","extractedAt":"2025-08-01T18:07:19Z"}},{"type":"Feature","geometry":{"type":"Point","coordinates":[-97.64072,32.958643]},"properties":{"locationId":"184CR14A","locatedOn":"-","locOnAlias":"","type":"SPOT","category":"URBAN ACR","routeType":"","route":"","active":"Yes","fnctClass":"(7)Local","latestAadt":176,"latestAadtYear":2019,"latestDhv30":23,"latestKPercent":13,"latestDPercent":null,"latestVolumeCount":188,"latestVolumeDate":"2019-05-06","extractedAt":"2025-08-01T18:15:46Z"}},{"type":"Feature","geometry":{"type":"Point","coordinates":[-97.626249,32.97993]},"properties":{"locationId":"184CR14B","locatedOn":"-","locOnAlias":"","type":"SPOT","category":"URBAN ACR","routeType":"","route":"","active":"Yes","fnctClass":"(7)Local","latestAadt":1098,"latestAadtYear":2024,"latestDhv30":100,"latestKPercent":9,"latestDPercent":null,"latestVolumeCount":1091,"latestVolumeDate":"2024-05-22","extractedAt":"2025-08-01T18:16:02Z"}},{"type":"Feature","geometry":{"type":"Point","coordinates":[-97.726472,32.975007]},"properties":{"locationId":"184CR170","locatedOn":"-","locOnAlias":"","type":"SPOT","category":"URBAN ACR","routeType":"","route":"","active":"Yes","fnctClass":"(7)Local","latestAadt":1772,"latestAadtYear":2019,"latestDhv30":169,"latestKPercent":10,"latestDPercent":null,"latestVolumeCount":1903,"latestVolumeDate":"2019-05-08","extractedAt":"2025-08-01T19:22:58Z"}},{"type":"Feature","geometry":{"type":"Point","coordinates":[-97.726545,32.989586]},"properties":{"locationId":"184CR170A","locatedOn":"-","locOnAlias":"","type":"SPOT","category":"URBAN ACR","routeType":"","route":"","active":"Yes","fnctClass":"(7)Local","latestAadt":1085,"latestAadtYear":2024,"latestDhv30":84,"latestKPercent":8,"latestDPercent":null,"latestVolumeCount":1062,"latestVolumeDate":"2024-05-22","extractedAt":"2025-08-01T19:23:15Z"}},{"type":"Feature","geometry":{"type":"Point","coordinates":[-97.71228,32.981656]},"properties":{"locationId":"184CR170B","locatedOn":"-","locOnAlias":"","type":"SPOT","category":"URBAN ACR","routeType":"","route":"","active":"Yes","fnctClass":"(7)Local","latestAadt":721,"latestAadtYear":2024,"latestDhv30":113,"latestKPercent":16,"latestDPercent":null,"latestVolumeCount":752,"latestVolumeDate":"2024-05-20","extractedAt":"2025-08-01T19:23:28Z"}},{"type":"Feature","geometry":{"type":"Point","coordinates":[-97.691398,32.973852]},"properties":{"locationId":"184CR171","locatedOn":"-","locOnAlias":"","type":"SPOT","category":"URBAN ACR","routeType":"","route":"","active":"Yes","fnctClass":"(7)Local","latestAadt":1710,"latestAadtYear":2024,"latestDhv30":266,"latestKPercent":16,"latestDPercent":null,"latestVolumeCount":1779,"latestVolumeDate":"2024-05-20","extractedAt":"2025-08-01T19:23:56Z"}},{"type":"Feature","geometry":{"type":"Point","coordinates":[-97.689053,32.95756]},"properties":{"locationId":"184CR172","locatedOn":"-","locOnAlias":"","type":"SPOT","category":"URBAN ACR","routeType":"","route":"","active":"Yes","fnctClass":"(5)Major Collector","latestAadt":2923,"latestAadtYear":2024,"latestDhv30":253,"latestKPercent":9,"latestDPercent":null,"latestVolumeCount":3079,"latestVolumeDate":"2024-05-22","extractedAt":"2025-08-01T19:29:32Z"}},{"type":"Feature","geometry":{"type":"Point","coordinates":[-97.727721,32.9004]},"properties":{"locationId":"184CR174","locatedOn":"-","locOnAlias":"","type":"SPOT","category":"URBAN ACR","routeType":"","route":"","active":"Yes","fnctClass":"(5)Major Collector","latestAadt":1965,"latestAadtYear":2024,"latestDhv30":178,"latestKPercent":9,"latestDPercent":null,"latestVolumeCount":2070,"latestVolumeDate":"2024-05-22","extractedAt":"2025-08-01T19:30:33Z"}},{"type":"Feature","geometry":{"type":"Point","coordinates":[-97.622098,32.896564]},"properties":{"locationId":"184CR17A","locatedOn":"-","locOnAlias":"","type":"SPOT","category":"URBAN ACR","routeType":"","route":"","active":"Yes","fnctClass":"(7)Local","latestAadt":801,"latestAadtYear":2024,"latestDhv30":74,"latestKPercent":9,"latestDPercent":null,"latestVolumeCount":801,"latestVolumeDate":"2024-05-21","extractedAt":"2025-08-01T19:35:04Z"}},{"type":"Feature","geometry":{"type":"Point","coordinates":[-97.634229,32.900799]},"properties":{"locationId":"184CR17B","locatedOn":"-","locOnAlias":"","type":"SPOT","category":"URBAN ACR","routeType":"","route":"","active":"Yes","fnctClass":"(7)Local","latestAadt":350,"latestAadtYear":2024,"latestDhv30":36,"latestKPercent":10,"latestDPercent":null,"latestVolumeCount":351,"latestVolumeDate":"2024-05-21","extractedAt":"2025-08-01T19:35:21Z"}},{"type":"Feature","geometry":{"type":"Point","coordinates":[-97.614535,32.950339]},"properties":{"locationId":"184CR19","locatedOn":"-","locOnAlias":"","type":"SPOT","category":"URBAN ACR","routeType":"","route":"","active":"Yes","fnctClass":"(7)Local","latestAadt":438,"latestAadtYear":2024,"latestDhv30":35,"latestKPercent":8,"latestDPercent":null,"latestVolumeCount":432,"latestVolumeDate":"2024-05-22","extractedAt":"2025-08-01T19:35:36Z"}},{"type":"Feature","geometry":{"type":"Point","coordinates":[-97.623571,32.970819]},"properties":{"locationId":"184CR19A","locatedOn":"-","locOnAlias":"","type":"SPOT","category":"URBAN ACR","routeType":"","route":"","active":"Yes","fnctClass":"(7)Local","latestAadt":273,"latestAadtYear":2024,"latestDhv30":22,"latestKPercent":8,"latestDPercent":null,"latestVolumeCount":273,"latestVolumeDate":"2024-05-22","extractedAt":"2025-08-01T19:35:53Z"}},{"type":"Feature","geometry":{"type":"Point","coordinates":[-97.604031,32.980925]},"properties":{"locationId":"184CR21","locatedOn":"-","locOnAlias":"","type":"SPOT","category":"URBAN ACR","routeType":"","route":"","active":"Yes","fnctClass":"(7)Local","latestAadt":928,"latestAadtYear":2024,"latestDhv30":82,"latestKPercent":9,"latestDPercent":null,"latestVolumeCount":923,"latestVolumeDate":"2024-05-22","extractedAt":"2025-08-01T19:42:56Z"}},{"type":"Feature","geometry":{"type":"Point","coordinates":[-97.652822,32.978132]},"properties":{"locationId":"184CR217","locatedOn":"NAKNOB","locOnAlias":"","type":"SPOT","category":"URBAN ACR","routeType":"","route":"","active":"Yes","fnctClass":"(7)Local","latestAadt":731,"latestAadtYear":2024,"latestDhv30":60,"latestKPercent":8,"latestDPercent":null,"latestVolumeCount":726,"latestVolumeDate":"2024-05-22","extractedAt":"2025-08-01T19:44:30Z"}},{"type":"Feature","geometry":{"type":"Point","coordinates":[-97.612749,32.980712]},"properties":{"locationId":"184CR21A","locatedOn":"-","locOnAlias":"","type":"SPOT","category":"URBAN ACR","routeType":"","route":"","active":"Yes","fnctClass":"(7)Local","latestAadt":651,"latestAadtYear":2024,"latestDhv30":61,"latestKPercent":9,"latestDPercent":null,"latestVolumeCount":647,"latestVolumeDate":"2024-05-22","extractedAt":"2025-08-01T19:50:32Z"}},{"type":"Feature","geometry":{"type":"Point","coordinates":[-97.614083,32.979554]},"properties":{"locationId":"184CR21B","locatedOn":"-","locOnAlias":"","type":"SPOT","category":"URBAN ACR","routeType":"","route":"","active":"Yes","fnctClass":"(7)Local","latestAadt":1555,"latestAadtYear":2024,"latestDhv30":124,"latestKPercent":8,"latestDPercent":null,"latestVolumeCount":1544,"latestVolumeDate":"2024-05-22","extractedAt":"2025-08-01T19:50:44Z"}},{"type":"Feature","geometry":{"type":"Point","coordinates":[-97.622736,32.981448]},"properties":{"locationId":"184CR21C","locatedOn":"-","locOnAlias":"","type":"SPOT","category":"URBAN ACR","routeType":"","route":"","active":"Yes","fnctClass":"(7)Local","latestAadt":387,"latestAadtYear":2019,"latestDhv30":47,"latestKPercent":12,"latestDPercent":null,"latestVolumeCount":411,"latestVolumeDate":"2019-05-06","extractedAt":"2025-08-01T19:50:58Z"}},{"type":"Feature","geometry":{"type":"Point","coordinates":[-97.592581,32.981802]},"properties":{"locationId":"184CR22","locatedOn":"-","locOnAlias":"","type":"SPOT","category":"URBAN ACR","routeType":"","route":"","active":"Yes","fnctClass":"(7)Local","latestAadt":599,"latestAadtYear":2024,"latestDhv30":62,"latestKPercent":10,"latestDPercent":null,"latestVolumeCount":590,"latestVolumeDate":"2024-05-22","extractedAt":"2025-08-01T19:51:14Z"}},{"type":"Feature","geometry":{"type":"Point","coordinates":[-97.661356,32.978989]},"properties":{"locationId":"184CR224","locatedOn":"NATHOMAS","locOnAlias":"","type":"SPOT","category":"URBAN ACR","routeType":"","route":"","active":"Yes","fnctClass":"(7)Local","latestAadt":914,"latestAadtYear":2019,"latestDhv30":129,"latestKPercent":14,"latestDPercent":null,"latestVolumeCount":973,"latestVolumeDate":"2019-05-06","extractedAt":"2025-08-01T19:52:26Z"}},{"type":"Feature","geometry":{"type":"Point","coordinates":[-97.660971,32.944303]},"properties":{"locationId":"184CR226","locatedOn":"NAHIGHLAND","locOnAlias":"","type":"SPOT","category":"URBAN ACR","routeType":"","route":"","active":"Yes","fnctClass":"(7)Local","latestAadt":217,"latestAadtYear":2019,"latestDhv30":27,"latestKPercent":12,"latestDPercent":null,"latestVolumeCount":229,"latestVolumeDate":"2019-05-13","extractedAt":"2025-08-01T19:58:23Z"}},{"type":"Feature","geometry":{"type":"Point","coordinates":[-97.653861,32.940433]},"properties":{"locationId":"184CR227","locatedOn":"NAHIGHLAND","locOnAlias":"","type":"SPOT","category":"URBAN ACR","routeType":"","route":"","active":"Yes","fnctClass":"(7)Local","latestAadt":290,"latestAadtYear":2024,"latestDhv30":27,"latestKPercent":10,"latestDPercent":null,"latestVolumeCount":290,"latestVolumeDate":"2024-05-22","extractedAt":"2025-08-01T19:58:36Z"}},{"type":"Feature","geometry":{"type":"Point","coordinates":[-97.566847,32.980416]},"properties":{"locationId":"184CR24A","locatedOn":"-","locOnAlias":"","type":"SPOT","category":"URBAN ACR","routeType":"","route":"","active":"Yes","fnctClass":"(7)Local","latestAadt":880,"latestAadtYear":2024,"latestDhv30":83,"latestKPercent":10,"latestDPercent":null,"latestVolumeCount":870,"latestVolumeDate":"2024-05-22","extractedAt":"2025-08-01T20:06:00Z"}},{"type":"Feature","geometry":{"type":"Point","coordinates":[-97.545156,32.952961]},"properties":{"locationId":"184CR25A","locatedOn":"-","locOnAlias":"","type":"SPOT","category":"URBAN ACR","routeType":"","route":"","active":"Yes","fnctClass":"(7)Local","latestAadt":832,"latestAadtYear":2024,"latestDhv30":68,"latestKPercent":8,"latestDPercent":null,"latestVolumeCount":826,"latestVolumeDate":"2024-05-22","extractedAt":"2025-08-01T20:06:14Z"}},{"type":"Feature","geometry":{"type":"Point","coordinates":[-97.568205,32.960327]},"properties":{"locationId":"184CR25B","locatedOn":"-","locOnAlias":"","type":"SPOT","category":"URBAN ACR","routeType":"","route":"","active":"Yes","fnctClass":"(7)Local","latestAadt":176,"latestAadtYear":2024,"latestDhv30":16,"latestKPercent":10,"latestDPercent":null,"latestVolumeCount":174,"latestVolumeDate":"2024-05-22","extractedAt":"2025-08-01T20:06:27Z"}},{"type":"Feature","geometry":{"type":"Point","coordinates":[-97.553559,32.940143]},"properties":{"locationId":"184CR25C","locatedOn":"-","locOnAlias":"","type":"SPOT","category":"URBAN ACR","routeType":"","route":"","active":"Yes","fnctClass":"(7)Local","latestAadt":1110,"latestAadtYear":2019,"latestDhv30":100,"latestKPercent":9,"latestDPercent":null,"latestVolumeCount":1175,"latestVolumeDate":"2019-05-06","extractedAt":"2025-08-01T20:06:44Z"}},{"type":"Feature","geometry":{"type":"Point","coordinates":[-97.552024,32.935602]},"properties":{"locationId":"184CR25D","locatedOn":"-","locOnAlias":"","type":"SPOT","category":"URBAN ACR","routeType":"","route":"","active":"Yes","fnctClass":"(7)Local","latestAadt":9,"latestAadtYear":2024,"latestDhv30":2,"latestKPercent":33,"latestDPercent":null,"latestVolumeCount":9,"latestVolumeDate":"2024-05-22","extractedAt":"2025-08-01T20:07:02Z"}},{"type":"Feature","geometry":{"type":"Point","coordinates":[-97.587194,32.945672]},"properties":{"locationId":"184CR26","locatedOn":"-","locOnAlias":"","type":"SPOT","category":"URBAN ACR","routeType":"","route":"","active":"Yes","fnctClass":"(7)Local","latestAadt":699,"latestAadtYear":2024,"latestDhv30":60,"latestKPercent":9,"latestDPercent":null,"latestVolumeCount":690,"latestVolumeDate":"2024-05-22","extractedAt":"2025-08-01T20:07:16Z"}},{"type":"Feature","geometry":{"type":"Point","coordinates":[-97.577599,32.944897]},"properties":{"locationId":"184CR26A","locatedOn":"-","locOnAlias":"","type":"SPOT","category":"URBAN ACR","routeType":"","route":"","active":"Yes","fnctClass":"(7)Local","latestAadt":847,"latestAadtYear":2024,"latestDhv30":74,"latestKPercent":9,"latestDPercent":null,"latestVolumeCount":838,"latestVolumeDate":"2024-05-22","extractedAt":"2025-08-01T20:07:33Z"}},{"type":"Feature","geometry":{"type":"Point","coordinates":[-97.599769,32.914434]},"properties":{"locationId":"184CR27","locatedOn":"-","locOnAlias":"","type":"SPOT","category":"URBAN ACR","routeType":"","route":"","active":"Yes","fnctClass":"(5)Major Collector","latestAadt":2816,"latestAadtYear":2019,"latestDhv30":412,"latestKPercent":15,"latestDPercent":null,"latestVolumeCount":3446,"latestVolumeDate":"2019-05-13","extractedAt":"2025-08-01T20:07:47Z"}},{"type":"Feature","geometry":{"type":"Point","coordinates":[-97.609189,32.923322]},"properties":{"locationId":"184CR27A","locatedOn":"-","locOnAlias":"","type":"SPOT","category":"URBAN ACR","routeType":"","route":"","active":"Yes","fnctClass":"(7)Local","latestAadt":5885,"latestAadtYear":2024,"latestDhv30":457,"latestKPercent":8,"latestDPercent":null,"latestVolumeCount":5794,"latestVolumeDate":"2024-05-22","extractedAt":"2025-08-01T20:08:00Z"}},{"type":"Feature","geometry":{"type":"Point","coordinates":[-97.57827,32.910597]},"properties":{"locationId":"184CR28","locatedOn":"-","locOnAlias":"","type":"SPOT","category":"URBAN ACR","routeType":"","route":"","active":"Yes","fnctClass":"(7)Local","latestAadt":524,"latestAadtYear":2024,"latestDhv30":59,"latestKPercent":11,"latestDPercent":null,"latestVolumeCount":511,"latestVolumeDate":"2024-05-22","extractedAt":"2025-08-01T20:08:17Z"}},{"type":"Feature","geometry":{"type":"Point","coordinates":[-97.584166,32.910767]},"properties":{"locationId":"184CR28A","locatedOn":"-","locOnAlias":"","type":"SPOT","category":"URBAN ACR","routeType":"","route":"","active":"Yes","fnctClass":"(7)Local","latestAadt":445,"latestAadtYear":2024,"latestDhv30":46,"latestKPercent":10,"latestDPercent":null,"latestVolumeCount":439,"latestVolumeDate":"2024-05-22","extractedAt":"2025-08-01T20:13:54Z"}},{"type":"Feature","geometry":{"type":"Point","coordinates":[-97.557197,32.898947]},"properties":{"locationId":"184CR29","locatedOn":"-","locOnAlias":"","type":"SPOT","category":"URBAN ACR","routeType":"","route":"","active":"Yes","fnctClass":"(7)Local","latestAadt":661,"latestAadtYear":2024,"latestDhv30":59,"latestKPercent":9,"latestDPercent":null,"latestVolumeCount":663,"latestVolumeDate":"2024-05-21","extractedAt":"2025-08-01T20:14:10Z"}},{"type":"Feature","geometry":{"type":"Point","coordinates":[-97.576062,32.882191]},"properties":{"locationId":"184CR29B","locatedOn":"-","locOnAlias":"","type":"SPOT","category":"URBAN ACR","routeType":"","route":"","active":"Yes","fnctClass":"(5)Major Collector","latestAadt":2684,"latestAadtYear":2024,"latestDhv30":395,"latestKPercent":15,"latestDPercent":null,"latestVolumeCount":2812,"latestVolumeDate":"2024-05-21","extractedAt":"2025-08-01T20:14:27Z"}},{"type":"Feature","geometry":{"type":"Point","coordinates":[-97.546212,32.896616]},"properties":{"locationId":"184CR30","locatedOn":"-","locOnAlias":"","type":"SPOT","category":"URBAN ACR","routeType":"","route":"","active":"Yes","fnctClass":"(7)Local","latestAadt":603,"latestAadtYear":2024,"latestDhv30":70,"latestKPercent":12,"latestDPercent":null,"latestVolumeCount":604,"latestVolumeDate":"2024-05-21","extractedAt":"2025-08-01T20:14:41Z"}},{"type":"Feature","geometry":{"type":"Point","coordinates":[-97.595753,32.879164]},"properties":{"locationId":"184CR31A","locatedOn":"-","locOnAlias":"","type":"SPOT","category":"URBAN ACR","routeType":"","route":"","active":"Yes","fnctClass":"(5)Major Collector","latestAadt":3485,"latestAadtYear":2024,"latestDhv30":337,"latestKPercent":10,"latestDPercent":null,"latestVolumeCount":3653,"latestVolumeDate":"2024-05-21","extractedAt":"2025-08-01T20:33:01Z"}},{"type":"Feature","geometry":{"type":"Point","coordinates":[-97.623416,32.877469]},"properties":{"locationId":"184CR31B","locatedOn":"-","locOnAlias":"","type":"SPOT","category":"URBAN ACR","routeType":"","route":"","active":"Yes","fnctClass":"(6)Minor Collector","latestAadt":2945,"latestAadtYear":2024,"latestDhv30":290,"latestKPercent":10,"latestDPercent":null,"latestVolumeCount":2914,"latestVolumeDate":"2024-05-21","extractedAt":"2025-08-01T20:38:42Z"}},{"type":"Feature","geometry":{"type":"Point","coordinates":[-97.662913,32.889789]},"properties":{"locationId":"184CR31C","locatedOn":"-","locOnAlias":"","type":"SPOT","category":"URBAN ACR","routeType":"","route":"","active":"Yes","fnctClass":"(6)Minor Collector","latestAadt":1155,"latestAadtYear":2024,"latestDhv30":115,"latestKPercent":10,"latestDPercent":null,"latestVolumeCount":1202,"latestVolumeDate":"2024-05-22","extractedAt":"2025-08-01T20:38:57Z"}},{"type":"Feature","geometry":{"type":"Point","coordinates":[-97.581849,32.87741]},"properties":{"locationId":"184CR32","locatedOn":"-","locOnAlias":"","type":"SPOT","category":"URBAN ACR","routeType":"","route":"","active":"Yes","fnctClass":"(7)Local","latestAadt":2664,"latestAadtYear":2024,"latestDhv30":284,"latestKPercent":11,"latestDPercent":null,"latestVolumeCount":2679,"latestVolumeDate":"2024-05-21","extractedAt":"2025-08-01T20:39:13Z"}},{"type":"Feature","geometry":{"type":"Point","coordinates":[-97.59417,32.866956]},"properties":{"locationId":"184CR33","locatedOn":"-","locOnAlias":"","type":"SPOT","category":"URBAN ACR","routeType":"","route":"","active":"Yes","fnctClass":"(5)Major Collector","latestAadt":5933,"latestAadtYear":2024,"latestDhv30":550,"latestKPercent":9,"latestDPercent":null,"latestVolumeCount":6214,"latestVolumeDate":"2024-05-21","extractedAt":"2025-08-01T20:54:36Z"}},{"type":"Feature","geometry":{"type":"Point","coordinates":[-97.731597,32.851009]},"properties":{"locationId":"184CR5A","locatedOn":"-","locOnAlias":"","type":"SPOT","category":"URBAN ACR","routeType":"","route":"","active":"Yes","fnctClass":"(6)Minor Collector","latestAadt":811,"latestAadtYear":2024,"latestDhv30":93,"latestKPercent":12,"latestDPercent":null,"latestVolumeCount":831,"latestVolumeDate":"2024-05-22","extractedAt":"2025-08-01T21:26:01Z"}},{"type":"Feature","geometry":{"type":"Point","coordinates":[-97.681854,32.921694]},"properties":{"locationId":"184CR8A","locatedOn":"-","locOnAlias":"","type":"SPOT","category":"URBAN ACR","routeType":"","route":"","active":"Yes","fnctClass":"(6)Minor Collector","latestAadt":12173,"latestAadtYear":2024,"latestDhv30":null,"latestKPercent":null,"latestDPercent":null,"latestVolumeCount":1291,"latestVolumeDate":"2019-05-13","extractedAt":"2025-08-01T23:11:19Z"}},{"type":"Feature","geometry":{"type":"Point","coordinates":[-97.657297,32.909795]},"properties":{"locationId":"184CR8D","locatedOn":"-","locOnAlias":"","type":"SPOT","category":"URBAN ACR","routeType":"","route":"","active":"Yes","fnctClass":"(7)Local","latestAadt":1153,"latestAadtYear":2024,"latestDhv30":109,"latestKPercent":10,"latestDPercent":null,"latestVolumeCount":1162,"latestVolumeDate":"2024-05-22","extractedAt":"2025-08-01T23:11:32Z"}},{"type":"Feature","geometry":{"type":"Point","coordinates":[-97.681048,32.954541]},"properties":{"locationId":"184CR9","locatedOn":"-","locOnAlias":"","type":"SPOT","category":"URBAN ACR","routeType":"","route":"","active":"Yes","fnctClass":"(6)Minor Collector","latestAadt":2511,"latestAadtYear":2024,"latestDhv30":211,"latestKPercent":8,"latestDPercent":null,"latestVolumeCount":2604,"latestVolumeDate":"2024-05-22","extractedAt":"2025-08-01T23:12:00Z"}},{"type":"Feature","geometry":{"type":"Point","coordinates":[-97.59663,32.869517]},"properties":{"locationId":"184E29A","locatedOn":"FM0730","locOnAlias":"FM0730-KG","type":"SPOT","category":"ANNUAL ACR","routeType":"FM","route":"0730","active":"Yes","fnctClass":"(5)Major Collector","latestAadt":7511,"latestAadtYear":2024,"latestDhv30":571,"latestKPercent":8,"latestDPercent":null,"latestVolumeCount":7259,"latestVolumeDate":"2024-07-08","extractedAt":"2025-08-01T23:58:06Z"}},{"type":"Feature","geometry":{"type":"Point","coordinates":[-97.601618,32.921377]},"properties":{"locationId":"184E30A","locatedOn":"SH0199","locOnAlias":"SH0199-KG","type":"SPOT","category":"ANNUAL ACR","routeType":"SH","route":"0199","active":"Yes","fnctClass":"(3)Principal Arterial-Other","latestAadt":303043,"latestAadtYear":2024,"latestDhv30":null,"latestKPercent":null,"latestDPercent":null,"latestVolumeCount":32521,"latestVolumeDate":"2023-07-17","extractedAt":"2025-08-01T23:58:20Z"}},{"type":"Feature","geometry":{"type":"Point","coordinates":[-97.598663,32.979587]},"properties":{"locationId":"184E30B","locatedOn":"FM2257","locOnAlias":"FM2257-KG","type":"SPOT","category":"ANNUAL ACR","routeType":"FM","route":"2257","active":"Yes","fnctClass":"(5)Major Collector","latestAadt":35663,"latestAadtYear":2024,"latestDhv30":null,"latestKPercent":null,"latestDPercent":null,"latestVolumeCount":3627,"latestVolumeDate":"2023-07-17","extractedAt":"2025-08-01T23:58:33Z"}},{"type":"Feature","geometry":{"type":"Point","coordinates":[-97.703784,32.842774]},"properties":{"locationId":"184FS24","locatedOn":"CR0000","locOnAlias":"184AA0261","type":"SPOT","category":"URBAN ACR","routeType":"CR","route":"0000","active":"Yes","fnctClass":"(6)Minor Collector","latestAadt":624,"latestAadtYear":2024,"latestDhv30":63,"latestKPercent":10,"latestDPercent":null,"latestVolumeCount":640,"latestVolumeDate":"2024-05-22","extractedAt":"2025-08-02T00:11:37Z"}},{"type":"Feature","geometry":{"type":"Point","coordinates":[-97.690248,32.96347]},"properties":{"locationId":"184FS307","locatedOn":"LS0000","locOnAlias":"1233906","type":"SPOT","category":"URBAN ACR","routeType":"LS","route":"0000","active":"Yes","fnctClass":"(7)Local","latestAadt":2041,"latestAadtYear":2019,"latestDhv30":281,"latestKPercent":14,"latestDPercent":null,"latestVolumeCount":2154,"latestVolumeDate":"2019-05-13","extractedAt":"2025-08-02T00:34:29Z"}},{"type":"Feature","geometry":{"type":"Point","coordinates":[-97.684048,32.971841]},"properties":{"locationId":"184FS315","locatedOn":"LS0000","locOnAlias":"1233929","type":"SPOT","category":"URBAN ACR","routeType":"LS","route":"0000","active":"Yes","fnctClass":"(7)Local","latestAadt":314,"latestAadtYear":2024,"latestDhv30":46,"latestKPercent":15,"latestDPercent":null,"latestVolumeCount":326,"latestVolumeDate":"2024-05-20","extractedAt":"2025-08-02T00:41:37Z"}},{"type":"Feature","geometry":{"type":"Point","coordinates":[-97.6832,32.884697]},"properties":{"locationId":"184FS34","locatedOn":"CR0000","locOnAlias":"184AA1533","type":"SPOT","category":"URBAN ACR","routeType":"CR","route":"0000","active":"Yes","fnctClass":"(7)Local","latestAadt":39,"latestAadtYear":2024,"latestDhv30":5,"latestKPercent":15,"latestDPercent":null,"latestVolumeCount":39,"latestVolumeDate":"2024-05-22","extractedAt":"2025-08-02T00:43:01Z"}},{"type":"Feature","geometry":{"type":"Point","coordinates":[-97.694418,32.979081]},"properties":{"locationId":"184FS35","locatedOn":"FC0000","locOnAlias":"297471","type":"SPOT","category":"URBAN ACR","routeType":"FC","route":"0000","active":"Yes","fnctClass":"(5)Major Collector","latestAadt":4189,"latestAadtYear":2024,"latestDhv30":804,"latestKPercent":19,"latestDPercent":51,"latestVolumeCount":4345,"latestVolumeDate":"2024-05-20","extractedAt":"2025-08-02T00:43:14Z"}},{"type":"Feature","geometry":{"type":"Point","coordinates":[-97.550049,32.980037]},"properties":{"locationId":"184H10","locatedOn":"FM2257","locOnAlias":"FM2257-KG","type":"SPOT","category":"ANNUAL ACR","routeType":"FM","route":"2257","active":"Yes","fnctClass":"(5)Major Collector","latestAadt":4545,"latestAadtYear":2024,"latestDhv30":351,"latestKPercent":8,"latestDPercent":null,"latestVolumeCount":4651,"latestVolumeDate":"2024-07-08","extractedAt":"2025-08-02T01:43:00Z"}},{"type":"Feature","geometry":{"type":"Point","coordinates":[-97.595434,32.921236]},"properties":{"locationId":"184H12","locatedOn":"FM1542","locOnAlias":"FM1542-KG","type":"SPOT","category":"ANNUAL ACR","routeType":"FM","route":"1542","active":"Yes","fnctClass":"(5)Major Collector","latestAadt":1704,"latestAadtYear":2024,"latestDhv30":154,"latestKPercent":9,"latestDPercent":null,"latestVolumeCount":1746,"latestVolumeDate":"2024-07-08","extractedAt":"2025-08-02T01:43:27Z"}},{"type":"Feature","geometry":{"type":"Point","coordinates":[-97.595434,32.921236]},"properties":{"locationId":"184H12","locatedOn":"FM1542","locOnAlias":"FM1542-KG","type":"SPOT","category":"ANNUAL ACR","routeType":"FM","route":"1542","active":"Yes","fnctClass":"(5)Major Collector","latestAadt":1704,"latestAadtYear":2024,"latestDhv30":154,"latestKPercent":9,"latestDPercent":null,"latestVolumeCount":1746,"latestVolumeDate":"2024-07-08","extractedAt":"2025-08-02T01:45:10Z"}},{"type":"Feature","geometry":{"type":"Point","coordinates":[-97.549214,32.899436]},"properties":{"locationId":"184H14","locatedOn":"SL0344","locOnAlias":"SL0344-KG","type":"SPOT","category":"ANNUAL ACR","routeType":"SL","route":"0344","active":"Yes","fnctClass":"(5)Major Collector","latestAadt":6986,"latestAadtYear":2024,"latestDhv30":560,"latestKPercent":8,"latestDPercent":null,"latestVolumeCount":6888,"latestVolumeDate":"2024-07-08","extractedAt":"2025-08-02T01:47:37Z"}},{"type":"Feature","geometry":{"type":"Point","coordinates":[-97.557195,32.90344]},"properties":{"locationId":"184H15A","locatedOn":"SH0199","locOnAlias":"SH0199-KG","type":"SPOT","category":"ANNUAL ACR","routeType":"SH","route":"0199","active":"Yes","fnctClass":"(2)Principal Arterial-Other Freeways and Expressways","latestAadt":30036,"latestAadtYear":2024,"latestDhv30":2684,"latestKPercent":9,"latestDPercent":null,"latestVolumeCount":31985,"latestVolumeDate":"2024-04-22","extractedAt":"2025-08-02T01:52:39Z"}},{"type":"Feature","geometry":{"type":"Point","coordinates":[-97.557184,32.903924]},"properties":{"locationId":"184H15AWBSR","locatedOn":"SH0199","locOnAlias":"SH0199-XG","type":"SPOT","category":"ANNUAL ACR","routeType":"SH","route":"0199","active":"Yes","fnctClass":"(5)Major Collector","latestAadt":3729,"latestAadtYear":2024,"latestDhv30":342,"latestKPercent":9,"latestDPercent":null,"latestVolumeCount":3743,"latestVolumeDate":"2024-06-03","extractedAt":"2025-08-02T03:28:43Z"}},{"type":"Feature","geometry":{"type":"Point","coordinates":[-97.552167,32.900122]},"properties":{"locationId":"184H16","locatedOn":"FM0730","locOnAlias":"FM0730-KG","type":"SPOT","category":"ANNUAL ACR","routeType":"FM","route":"0730","active":"Yes","fnctClass":"(5)Major Collector","latestAadt":13912,"latestAadtYear":2024,"latestDhv30":998,"latestKPercent":7,"latestDPercent":null,"latestVolumeCount":13493,"latestVolumeDate":"2024-07-08","extractedAt":"2025-08-02T03:28:57Z"}},{"type":"Feature","geometry":{"type":"Point","coordinates":[-97.55021,32.901495]},"properties":{"locationId":"184H19901","locatedOn":"SH0199","locOnAlias":"SH0199-KG","type":"SPOT","category":"ANNUAL ACR","routeType":"SH","route":"0199","active":"Yes","fnctClass":"(2)Principal Arterial-Other Freeways and Expressways","latestAadt":255903,"latestAadtYear":2024,"latestDhv30":null,"latestKPercent":null,"latestDPercent":null,"latestVolumeCount":null,"latestVolumeDate":null,"extractedAt":"2025-08-02T03:30:04Z"}},{"type":"Feature","geometry":{"type":"Point","coordinates":[-97.550336,32.90113]},"properties":{"locationId":"184H19901EBSR","locatedOn":"SH0199","locOnAlias":"SH0199-AG","type":"SPOT","category":"ANNUAL ACR","routeType":"SH","route":"0199","active":"Yes","fnctClass":"(5)Major Collector","latestAadt":2677,"latestAadtYear":2024,"latestDhv30":206,"latestKPercent":8,"latestDPercent":null,"latestVolumeCount":2729,"latestVolumeDate":"2024-06-03","extractedAt":"2025-08-02T03:30:19Z"}},{"type":"Feature","geometry":{"type":"Point","coordinates":[-97.550207,32.9019]},"properties":{"locationId":"184H19901WBSR","locatedOn":"SH0199","locOnAlias":"SH0199-XG","type":"SPOT","category":"ANNUAL ACR","routeType":"SH","route":"0199","active":"Yes","fnctClass":"(5)Major Collector","latestAadt":40333,"latestAadtYear":2024,"latestDhv30":null,"latestKPercent":null,"latestDPercent":null,"latestVolumeCount":4186,"latestVolumeDate":"2023-07-19","extractedAt":"2025-08-02T03:30:35Z"}},{"type":"Feature","geometry":{"type":"Point","coordinates":[-97.681341,32.906524]},"properties":{"locationId":"184HP6004","locatedOn":"Old Springtown Rd","locOnAlias":"184AA0172","type":"SPOT","category":"URBAN ACR","routeType":"CR","route":"0172","active":"Yes","fnctClass":"(6)Minor Collector","latestAadt":1066,"latestAadtYear":2024,"latestDhv30":107,"latestKPercent":10,"latestDPercent":null,"latestVolumeCount":1144,"latestVolumeDate":"2024-05-22","extractedAt":"2025-08-02T12:43:31Z"}},{"type":"Feature","geometry":{"type":"Point","coordinates":[-97.550915,32.902518]},"properties":{"locationId":"184HP8035","locatedOn":"Commerce St","locOnAlias":"250334","type":"SPOT","category":"URBAN ACR","routeType":"FC","route":"0000","active":"Yes","fnctClass":"(5)Major Collector","latestAadt":10013,"latestAadtYear":2024,"latestDhv30":949,"latestKPercent":9,"latestDPercent":null,"latestVolumeCount":10492,"latestVolumeDate":"2024-05-21","extractedAt":"2025-08-02T12:53:17Z"}},{"type":"Feature","geometry":{"type":"Point","coordinates":[-97.546535,32.900164]},"properties":{"locationId":"184RP1991","locatedOn":"SH0199","locOnAlias":"","type":"SPOT","category":"RAMP","routeType":"","route":"","active":"Yes","fnctClass":"(2)Principal Arterial-Other Freeways and Expressways","latestAadt":2271,"latestAadtYear":2024,"latestDhv30":213,"latestKPercent":9,"latestDPercent":null,"latestVolumeCount":2425,"latestVolumeDate":"2024-04-22","extractedAt":"2025-08-02T13:31:05Z"}},{"type":"Feature","geometry":{"type":"Point","coordinates":[-97.546438,32.900646]},"properties":{"locationId":"184RP1992","locatedOn":"SH0199","locOnAlias":"","type":"SPOT","category":"RAMP","routeType":"","route":"","active":"Yes","fnctClass":"(2)Principal Arterial-Other Freeways and Expressways","latestAadt":3051,"latestAadtYear":2024,"latestDhv30":329,"latestKPercent":11,"latestDPercent":null,"latestVolumeCount":3236,"latestVolumeDate":"2024-04-22","extractedAt":"2025-08-02T13:31:18Z"}},{"type":"Feature","geometry":{"type":"Point","coordinates":[-97.555496,32.902643]},"properties":{"locationId":"184RP1993","locatedOn":"SL0344","locOnAlias":"","type":"SPOT","category":"RAMP","routeType":"","route":"","active":"Yes","fnctClass":"(5)Major Collector","latestAadt":3256,"latestAadtYear":2024,"latestDhv30":299,"latestKPercent":9,"latestDPercent":null,"latestVolumeCount":3378,"latestVolumeDate":"2024-04-22","extractedAt":"2025-08-02T13:31:34Z"}},{"type":"Feature","geometry":{"type":"Point","coordinates":[-97.604058,32.891067]},"properties":{"locationId":"184RS3","locatedOn":"NAFOREST TRAIL","locOnAlias":"","type":"SPOT","category":"URBAN ACR","routeType":"","route":"","active":"Yes","fnctClass":"(7)Local","latestAadt":39,"latestAadtYear":2024,"latestDhv30":5,"latestKPercent":15,"latestDPercent":null,"latestVolumeCount":39,"latestVolumeDate":"2024-05-21","extractedAt":"2025-08-02T15:19:24Z"}},{"type":"Feature","geometry":{"type":"Point","coordinates":[-97.683465,32.964299]},"properties":{"locationId":"184T11","locatedOn":"FM0051","locOnAlias":"FM0051-KG","type":"SPOT","category":"ANNUAL ACR","routeType":"FM","route":"0051","active":"Yes","fnctClass":"(4)Minor Arterial","latestAadt":132053,"latestAadtYear":2024,"latestDhv30":null,"latestKPercent":null,"latestDPercent":null,"latestVolumeCount":15161,"latestVolumeDate":"2023-07-19","extractedAt":"2025-08-02T15:33:21Z"}},{"type":"Feature","geometry":{"type":"Point","coordinates":[-97.684031,32.967155]},"properties":{"locationId":"184T12","locatedOn":"FM0051","locOnAlias":"FM0051-KG","type":"SPOT","category":"ANNUAL ACR","routeType":"FM","route":"0051","active":"Yes","fnctClass":"(4)Minor Arterial","latestAadt":120213,"latestAadtYear":2024,"latestDhv30":null,"latestKPercent":null,"latestDPercent":null,"latestVolumeCount":13826,"latestVolumeDate":"2023-07-19","extractedAt":"2025-08-02T15:33:38Z"}},{"type":"Feature","geometry":{"type":"Point","coordinates":[-97.682352,32.962862]},"properties":{"locationId":"184T14","locatedOn":"SH0199","locOnAlias":"","type":"SPOT","category":"ANNUAL ACR","routeType":"","route":"","active":"Yes","fnctClass":"(3)Principal Arterial-Other","latestAadt":306673,"latestAadtYear":2024,"latestDhv30":null,"latestKPercent":null,"latestDPercent":null,"latestVolumeCount":32570,"latestVolumeDate":"2023-07-17","extractedAt":"2025-08-02T15:33:55Z"}},{"type":"Feature","geometry":{"type":"Point","coordinates":[-97.682775,32.960824]},"properties":{"locationId":"184T15","locatedOn":"FM0051","locOnAlias":"FM0051-KG","type":"SPOT","category":"ANNUAL ACR","routeType":"FM","route":"0051","active":"Yes","fnctClass":"(4)Minor Arterial","latestAadt":11432,"latestAadtYear":2024,"latestDhv30":1000,"latestKPercent":9,"latestDPercent":null,"latestVolumeCount":12555,"latestVolumeDate":"2024-05-22","extractedAt":"2025-08-02T15:34:11Z"}},{"type":"Feature","geometry":{"type":"Point","coordinates":[-97.684402,32.963342]},"properties":{"locationId":"184T16","locatedOn":"SH0199","locOnAlias":"SH0199-KG","type":"SPOT","category":"ANNUAL ACR","routeType":"SH","route":"0199","active":"Yes","fnctClass":"(3)Principal Arterial-Other","latestAadt":17310,"latestAadtYear":2024,"latestDhv30":1451,"latestKPercent":8,"latestDPercent":54,"latestVolumeCount":18963,"latestVolumeDate":"2024-05-22","extractedAt":"2025-08-02T15:34:25Z"}},{"type":"Feature","geometry":{"type":"Point","coordinates":[-97.684185,32.965672]},"properties":{"locationId":"184T18","locatedOn":"SL0182","locOnAlias":"SL0182-KG","type":"SPOT","category":"ANNUAL ACR","routeType":"SL","route":"0182","active":"Yes","fnctClass":"(7)Local","latestAadt":1024,"latestAadtYear":2024,"latestDhv30":95,"latestKPercent":9,"latestDPercent":null,"latestVolumeCount":1019,"latestVolumeDate":"2024-05-22","extractedAt":"2025-08-02T15:34:41Z"}},{"type":"Feature","geometry":{"type":"Point","coordinates":[-97.629744,32.936059]},"properties":{"locationId":"184T19","locatedOn":"SH0199","locOnAlias":"SH0199-KG","type":"SPOT","category":"ANNUAL ACR","routeType":"SH","route":"0199","active":"Yes","fnctClass":"(3)Principal Arterial-Other","latestAadt":23692,"latestAadtYear":2024,"latestDhv30":1967,"latestKPercent":8,"latestDPercent":63,"latestVolumeCount":25575,"latestVolumeDate":"2024-07-08","extractedAt":"2025-08-02T15:34:53Z"}},{"type":"Feature","geometry":{"type":"Point","coordinates":[-97.565132,32.938788]},"properties":{"locationId":"184T20","locatedOn":"FM1542","locOnAlias":"FM1542-KG","type":"SPOT","category":"ANNUAL ACR","routeType":"FM","route":"1542","active":"Yes","fnctClass":"(5)Major Collector","latestAadt":1975,"latestAadtYear":2024,"latestDhv30":159,"latestKPercent":8,"latestDPercent":null,"latestVolumeCount":2018,"latestVolumeDate":"2024-07-08","extractedAt":"2025-08-02T15:40:48Z"}},{"type":"Feature","geometry":{"type":"Point","coordinates":[-97.551418,32.900965]},"properties":{"locationId":"184T22","locatedOn":"FM0730","locOnAlias":"FM0730-KG","type":"SPOT","category":"ANNUAL ACR","routeType":"FM","route":"0730","active":"Yes","fnctClass":"(5)Major Collector","latestAadt":12438,"latestAadtYear":2024,"latestDhv30":921,"latestKPercent":7,"latestDPercent":null,"latestVolumeCount":12068,"latestVolumeDate":"2024-07-08","extractedAt":"2025-08-02T15:41:03Z"}},{"type":"Feature","geometry":{"type":"Point","coordinates":[-97.565384,32.891752]},"properties":{"locationId":"184U11","locatedOn":"FM0730","locOnAlias":"FM0730-KG","type":"SPOT","category":"URBAN ACR","routeType":"FM","route":"730","active":"Yes","fnctClass":"(5)Major Collector","latestAadt":13580,"latestAadtYear":2024,"latestDhv30":1259,"latestKPercent":9,"latestDPercent":null,"latestVolumeCount":14793,"latestVolumeDate":"2024-05-21","extractedAt":"2025-08-02T15:57:45Z"}}]}