{"type":"FeatureCollection","features":[{"type":"Feature","geometry":{"type":"Point","coordinates":[-97.69712,32.755769]},"properties":{"locationId":"184CC1","locatedOn":"GS0000","locOnAlias":"20010","type":"SPOT","category":"RAMP","routeType":"GS","route":"0000","active":"Yes","fnctClass":"(1)Interstate","latestAadt":8388,"latestAadtYear":2024,"latestDhv30":660,"latestKPercent":8,"latestDPercent":null,"latestVolumeCount":8746,"latestVolumeDate":"2024-04-10","extractedAt":"2025-08-01T19:06:31Z"}},{"type":"Feature","geometry":{"type":"Point","coordinates":[-97.723068,32.687179]},"properties":{"locationId":"184CR211","locatedOn":"NABEAR CREEK","locOnAlias":"","type":"SPOT","category":"URBAN ACR","routeType":"","route":"","active":"Yes","fnctClass":"(7)Local","latestAadt":1315,"latestAadtYear":2024,"latestDhv30":140,"latestKPercent":11,"latestDPercent":null,"latestVolumeCount":1418,"latestVolumeDate":"2024-05-13","extractedAt":"2025-08-01T19:43:10Z"}},{"type":"Feature","geometry":{"type":"Point","coordinates":[-97.716662,32.82466]},"properties":{"locationId":"184CR225","locatedOn":"NAUPPER DENTON","locOnAlias":"","type":"SPOT","category":"URBAN ACR","routeType":"","route":"","active":"Yes","fnctClass":"(6)Minor Collector","latestAadt":296,"latestAadtYear":2019,"latestDhv30":29,"latestKPercent":10,"latestDPercent":null,"latestVolumeCount":325,"latestVolumeDate":"2019-05-13","extractedAt":"2025-08-01T19:58:04Z"}},{"type":"Feature","geometry":{"type":"Point","coordinates":[-97.661182,32.679423]},"properties":{"locationId":"184CR232","locatedOn":"BRANCH HOLLOW","locOnAlias":"","type":"SPOT","category":"URBAN ACR","routeType":"","route":"","active":"Yes","fnctClass":"(7)Local","latestAadt":261,"latestAadtYear":2024,"latestDhv30":59,"latestKPercent":23,"latestDPercent":null,"latestVolumeCount":271,"latestVolumeDate":"2024-05-13","extractedAt":"2025-08-01T19:59:49Z"}},{"type":"Feature","geometry":{"type":"Point","coordinates":[-97.729969,32.780662]},"properties":{"locationId":"184CR312","locatedOn":"-","locOnAlias":"","type":"SPOT","category":"URBAN ACR","routeType":"","route":"","active":"Yes","fnctClass":"(5)Major Collector","latestAadt":233,"latestAadtYear":2024,"latestDhv30":27,"latestKPercent":12,"latestDPercent":null,"latestVolumeCount":244,"latestVolumeDate":"2024-05-21","extractedAt":"2025-08-01T20:24:47Z"}},{"type":"Feature","geometry":{"type":"Point","coordinates":[-97.716614,32.77786]},"properties":{"locationId":"184CR312B","locatedOn":"-","locOnAlias":"","type":"SPOT","category":"URBAN ACR","routeType":"","route":"","active":"Yes","fnctClass":"(5)Major Collector","latestAadt":2881,"latestAadtYear":2024,"latestDhv30":314,"latestKPercent":11,"latestDPercent":null,"latestVolumeCount":2984,"latestVolumeDate":"2024-05-21","extractedAt":"2025-08-01T20:25:17Z"}},{"type":"Feature","geometry":{"type":"Point","coordinates":[-97.725979,32.786203]},"properties":{"locationId":"184CR313","locatedOn":"-","locOnAlias":"","type":"SPOT","category":"URBAN ACR","routeType":"","route":"","active":"Yes","fnctClass":"(7)Local","latestAadt":1309,"latestAadtYear":2024,"latestDhv30":122,"latestKPercent":9,"latestDPercent":null,"latestVolumeCount":1301,"latestVolumeDate":"2024-05-21","extractedAt":"2025-08-01T20:30:48Z"}},{"type":"Feature","geometry":{"type":"Point","coordinates":[-97.716176,32.787831]},"properties":{"locationId":"184CR314","locatedOn":"-","locOnAlias":"","type":"SPOT","category":"URBAN ACR","routeType":"","route":"","active":"Yes","fnctClass":"(7)Local","latestAadt":349,"latestAadtYear":2024,"latestDhv30":41,"latestKPercent":12,"latestDPercent":null,"latestVolumeCount":347,"latestVolumeDate":"2024-05-21","extractedAt":"2025-08-01T20:31:05Z"}},{"type":"Feature","geometry":{"type":"Point","coordinates":[-97.704916,32.797581]},"properties":{"locationId":"184CR315","locatedOn":"-","locOnAlias":"","type":"SPOT","category":"URBAN ACR","routeType":"","route":"","active":"Yes","fnctClass":"(7)Local","latestAadt":738,"latestAadtYear":2024,"latestDhv30":87,"latestKPercent":12,"latestDPercent":null,"latestVolumeCount":742,"latestVolumeDate":"2024-05-21","extractedAt":"2025-08-01T20:31:18Z"}},{"type":"Feature","geometry":{"type":"Point","coordinates":[-97.653144,32.766614]},"properties":{"locationId":"184CR317","locatedOn":"-","locOnAlias":"","type":"SPOT","category":"URBAN ACR","routeType":"","route":"","active":"Yes","fnctClass":"(5)Major Collector","latestAadt":1055,"latestAadtYear":2019,"latestDhv30":131,"latestKPercent":12,"latestDPercent":null,"latestVolumeCount":1282,"latestVolumeDate":"2019-05-06","extractedAt":"2025-08-01T20:31:32Z"}},{"type":"Feature","geometry":{"type":"Point","coordinates":[-97.64907,32.78802]},"properties":{"locationId":"184CR317A","locatedOn":"White Settlement Rd","locOnAlias":"298066","type":"SPOT","category":"ANNUAL ACR","routeType":"LS","route":"0000","active":"Yes","fnctClass":"(6)Minor Collector","latestAadt":749,"latestAadtYear":2024,"latestDhv30":89,"latestKPercent":12,"latestDPercent":53,"latestVolumeCount":722,"latestVolumeDate":"2024-05-14","extractedAt":"2025-08-01T20:31:47Z"}},{"type":"Feature","geometry":{"type":"Point","coordinates":[-97.646792,32.789786]},"properties":{"locationId":"184CR317B","locatedOn":"-","locOnAlias":"","type":"SPOT","category":"URBAN ACR","routeType":"","route":"","active":"Yes","fnctClass":"(7)Local","latestAadt":84,"latestAadtYear":2024,"latestDhv30":10,"latestKPercent":13,"latestDPercent":null,"latestVolumeCount":86,"latestVolumeDate":"2024-05-21","extractedAt":"2025-08-01T20:32:03Z"}},{"type":"Feature","geometry":{"type":"Point","coordinates":[-97.653083,32.74162]},"properties":{"locationId":"184CR318A","locatedOn":"-","locOnAlias":"","type":"SPOT","category":"URBAN ACR","routeType":"","route":"","active":"Yes","fnctClass":"(7)Local","latestAadt":1519,"latestAadtYear":2024,"latestDhv30":149,"latestKPercent":10,"latestDPercent":null,"latestVolumeCount":1643,"latestVolumeDate":"2024-05-13","extractedAt":"2025-08-01T20:32:32Z"}},{"type":"Feature","geometry":{"type":"Point","coordinates":[-97.643938,32.739167]},"properties":{"locationId":"184CR318B","locatedOn":"-","locOnAlias":"","type":"SPOT","category":"URBAN ACR","routeType":"","route":"","active":"Yes","fnctClass":"(7)Local","latestAadt":1089,"latestAadtYear":2024,"latestDhv30":131,"latestKPercent":12,"latestDPercent":null,"latestVolumeCount":1183,"latestVolumeDate":"2024-05-13","extractedAt":"2025-08-01T20:32:47Z"}},{"type":"Feature","geometry":{"type":"Point","coordinates":[-97.666759,32.746727]},"properties":{"locationId":"184CR320","locatedOn":"-","locOnAlias":"","type":"SPOT","category":"URBAN ACR","routeType":"","route":"","active":"Yes","fnctClass":"(7)Local","latestAadt":322,"latestAadtYear":2024,"latestDhv30":40,"latestKPercent":13,"latestDPercent":null,"latestVolumeCount":350,"latestVolumeDate":"2024-05-13","extractedAt":"2025-08-01T20:39:27Z"}},{"type":"Feature","geometry":{"type":"Point","coordinates":[-97.670961,32.739305]},"properties":{"locationId":"184CR321","locatedOn":"-","locOnAlias":"","type":"SPOT","category":"URBAN ACR","routeType":"","route":"","active":"Yes","fnctClass":"(5)Major Collector","latestAadt":846,"latestAadtYear":2024,"latestDhv30":117,"latestKPercent":14,"latestDPercent":null,"latestVolumeCount":862,"latestVolumeDate":"2024-05-13","extractedAt":"2025-08-01T20:39:43Z"}},{"type":"Feature","geometry":{"type":"Point","coordinates":[-97.677097,32.719537]},"properties":{"locationId":"184CR322A","locatedOn":"-","locOnAlias":"","type":"SPOT","category":"URBAN ACR","routeType":"","route":"","active":"Yes","fnctClass":"(7)Local","latestAadt":785,"latestAadtYear":2024,"latestDhv30":71,"latestKPercent":9,"latestDPercent":null,"latestVolumeCount":819,"latestVolumeDate":"2024-05-13","extractedAt":"2025-08-01T20:40:13Z"}},{"type":"Feature","geometry":{"type":"Point","coordinates":[-97.674234,32.749431]},"properties":{"locationId":"184CR323","locatedOn":"-","locOnAlias":"","type":"SPOT","category":"URBAN ACR","routeType":"","route":"","active":"Yes","fnctClass":"(5)Major Collector","latestAadt":6602,"latestAadtYear":2024,"latestDhv30":565,"latestKPercent":9,"latestDPercent":null,"latestVolumeCount":6673,"latestVolumeDate":"2024-05-13","extractedAt":"2025-08-01T20:40:29Z"}},{"type":"Feature","geometry":{"type":"Point","coordinates":[-97.673487,32.752015]},"properties":{"locationId":"184CR323A","locatedOn":"-","locOnAlias":"","type":"SPOT","category":"URBAN ACR","routeType":"","route":"","active":"Yes","fnctClass":"(7)Local","latestAadt":3264,"latestAadtYear":2024,"latestDhv30":297,"latestKPercent":9,"latestDPercent":null,"latestVolumeCount":3539,"latestVolumeDate":"2024-05-13","extractedAt":"2025-08-01T20:40:44Z"}},{"type":"Feature","geometry":{"type":"Point","coordinates":[-97.686059,32.753216]},"properties":{"locationId":"184CR324","locatedOn":"-","locOnAlias":"","type":"SPOT","category":"URBAN ACR","routeType":"","route":"","active":"Yes","fnctClass":"(7)Local","latestAadt":241,"latestAadtYear":2019,"latestDhv30":31,"latestKPercent":13,"latestDPercent":null,"latestVolumeCount":259,"latestVolumeDate":"2019-05-08","extractedAt":"2025-08-01T20:40:57Z"}},{"type":"Feature","geometry":{"type":"Point","coordinates":[-97.698881,32.757352]},"properties":{"locationId":"184CR325","locatedOn":"-","locOnAlias":"","type":"SPOT","category":"URBAN ACR","routeType":"","route":"","active":"Yes","fnctClass":"(5)Major Collector","latestAadt":9701,"latestAadtYear":2024,"latestDhv30":920,"latestKPercent":9,"latestDPercent":51,"latestVolumeCount":9801,"latestVolumeDate":"2024-05-13","extractedAt":"2025-08-01T20:46:39Z"}},{"type":"Feature","geometry":{"type":"Point","coordinates":[-97.707466,32.753057]},"properties":{"locationId":"184CR325A","locatedOn":"Newell Dr","locOnAlias":"297488","type":"SPOT","category":"URBAN ACR","routeType":"LS","route":"0000","active":"Yes","fnctClass":"(6)Minor Collector","latestAadt":526,"latestAadtYear":2024,"latestDhv30":49,"latestKPercent":9,"latestDPercent":null,"latestVolumeCount":524,"latestVolumeDate":"2024-05-13","extractedAt":"2025-08-01T20:46:53Z"}},{"type":"Feature","geometry":{"type":"Point","coordinates":[-97.699129,32.753452]},"properties":{"locationId":"184CR325B","locatedOn":"-","locOnAlias":"","type":"SPOT","category":"URBAN ACR","routeType":"","route":"","active":"Yes","fnctClass":"(7)Local","latestAadt":1684,"latestAadtYear":2024,"latestDhv30":172,"latestKPercent":10,"latestDPercent":null,"latestVolumeCount":1811,"latestVolumeDate":"2024-05-13","extractedAt":"2025-08-01T20:47:06Z"}},{"type":"Feature","geometry":{"type":"Point","coordinates":[-97.710674,32.75781]},"properties":{"locationId":"184CR326","locatedOn":"-","locOnAlias":"","type":"SPOT","category":"URBAN ACR","routeType":"","route":"","active":"Yes","fnctClass":"(5)Major Collector","latestAadt":6994,"latestAadtYear":2024,"latestDhv30":597,"latestKPercent":9,"latestDPercent":null,"latestVolumeCount":7195,"latestVolumeDate":"2024-05-21","extractedAt":"2025-08-01T20:47:21Z"}},{"type":"Feature","geometry":{"type":"Point","coordinates":[-97.728794,32.748658]},"properties":{"locationId":"184CR327A","locatedOn":"-","locOnAlias":"","type":"SPOT","category":"URBAN ACR","routeType":"","route":"","active":"Yes","fnctClass":"(6)Minor Collector","latestAadt":868,"latestAadtYear":2024,"latestDhv30":71,"latestKPercent":8,"latestDPercent":null,"latestVolumeCount":866,"latestVolumeDate":"2024-05-13","extractedAt":"2025-08-01T20:47:34Z"}},{"type":"Feature","geometry":{"type":"Point","coordinates":[-97.727718,32.74678]},"properties":{"locationId":"184CR328","locatedOn":"-","locOnAlias":"","type":"SPOT","category":"URBAN ACR","routeType":"","route":"","active":"Yes","fnctClass":"(6)Minor Collector","latestAadt":1486,"latestAadtYear":2024,"latestDhv30":156,"latestKPercent":11,"latestDPercent":null,"latestVolumeCount":1479,"latestVolumeDate":"2024-05-13","extractedAt":"2025-08-01T20:47:47Z"}},{"type":"Feature","geometry":{"type":"Point","coordinates":[-97.721055,32.731718]},"properties":{"locationId":"184CR328A","locatedOn":"-","locOnAlias":"","type":"SPOT","category":"URBAN ACR","routeType":"","route":"","active":"Yes","fnctClass":"(6)Minor Collector","latestAadt":1645,"latestAadtYear":2024,"latestDhv30":163,"latestKPercent":10,"latestDPercent":null,"latestVolumeCount":1621,"latestVolumeDate":"2024-05-13","extractedAt":"2025-08-01T20:48:01Z"}},{"type":"Feature","geometry":{"type":"Point","coordinates":[-97.718924,32.724676]},"properties":{"locationId":"184CR328B","locatedOn":"Dixon Rd","locOnAlias":"289916","type":"SPOT","category":"URBAN ACR","routeType":"FC","route":"0000","active":"Yes","fnctClass":"(6)Minor Collector","latestAadt":618,"latestAadtYear":2024,"latestDhv30":63,"latestKPercent":10,"latestDPercent":null,"latestVolumeCount":610,"latestVolumeDate":"2024-05-13","extractedAt":"2025-08-01T20:48:17Z"}},{"type":"Feature","geometry":{"type":"Point","coordinates":[-97.727008,32.742708]},"properties":{"locationId":"184CR329B","locatedOn":"-","locOnAlias":"","type":"SPOT","category":"URBAN ACR","routeType":"","route":"","active":"Yes","fnctClass":"(5)Major Collector","latestAadt":1796,"latestAadtYear":2024,"latestDhv30":211,"latestKPercent":12,"latestDPercent":null,"latestVolumeCount":1824,"latestVolumeDate":"2024-05-13","extractedAt":"2025-08-01T20:54:24Z"}},{"type":"Feature","geometry":{"type":"Point","coordinates":[-97.679896,32.74883]},"properties":{"locationId":"184CR332B","locatedOn":"-","locOnAlias":"","type":"SPOT","category":"URBAN ACR","routeType":"","route":"","active":"Yes","fnctClass":"(7)Local","latestAadt":310,"latestAadtYear":2024,"latestDhv30":35,"latestKPercent":11,"latestDPercent":null,"latestVolumeCount":335,"latestVolumeDate":"2024-05-13","extractedAt":"2025-08-01T20:55:24Z"}},{"type":"Feature","geometry":{"type":"Point","coordinates":[-97.597247,32.835157]},"properties":{"locationId":"184CR34","locatedOn":"-","locOnAlias":"","type":"SPOT","category":"URBAN ACR","routeType":"","route":"","active":"Yes","fnctClass":"(5)Major Collector","latestAadt":5942,"latestAadtYear":2024,"latestDhv30":578,"latestKPercent":10,"latestDPercent":null,"latestVolumeCount":6224,"latestVolumeDate":"2024-05-21","extractedAt":"2025-08-01T21:11:30Z"}},{"type":"Feature","geometry":{"type":"Point","coordinates":[-97.647736,32.74085]},"properties":{"locationId":"184CR340","locatedOn":"Meadow Place Dr","locOnAlias":"CR0000","type":"SPOT","category":"URBAN ACR","routeType":"CR","route":"0000","active":"Yes","fnctClass":"(7)Local","latestAadt":823,"latestAadtYear":2024,"latestDhv30":91,"latestKPercent":11,"latestDPercent":null,"latestVolumeCount":893,"latestVolumeDate":"2024-05-13","extractedAt":"2025-08-01T21:11:43Z"}},{"type":"Feature","geometry":{"type":"Point","coordinates":[-97.5716,32.830235]},"properties":{"locationId":"184CR34A","locatedOn":"-","locOnAlias":"","type":"SPOT","category":"URBAN ACR","routeType":"","route":"","active":"Yes","fnctClass":"(7)Local","latestAadt":1082,"latestAadtYear":2024,"latestDhv30":92,"latestKPercent":9,"latestDPercent":null,"latestVolumeCount":1095,"latestVolumeDate":"2024-05-21","extractedAt":"2025-08-01T21:11:57Z"}},{"type":"Feature","geometry":{"type":"Point","coordinates":[-97.568338,32.824337]},"properties":{"locationId":"184CR34C","locatedOn":"-","locOnAlias":"","type":"SPOT","category":"URBAN ACR","routeType":"","route":"","active":"Yes","fnctClass":"(7)Local","latestAadt":122,"latestAadtYear":2024,"latestDhv30":16,"latestKPercent":14,"latestDPercent":null,"latestVolumeCount":124,"latestVolumeDate":"2024-05-21","extractedAt":"2025-08-01T21:17:35Z"}},{"type":"Feature","geometry":{"type":"Point","coordinates":[-97.659178,32.838312]},"properties":{"locationId":"184CR35","locatedOn":"Tucker","locOnAlias":"184AA0125","type":"SPOT","category":"URBAN ACR","routeType":"CR","route":"0000","active":"Yes","fnctClass":"(7)Local","latestAadt":1734,"latestAadtYear":2024,"latestDhv30":185,"latestKPercent":11,"latestDPercent":null,"latestVolumeCount":1733,"latestVolumeDate":"2024-05-21","extractedAt":"2025-08-01T21:17:49Z"}},{"type":"Feature","geometry":{"type":"Point","coordinates":[-97.646026,32.837792]},"properties":{"locationId":"184CR35A","locatedOn":"-","locOnAlias":"","type":"SPOT","category":"URBAN ACR","routeType":"","route":"","active":"Yes","fnctClass":"(7)Local","latestAadt":1014,"latestAadtYear":2024,"latestDhv30":82,"latestKPercent":8,"latestDPercent":null,"latestVolumeCount":1012,"latestVolumeDate":"2024-05-21","extractedAt":"2025-08-01T21:18:02Z"}},{"type":"Feature","geometry":{"type":"Point","coordinates":[-97.601138,32.785489]},"properties":{"locationId":"184CR36","locatedOn":"-","locOnAlias":"","type":"SPOT","category":"URBAN ACR","routeType":"","route":"","active":"Yes","fnctClass":"(7)Local","latestAadt":1325,"latestAadtYear":2024,"latestDhv30":122,"latestKPercent":9,"latestDPercent":null,"latestVolumeCount":1350,"latestVolumeDate":"2024-05-21","extractedAt":"2025-08-01T21:18:34Z"}},{"type":"Feature","geometry":{"type":"Point","coordinates":[-97.599552,32.795315]},"properties":{"locationId":"184CR36A","locatedOn":"-","locOnAlias":"","type":"SPOT","category":"URBAN ACR","routeType":"","route":"","active":"Yes","fnctClass":"(7)Local","latestAadt":945,"latestAadtYear":2024,"latestDhv30":77,"latestKPercent":8,"latestDPercent":null,"latestVolumeCount":960,"latestVolumeDate":"2024-05-21","extractedAt":"2025-08-01T21:18:49Z"}},{"type":"Feature","geometry":{"type":"Point","coordinates":[-97.595478,32.787864]},"properties":{"locationId":"184CR37","locatedOn":"-","locOnAlias":"","type":"SPOT","category":"URBAN ACR","routeType":"","route":"","active":"Yes","fnctClass":"(5)Major Collector","latestAadt":3890,"latestAadtYear":2024,"latestDhv30":335,"latestKPercent":9,"latestDPercent":null,"latestVolumeCount":4070,"latestVolumeDate":"2024-05-21","extractedAt":"2025-08-01T21:19:04Z"}},{"type":"Feature","geometry":{"type":"Point","coordinates":[-97.605021,32.716497]},"properties":{"locationId":"184CR40","locatedOn":"Bankhead Highway","locOnAlias":"184AA0879","type":"SPOT","category":"URBAN ACR","routeType":"CR","route":"0000","active":"Yes","fnctClass":"(5)Major Collector","latestAadt":8008,"latestAadtYear":2024,"latestDhv30":787,"latestKPercent":10,"latestDPercent":null,"latestVolumeCount":8072,"latestVolumeDate":"2024-05-13","extractedAt":"2025-08-01T21:19:16Z"}},{"type":"Feature","geometry":{"type":"Point","coordinates":[-97.615959,32.701939]},"properties":{"locationId":"184CR40A","locatedOn":"-","locOnAlias":"","type":"SPOT","category":"URBAN ACR","routeType":"","route":"","active":"Yes","fnctClass":"(7)Local","latestAadt":1248,"latestAadtYear":2024,"latestDhv30":215,"latestKPercent":17,"latestDPercent":null,"latestVolumeCount":1285,"latestVolumeDate":"2024-05-13","extractedAt":"2025-08-01T21:19:30Z"}},{"type":"Feature","geometry":{"type":"Point","coordinates":[-97.616913,32.691718]},"properties":{"locationId":"184CR41A","locatedOn":"-","locOnAlias":"","type":"SPOT","category":"URBAN ACR","routeType":"","route":"","active":"Yes","fnctClass":"(7)Local","latestAadt":5263,"latestAadtYear":2024,"latestDhv30":549,"latestKPercent":10,"latestDPercent":null,"latestVolumeCount":5476,"latestVolumeDate":"2024-05-13","extractedAt":"2025-08-01T21:19:43Z"}},{"type":"Feature","geometry":{"type":"Point","coordinates":[-97.698523,32.809344]},"properties":{"locationId":"184CR52","locatedOn":"-","locOnAlias":"","type":"SPOT","category":"URBAN ACR","routeType":"","route":"","active":"Yes","fnctClass":"(7)Local","latestAadt":1230,"latestAadtYear":2024,"latestDhv30":124,"latestKPercent":10,"latestDPercent":null,"latestVolumeCount":1224,"latestVolumeDate":"2024-05-21","extractedAt":"2025-08-01T21:25:19Z"}},{"type":"Feature","geometry":{"type":"Point","coordinates":[-97.714693,32.826655]},"properties":{"locationId":"184CR52A","locatedOn":"-","locOnAlias":"","type":"SPOT","category":"URBAN ACR","routeType":"","route":"","active":"Yes","fnctClass":"(7)Local","latestAadt":862,"latestAadtYear":2024,"latestDhv30":81,"latestKPercent":9,"latestDPercent":null,"latestVolumeCount":839,"latestVolumeDate":"2024-05-22","extractedAt":"2025-08-01T21:25:33Z"}},{"type":"Feature","geometry":{"type":"Point","coordinates":[-97.712364,32.833161]},"properties":{"locationId":"184CR5B","locatedOn":"-","locOnAlias":"","type":"SPOT","category":"URBAN ACR","routeType":"","route":"","active":"Yes","fnctClass":"(6)Minor Collector","latestAadt":1070,"latestAadtYear":2024,"latestDhv30":113,"latestKPercent":11,"latestDPercent":null,"latestVolumeCount":1098,"latestVolumeDate":"2024-05-22","extractedAt":"2025-08-01T21:26:15Z"}},{"type":"Feature","geometry":{"type":"Point","coordinates":[-97.682096,32.68142]},"properties":{"locationId":"184CR67","locatedOn":"-","locOnAlias":"","type":"SPOT","category":"URBAN ACR","routeType":"","route":"","active":"Yes","fnctClass":"(7)Local","latestAadt":3001,"latestAadtYear":2024,"latestDhv30":344,"latestKPercent":11,"latestDPercent":null,"latestVolumeCount":3127,"latestVolumeDate":"2024-05-13","extractedAt":"2025-08-01T21:26:46Z"}},{"type":"Feature","geometry":{"type":"Point","coordinates":[-97.633446,32.733027]},"properties":{"locationId":"184CR67A","locatedOn":"-","locOnAlias":"","type":"SPOT","category":"URBAN ACR","routeType":"","route":"","active":"Yes","fnctClass":"(5)Major Collector","latestAadt":11496,"latestAadtYear":2024,"latestDhv30":985,"latestKPercent":9,"latestDPercent":60,"latestVolumeCount":11585,"latestVolumeDate":"2024-05-13","extractedAt":"2025-08-01T21:27:02Z"}},{"type":"Feature","geometry":{"type":"Point","coordinates":[-97.632399,32.735605]},"properties":{"locationId":"184CR67B","locatedOn":"-","locOnAlias":"","type":"SPOT","category":"URBAN ACR","routeType":"","route":"","active":"Yes","fnctClass":"(5)Major Collector","latestAadt":7532,"latestAadtYear":2024,"latestDhv30":694,"latestKPercent":9,"latestDPercent":null,"latestVolumeCount":7604,"latestVolumeDate":"2024-05-13","extractedAt":"2025-08-01T21:27:15Z"}},{"type":"Feature","geometry":{"type":"Point","coordinates":[-97.674023,32.705508]},"properties":{"locationId":"184CR67C","locatedOn":"-","locOnAlias":"","type":"SPOT","category":"URBAN ACR","routeType":"","route":"","active":"Yes","fnctClass":"(7)Local","latestAadt":3467,"latestAadtYear":2024,"latestDhv30":368,"latestKPercent":11,"latestDPercent":null,"latestVolumeCount":3617,"latestVolumeDate":"2024-05-13","extractedAt":"2025-08-01T21:27:31Z"}},{"type":"Feature","geometry":{"type":"Point","coordinates":[-97.669328,32.65436]},"properties":{"locationId":"184CR67D","locatedOn":"-","locOnAlias":"","type":"SPOT","category":"URBAN ACR","routeType":"","route":"","active":"Yes","fnctClass":"(7)Local","latestAadt":986,"latestAadtYear":2024,"latestDhv30":139,"latestKPercent":14,"latestDPercent":null,"latestVolumeCount":1055,"latestVolumeDate":"2024-05-13","extractedAt":"2025-08-01T21:32:46Z"}},{"type":"Feature","geometry":{"type":"Point","coordinates":[-97.585867,32.668798]},"properties":{"locationId":"184CR68A","locatedOn":"-","locOnAlias":"","type":"SPOT","category":"URBAN ACR","routeType":"","route":"","active":"Yes","fnctClass":"(5)Major Collector","latestAadt":3402,"latestAadtYear":2024,"latestDhv30":328,"latestKPercent":10,"latestDPercent":null,"latestVolumeCount":3527,"latestVolumeDate":"2024-05-13","extractedAt":"2025-08-01T21:33:19Z"}},{"type":"Feature","geometry":{"type":"Point","coordinates":[-97.599782,32.694082]},"properties":{"locationId":"184CR69A","locatedOn":"Chestnut St","locOnAlias":"1002153","type":"SPOT","category":"URBAN ACR","routeType":"LS","route":"0000","active":"Yes","fnctClass":"(7)Local","latestAadt":390,"latestAadtYear":2009,"latestDhv30":null,"latestKPercent":null,"latestDPercent":null,"latestVolumeCount":null,"latestVolumeDate":null,"extractedAt":"2025-08-01T21:33:53Z"}},{"type":"Feature","geometry":{"type":"Point","coordinates":[-97.566794,32.580571]},"properties":{"locationId":"184CR72A","locatedOn":"-","locOnAlias":"","type":"SPOT","category":"URBAN ACR","routeType":"","route":"","active":"Yes","fnctClass":"(7)Local","latestAadt":125,"latestAadtYear":2019,"latestDhv30":33,"latestKPercent":26,"latestDPercent":null,"latestVolumeCount":135,"latestVolumeDate":"2019-05-08","extractedAt":"2025-08-01T21:34:51Z"}},{"type":"Feature","geometry":{"type":"Point","coordinates":[-97.568954,32.722168]},"properties":{"locationId":"184D6AWBSR","locatedOn":"IH0020","locOnAlias":"IH0020-XG","type":"SPOT","category":"ANNUAL ACR","routeType":"IH","route":"0020","active":"Yes","fnctClass":"(5)Major Collector","latestAadt":3963,"latestAadtYear":2024,"latestDhv30":null,"latestKPercent":null,"latestDPercent":null,"latestVolumeCount":409,"latestVolumeDate":"2023-07-19","extractedAt":"2025-08-01T23:50:00Z"}},{"type":"Feature","geometry":{"type":"Point","coordinates":[-97.569143,32.72161]},"properties":{"locationId":"184DC2030NWF","locatedOn":"IH0020","locOnAlias":"IH0020-KG","type":"SPOT","category":"RAMP","routeType":"IH","route":"0020","active":"Yes","fnctClass":"(1)Interstate","latestAadt":18524,"latestAadtYear":2024,"latestDhv30":1773,"latestKPercent":10,"latestDPercent":null,"latestVolumeCount":19267,"latestVolumeDate":"2024-04-10","extractedAt":"2025-08-01T23:51:30Z"}},{"type":"Feature","geometry":{"type":"Point","coordinates":[-97.571595,32.721054]},"properties":{"locationId":"184DC3020ESF","locatedOn":"IH0020","locOnAlias":"IH0020-KG","type":"SPOT","category":"RAMP","routeType":"IH","route":"0020","active":"Yes","fnctClass":"(1)Interstate","latestAadt":182638,"latestAadtYear":2024,"latestDhv30":null,"latestKPercent":null,"latestDPercent":null,"latestVolumeCount":18496,"latestVolumeDate":"2023-05-17","extractedAt":"2025-08-01T23:51:44Z"}},{"type":"Feature","geometry":{"type":"Point","coordinates":[-97.599878,32.831262]},"properties":{"locationId":"184E28A","locatedOn":"FM1886","locOnAlias":"FM1886-KG","type":"SPOT","category":"ANNUAL ACR","routeType":"FM","route":"1886","active":"Yes","fnctClass":"(5)Major Collector","latestAadt":3645,"latestAadtYear":2024,"latestDhv30":283,"latestKPercent":8,"latestDPercent":null,"latestVolumeCount":3533,"latestVolumeDate":"2024-07-08","extractedAt":"2025-08-01T23:57:51Z"}},{"type":"Feature","geometry":{"type":"Point","coordinates":[-97.692532,32.755442]},"properties":{"locationId":"184FS305","locatedOn":"LS0000","locOnAlias":"1132827","type":"SPOT","category":"URBAN ACR","routeType":"LS","route":"0000","active":"Yes","fnctClass":"(7)Local","latestAadt":376,"latestAadtYear":2024,"latestDhv30":37,"latestKPercent":10,"latestDPercent":null,"latestVolumeCount":406,"latestVolumeDate":"2024-05-13","extractedAt":"2025-08-02T00:34:01Z"}},{"type":"Feature","geometry":{"type":"Point","coordinates":[-97.699882,32.760673]},"properties":{"locationId":"184FS311","locatedOn":"LS0000","locOnAlias":"1132791","type":"SPOT","category":"URBAN ACR","routeType":"LS","route":"0000","active":"Yes","fnctClass":"(7)Local","latestAadt":1305,"latestAadtYear":2024,"latestDhv30":157,"latestKPercent":12,"latestDPercent":null,"latestVolumeCount":1334,"latestVolumeDate":"2024-05-21","extractedAt":"2025-08-02T00:35:15Z"}},{"type":"Feature","geometry":{"type":"Point","coordinates":[-97.666613,32.780044]},"properties":{"locationId":"184FS312","locatedOn":"CR0000","locOnAlias":"184AA1900","type":"SPOT","category":"URBAN ACR","routeType":"CR","route":"0000","active":"Yes","fnctClass":"(7)Local","latestAadt":40,"latestAadtYear":2024,"latestDhv30":6,"latestKPercent":17,"latestDPercent":null,"latestVolumeCount":41,"latestVolumeDate":"2024-05-21","extractedAt":"2025-08-02T00:40:49Z"}},{"type":"Feature","geometry":{"type":"Point","coordinates":[-97.685584,32.765777]},"properties":{"locationId":"184FS316","locatedOn":"CR0000","locOnAlias":"184AA1172","type":"SPOT","category":"URBAN ACR","routeType":"CR","route":"0000","active":"Yes","fnctClass":"(7)Local","latestAadt":710,"latestAadtYear":2024,"latestDhv30":75,"latestKPercent":11,"latestDPercent":null,"latestVolumeCount":726,"latestVolumeDate":"2024-05-21","extractedAt":"2025-08-02T00:41:55Z"}},{"type":"Feature","geometry":{"type":"Point","coordinates":[-97.692177,32.762383]},"properties":{"locationId":"184FS318","locatedOn":"CR0000","locOnAlias":"184AA1195","type":"SPOT","category":"URBAN ACR","routeType":"CR","route":"0000","active":"Yes","fnctClass":"(5)Major Collector","latestAadt":1506,"latestAadtYear":2024,"latestDhv30":165,"latestKPercent":11,"latestDPercent":null,"latestVolumeCount":1575,"latestVolumeDate":"2024-05-21","extractedAt":"2025-08-02T00:42:25Z"}},{"type":"Feature","geometry":{"type":"Point","coordinates":[-97.597284,32.824136]},"properties":{"locationId":"184H17A","locatedOn":"FM3325","locOnAlias":"FM3325-KG","type":"SPOT","category":"ANNUAL ACR","routeType":"FM","route":"3325","active":"Yes","fnctClass":"(5)Major Collector","latestAadt":7551,"latestAadtYear":2024,"latestDhv30":665,"latestKPercent":9,"latestDPercent":null,"latestVolumeCount":7690,"latestVolumeDate":"2024-07-08","extractedAt":"2025-08-02T03:29:14Z"}},{"type":"Feature","geometry":{"type":"Point","coordinates":[-97.592323,32.829484]},"properties":{"locationId":"184H17B","locatedOn":"FM1886","locOnAlias":"FM1886-KG","type":"SPOT","category":"ANNUAL ACR","routeType":"FM","route":"1886","active":"Yes","fnctClass":"(5)Major Collector","latestAadt":3872,"latestAadtYear":2024,"latestDhv30":332,"latestKPercent":9,"latestDPercent":null,"latestVolumeCount":3752,"latestVolumeDate":"2024-07-08","extractedAt":"2025-08-02T03:29:27Z"}},{"type":"Feature","geometry":{"type":"Point","coordinates":[-97.643421,32.837159]},"properties":{"locationId":"184H19","locatedOn":"FM0730","locOnAlias":"FM0730-KG","type":"SPOT","category":"ANNUAL ACR","routeType":"FM","route":"0730","active":"Yes","fnctClass":"(5)Major Collector","latestAadt":8191,"latestAadtYear":2024,"latestDhv30":657,"latestKPercent":8,"latestDPercent":null,"latestVolumeCount":7920,"latestVolumeDate":"2024-07-08","extractedAt":"2025-08-02T03:29:46Z"}},{"type":"Feature","geometry":{"type":"Point","coordinates":[-97.700992,32.80655]},"properties":{"locationId":"184H20","locatedOn":"FM0730","locOnAlias":"FM0730-KG","type":"SPOT","category":"ANNUAL ACR","routeType":"FM","route":"0730","active":"Yes","fnctClass":"(5)Major Collector","latestAadt":78673,"latestAadtYear":2024,"latestDhv30":null,"latestKPercent":null,"latestDPercent":null,"latestVolumeCount":7784,"latestVolumeDate":"2023-07-19","extractedAt":"2025-08-02T03:31:04Z"}},{"type":"Feature","geometry":{"type":"Point","coordinates":[-97.650058,32.739426]},"properties":{"locationId":"184H2004","locatedOn":"IH0020","locOnAlias":"IH0020-KG","type":"SPOT","category":"ANNUAL ACR","routeType":"IH","route":"0020","active":"Yes","fnctClass":"(1)Interstate","latestAadt":951248,"latestAadtYear":2024,"latestDhv30":null,"latestKPercent":null,"latestDPercent":null,"latestVolumeCount":null,"latestVolumeDate":null,"extractedAt":"2025-08-02T03:38:09Z"}},{"type":"Feature","geometry":{"type":"Point","coordinates":[-97.650206,32.739037]},"properties":{"locationId":"184H2004EBSR","locatedOn":"IH0020","locOnAlias":"IH0020-AG","type":"SPOT","category":"ANNUAL ACR","routeType":"IH","route":"0020","active":"Yes","fnctClass":"(5)Major Collector","latestAadt":1504,"latestAadtYear":2024,"latestDhv30":131,"latestKPercent":9,"latestDPercent":null,"latestVolumeCount":1534,"latestVolumeDate":"2024-06-04","extractedAt":"2025-08-02T03:38:23Z"}},{"type":"Feature","geometry":{"type":"Point","coordinates":[-97.650502,32.739979]},"properties":{"locationId":"184H2004WBSR","locatedOn":"IH0020","locOnAlias":"IH0020-XG","type":"SPOT","category":"ANNUAL ACR","routeType":"IH","route":"0020","active":"Yes","fnctClass":"(5)Major Collector","latestAadt":9380,"latestAadtYear":2024,"latestDhv30":997,"latestKPercent":11,"latestDPercent":null,"latestVolumeCount":9565,"latestVolumeDate":"2024-06-04","extractedAt":"2025-08-02T03:38:37Z"}},{"type":"Feature","geometry":{"type":"Point","coordinates":[-97.689846,32.708036]},"properties":{"locationId":"184HP8","locatedOn":"Airport Rd","locOnAlias":"297487","type":"SPOT","category":"ANNUAL ACR","routeType":"FC","route":"0000","active":"Yes","fnctClass":"(6)Minor Collector","latestAadt":11493,"latestAadtYear":2024,"latestDhv30":null,"latestKPercent":null,"latestDPercent":null,"latestVolumeCount":1336,"latestVolumeDate":"2023-07-17","extractedAt":"2025-08-02T12:44:20Z"}},{"type":"Feature","geometry":{"type":"Point","coordinates":[-97.676344,32.764715]},"properties":{"locationId":"184HP8041","locatedOn":"MIKUS RD","locOnAlias":"267319","type":"SPOT","category":"URBAN ACR","routeType":"FC","route":"0000","active":"Yes","fnctClass":"(5)Major Collector","latestAadt":2766,"latestAadtYear":2024,"latestDhv30":296,"latestKPercent":11,"latestDPercent":null,"latestVolumeCount":2892,"latestVolumeDate":"2024-05-21","extractedAt":"2025-08-02T13:00:08Z"}},{"type":"Feature","geometry":{"type":"Point","coordinates":[-97.724224,32.744136]},"properties":{"locationId":"184HP8048","locatedOn":"EBANKHEAD","locOnAlias":"","type":"SPOT","category":"URBAN ACR","routeType":"","route":"","active":"Yes","fnctClass":"(5)Major Collector","latestAadt":1308,"latestAadtYear":2024,"latestDhv30":134,"latestKPercent":10,"latestDPercent":null,"latestVolumeCount":1326,"latestVolumeDate":"2024-05-13","extractedAt":"2025-08-02T13:07:13Z"}},{"type":"Feature","geometry":{"type":"Point","coordinates":[-97.731872,32.740876]},"properties":{"locationId":"184HP8049","locatedOn":"EBANKHEAD","locOnAlias":"","type":"SPOT","category":"URBAN ACR","routeType":"","route":"","active":"Yes","fnctClass":"(5)Major Collector","latestAadt":2352,"latestAadtYear":2019,"latestDhv30":283,"latestKPercent":12,"latestDPercent":null,"latestVolumeCount":2895,"latestVolumeDate":"2019-05-08","extractedAt":"2025-08-02T13:07:27Z"}},{"type":"Feature","geometry":{"type":"Point","coordinates":[-97.632163,32.727426]},"properties":{"locationId":"184HP8050","locatedOn":"EBANKHEAD","locOnAlias":"","type":"SPOT","category":"URBAN ACR","routeType":"","route":"","active":"Yes","fnctClass":"(5)Major Collector","latestAadt":9773,"latestAadtYear":2024,"latestDhv30":959,"latestKPercent":10,"latestDPercent":null,"latestVolumeCount":9846,"latestVolumeDate":"2024-05-13","extractedAt":"2025-08-02T13:07:44Z"}},{"type":"Feature","geometry":{"type":"Point","coordinates":[-97.698929,32.761531]},"properties":{"locationId":"184HP8051","locatedOn":"NALAKESHORE","locOnAlias":"","type":"SPOT","category":"URBAN ACR","routeType":"","route":"","active":"Yes","fnctClass":"(5)Major Collector","latestAadt":4190,"latestAadtYear":2024,"latestDhv30":380,"latestKPercent":9,"latestDPercent":null,"latestVolumeCount":4381,"latestVolumeDate":"2024-05-21","extractedAt":"2025-08-02T13:07:56Z"}},{"type":"Feature","geometry":{"type":"Point","coordinates":[-97.674516,32.768446]},"properties":{"locationId":"184HP8055","locatedOn":"ELAKE","locOnAlias":"","type":"SPOT","category":"URBAN ACR","routeType":"","route":"","active":"Yes","fnctClass":"(5)Major Collector","latestAadt":2440,"latestAadtYear":2024,"latestDhv30":227,"latestKPercent":9,"latestDPercent":null,"latestVolumeCount":2551,"latestVolumeDate":"2024-05-21","extractedAt":"2025-08-02T13:09:01Z"}},{"type":"Feature","geometry":{"type":"Point","coordinates":[-97.711752,32.755152]},"properties":{"locationId":"184HP8057","locatedOn":"SOAKRIDGE","locOnAlias":"","type":"SPOT","category":"URBAN ACR","routeType":"","route":"","active":"Yes","fnctClass":"(5)Major Collector","latestAadt":5009,"latestAadtYear":2024,"latestDhv30":433,"latestKPercent":9,"latestDPercent":null,"latestVolumeCount":5237,"latestVolumeDate":"2024-05-21","extractedAt":"2025-08-02T13:14:57Z"}},{"type":"Feature","geometry":{"type":"Point","coordinates":[-97.573585,32.721989]},"properties":{"locationId":"184ML2001EB","locatedOn":"IH0020","locOnAlias":"IH0020-KG","type":"SPOT","category":"RAMP","routeType":"IH","route":"0020","active":"Yes","fnctClass":"(1)Interstate","latestAadt":36199,"latestAadtYear":2024,"latestDhv30":3123,"latestKPercent":9,"latestDPercent":null,"latestVolumeCount":38073,"latestVolumeDate":"2024-04-10","extractedAt":"2025-08-02T13:16:25Z"}},{"type":"Feature","geometry":{"type":"Point","coordinates":[-97.572244,32.721838]},"properties":{"locationId":"184ML2001WB","locatedOn":"IH0020","locOnAlias":"IH0020-KG","type":"SPOT","category":"RAMP","routeType":"IH","route":"0020","active":"Yes","fnctClass":"(1)Interstate","latestAadt":31002,"latestAadtYear":2024,"latestDhv30":3071,"latestKPercent":10,"latestDPercent":null,"latestVolumeCount":32223,"latestVolumeDate":"2024-04-10","extractedAt":"2025-08-02T13:16:40Z"}},{"type":"Feature","geometry":{"type":"Point","coordinates":[-97.73368,32.746613]},"properties":{"locationId":"184RP2021A","locatedOn":"IH0020","locOnAlias":"IH0020-KG","type":"SPOT","category":"RAMP","routeType":"IH","route":"0020","active":"Yes","fnctClass":"(1)Interstate","latestAadt":37988,"latestAadtYear":2024,"latestDhv30":290,"latestKPercent":8,"latestDPercent":null,"latestVolumeCount":3863,"latestVolumeDate":"2024-04-10","extractedAt":"2025-08-02T13:55:30Z"}},{"type":"Feature","geometry":{"type":"Point","coordinates":[-97.731651,32.747718]},"properties":{"locationId":"184RP2022A","locatedOn":"IH0020","locOnAlias":"IH0020-KG","type":"SPOT","category":"RAMP","routeType":"IH","route":"0020","active":"Yes","fnctClass":"(1)Interstate","latestAadt":34108,"latestAadtYear":2024,"latestDhv30":419,"latestKPercent":12,"latestDPercent":null,"latestVolumeCount":3570,"latestVolumeDate":"2024-04-10","extractedAt":"2025-08-02T13:56:17Z"}},{"type":"Feature","geometry":{"type":"Point","coordinates":[-97.702696,32.754731]},"properties":{"locationId":"184RP2023","locatedOn":"IH0020","locOnAlias":"","type":"SPOT","category":"RAMP","routeType":"","route":"","active":"Yes","fnctClass":"(1)Interstate","latestAadt":33508,"latestAadtYear":2024,"latestDhv30":295,"latestKPercent":9,"latestDPercent":null,"latestVolumeCount":3609,"latestVolumeDate":"2024-04-10","extractedAt":"2025-08-02T13:56:48Z"}},{"type":"Feature","geometry":{"type":"Point","coordinates":[-97.723264,32.749406]},"properties":{"locationId":"184RP2023A","locatedOn":"IH0020","locOnAlias":"IH0020-KG","type":"SPOT","category":"RAMP","routeType":"IH","route":"0020","active":"Yes","fnctClass":"(1)Interstate","latestAadt":12788,"latestAadtYear":2024,"latestDhv30":184,"latestKPercent":14,"latestDPercent":null,"latestVolumeCount":1380,"latestVolumeDate":"2024-04-10","extractedAt":"2025-08-02T13:57:04Z"}},{"type":"Feature","geometry":{"type":"Point","coordinates":[-97.636863,32.735298]},"properties":{"locationId":"184RP2031","locatedOn":"IH0020","locOnAlias":"","type":"SPOT","category":"RAMP","routeType":"","route":"","active":"Yes","fnctClass":"(1)Interstate","latestAadt":69888,"latestAadtYear":2024,"latestDhv30":631,"latestKPercent":9,"latestDPercent":null,"latestVolumeCount":7432,"latestVolumeDate":"2024-12-11","extractedAt":"2025-08-02T14:07:59Z"}},{"type":"Feature","geometry":{"type":"Point","coordinates":[-97.635902,32.735709]},"properties":{"locationId":"184RP2032","locatedOn":"IH0020","locOnAlias":"","type":"SPOT","category":"RAMP","routeType":"","route":"","active":"Yes","fnctClass":"(1)Interstate","latestAadt":54388,"latestAadtYear":2024,"latestDhv30":495,"latestKPercent":9,"latestDPercent":null,"latestVolumeCount":5082,"latestVolumeDate":"2024-04-10","extractedAt":"2025-08-02T14:08:13Z"}},{"type":"Feature","geometry":{"type":"Point","coordinates":[-97.629659,32.73336]},"properties":{"locationId":"184RP2033","locatedOn":"IH0020","locOnAlias":"","type":"SPOT","category":"RAMP","routeType":"","route":"","active":"Yes","fnctClass":"(1)Interstate","latestAadt":57708,"latestAadtYear":2024,"latestDhv30":669,"latestKPercent":12,"latestDPercent":null,"latestVolumeCount":5772,"latestVolumeDate":"2024-12-11","extractedAt":"2025-08-02T14:08:26Z"}},{"type":"Feature","geometry":{"type":"Point","coordinates":[-97.629435,32.733848]},"properties":{"locationId":"184RP2034","locatedOn":"IH0020","locOnAlias":"","type":"SPOT","category":"RAMP","routeType":"","route":"","active":"Yes","fnctClass":"(1)Interstate","latestAadt":74108,"latestAadtYear":2024,"latestDhv30":858,"latestKPercent":12,"latestDPercent":null,"latestVolumeCount":7720,"latestVolumeDate":"2024-04-10","extractedAt":"2025-08-02T14:08:40Z"}},{"type":"Feature","geometry":{"type":"Point","coordinates":[-97.606036,32.72924]},"properties":{"locationId":"184RP2035","locatedOn":"IH0020","locOnAlias":"","type":"SPOT","category":"RAMP","routeType":"","route":"","active":"Yes","fnctClass":"(1)Interstate","latestAadt":5877,"latestAadtYear":2024,"latestDhv30":513,"latestKPercent":9,"latestDPercent":null,"latestVolumeCount":6153,"latestVolumeDate":"2024-04-10","extractedAt":"2025-08-02T14:08:55Z"}},{"type":"Feature","geometry":{"type":"Point","coordinates":[-97.60418,32.729705]},"properties":{"locationId":"184RP2036","locatedOn":"IH0020","locOnAlias":"","type":"SPOT","category":"RAMP","routeType":"","route":"","active":"Yes","fnctClass":"(1)Interstate","latestAadt":5721,"latestAadtYear":2024,"latestDhv30":522,"latestKPercent":9,"latestDPercent":null,"latestVolumeCount":5954,"latestVolumeDate":"2024-04-10","extractedAt":"2025-08-02T14:09:09Z"}},{"type":"Feature","geometry":{"type":"Point","coordinates":[-97.595623,32.728051]},"properties":{"locationId":"184RP2037","locatedOn":"IH0020","locOnAlias":"","type":"SPOT","category":"RAMP","routeType":"","route":"","active":"Yes","fnctClass":"(1)Interstate","latestAadt":10271,"latestAadtYear":2024,"latestDhv30":1052,"latestKPercent":10,"latestDPercent":null,"latestVolumeCount":10799,"latestVolumeDate":"2024-04-10","extractedAt":"2025-08-02T14:09:24Z"}},{"type":"Feature","geometry":{"type":"Point","coordinates":[-97.593142,32.728411]},"properties":{"locationId":"184RP2038","locatedOn":"IH0020","locOnAlias":"","type":"SPOT","category":"RAMP","routeType":"","route":"","active":"Yes","fnctClass":"(1)Interstate","latestAadt":10306,"latestAadtYear":2024,"latestDhv30":1457,"latestKPercent":14,"latestDPercent":null,"latestVolumeCount":10715,"latestVolumeDate":"2024-04-10","extractedAt":"2025-08-02T14:09:39Z"}},{"type":"Feature","geometry":{"type":"Point","coordinates":[-97.578036,32.724363]},"properties":{"locationId":"184RP2040","locatedOn":"IH0020","locOnAlias":"","type":"SPOT","category":"RAMP","routeType":"","route":"","active":"Yes","fnctClass":"(1)Interstate","latestAadt":203508,"latestAadtYear":2024,"latestDhv30":2502,"latestKPercent":12,"latestDPercent":null,"latestVolumeCount":25727,"latestVolumeDate":"2024-05-01","extractedAt":"2025-08-02T14:15:47Z"}},{"type":"Feature","geometry":{"type":"Point","coordinates":[-97.56869,32.721861]},"properties":{"locationId":"184RP2040A","locatedOn":"IH0030","locOnAlias":"IH0030-XG","type":"SPOT","category":"RAMP","routeType":"IH","route":"0030","active":"Yes","fnctClass":"(5)Major Collector","latestAadt":1082,"latestAadtYear":2024,"latestDhv30":143,"latestKPercent":13,"latestDPercent":null,"latestVolumeCount":1164,"latestVolumeDate":"2024-04-10","extractedAt":"2025-08-02T14:16:01Z"}},{"type":"Feature","geometry":{"type":"Point","coordinates":[-97.569092,32.720844]},"properties":{"locationId":"184RP301","locatedOn":"IH0030","locOnAlias":"IH0030-KG","type":"SPOT","category":"RAMP","routeType":"IH","route":"0030","active":"Yes","fnctClass":"(1)Interstate","latestAadt":675,"latestAadtYear":2024,"latestDhv30":94,"latestKPercent":14,"latestDPercent":null,"latestVolumeCount":702,"latestVolumeDate":"2024-05-01","extractedAt":"2025-08-02T14:23:58Z"}},{"type":"Feature","geometry":{"type":"Point","coordinates":[-97.552049,32.720721]},"properties":{"locationId":"184RP303","locatedOn":"IH0030","locOnAlias":"IH0030-KG","type":"SPOT","category":"RAMP","routeType":"IH","route":"0030","active":"Yes","fnctClass":"(1)Interstate","latestAadt":44698,"latestAadtYear":2024,"latestDhv30":703,"latestKPercent":16,"latestDPercent":null,"latestVolumeCount":4897,"latestVolumeDate":"2024-12-11","extractedAt":"2025-08-02T14:24:13Z"}},{"type":"Feature","geometry":{"type":"Point","coordinates":[-97.550874,32.721247]},"properties":{"locationId":"184RP304","locatedOn":"IH0030","locOnAlias":"IH0030-KG","type":"SPOT","category":"RAMP","routeType":"IH","route":"0030","active":"Yes","fnctClass":"(1)Interstate","latestAadt":36158,"latestAadtYear":2024,"latestDhv30":323,"latestKPercent":9,"latestDPercent":null,"latestVolumeCount":3187,"latestVolumeDate":"2024-04-10","extractedAt":"2025-08-02T14:24:29Z"}},{"type":"Feature","geometry":{"type":"Point","coordinates":[-97.663581,32.729869]},"properties":{"locationId":"184RS204A","locatedOn":"MCDAVID DR","locOnAlias":"184AA0854","type":"SPOT","category":"URBAN ACR","routeType":"CR","route":"854","active":"Yes","fnctClass":"(7)Local","latestAadt":429,"latestAadtYear":2024,"latestDhv30":52,"latestKPercent":12,"latestDPercent":null,"latestVolumeCount":462,"latestVolumeDate":"2024-05-13","extractedAt":"2025-08-02T15:17:10Z"}},{"type":"Feature","geometry":{"type":"Point","coordinates":[-97.698983,32.787738]},"properties":{"locationId":"184RS23","locatedOn":"NALAKEVIEW","locOnAlias":"","type":"SPOT","category":"URBAN ACR","routeType":"","route":"","active":"Yes","fnctClass":"(7)Local","latestAadt":279,"latestAadtYear":2024,"latestDhv30":24,"latestKPercent":9,"latestDPercent":null,"latestVolumeCount":278,"latestVolumeDate":"2024-05-21","extractedAt":"2025-08-02T15:17:54Z"}},{"type":"Feature","geometry":{"type":"Point","coordinates":[-97.644084,32.761344]},"properties":{"locationId":"184RS24","locatedOn":"FAIRWAY","locOnAlias":"","type":"SPOT","category":"URBAN ACR","routeType":"","route":"","active":"Yes","fnctClass":"(7)Local","latestAadt":85,"latestAadtYear":2024,"latestDhv30":11,"latestKPercent":14,"latestDPercent":null,"latestVolumeCount":87,"latestVolumeDate":"2024-05-21","extractedAt":"2025-08-02T15:18:08Z"}},{"type":"Feature","geometry":{"type":"Point","coordinates":[-97.604871,32.702807]},"properties":{"locationId":"184RS26","locatedOn":"JOHN","locOnAlias":"","type":"SPOT","category":"URBAN ACR","routeType":"","route":"","active":"Yes","fnctClass":"(7)Local","latestAadt":186,"latestAadtYear":2024,"latestDhv30":22,"latestKPercent":12,"latestDPercent":null,"latestVolumeCount":192,"latestVolumeDate":"2024-05-13","extractedAt":"2025-08-02T15:18:41Z"}},{"type":"Feature","geometry":{"type":"Point","coordinates":[-97.721111,32.776839]},"properties":{"locationId":"184RS27","locatedOn":"SILVERSTONE","locOnAlias":"","type":"SPOT","category":"URBAN ACR","routeType":"","route":"","active":"Yes","fnctClass":"(7)Local","latestAadt":936,"latestAadtYear":2024,"latestDhv30":160,"latestKPercent":17,"latestDPercent":null,"latestVolumeCount":931,"latestVolumeDate":"2024-05-21","extractedAt":"2025-08-02T15:18:56Z"}},{"type":"Feature","geometry":{"type":"Point","coordinates":[-97.566711,32.607671]},"properties":{"locationId":"184RS5","locatedOn":"NAMCDANIEL","locOnAlias":"","type":"SPOT","category":"URBAN ACR","routeType":"","route":"","active":"Yes","fnctClass":"(7)Local","latestAadt":126,"latestAadtYear":2024,"latestDhv30":16,"latestKPercent":13,"latestDPercent":null,"latestVolumeCount":136,"latestVolumeDate":"2024-05-13","extractedAt":"2025-08-02T15:25:15Z"}},{"type":"Feature","geometry":{"type":"Point","coordinates":[-97.570098,32.836579]},"properties":{"locationId":"184RS6","locatedOn":"NABUCKHORN","locOnAlias":"","type":"SPOT","category":"URBAN ACR","routeType":"","route":"","active":"Yes","fnctClass":"(7)Local","latestAadt":34,"latestAadtYear":2024,"latestDhv30":4,"latestKPercent":15,"latestDPercent":null,"latestVolumeCount":34,"latestVolumeDate":"2024-05-21","extractedAt":"2025-08-02T15:25:30Z"}},{"type":"Feature","geometry":{"type":"Point","coordinates":[-97.661776,32.808056]},"properties":{"locationId":"184RS8","locatedOn":"NAPEARSON RANCH","locOnAlias":"","type":"SPOT","category":"URBAN ACR","routeType":"","route":"","active":"Yes","fnctClass":"(7)Local","latestAadt":75,"latestAadtYear":2024,"latestDhv30":7,"latestKPercent":11,"latestDPercent":null,"latestVolumeCount":75,"latestVolumeDate":"2024-05-21","extractedAt":"2025-08-02T15:25:59Z"}},{"type":"Feature","geometry":{"type":"Point","coordinates":[-97.618976,32.731183]},"properties":{"locationId":"184SP208","locatedOn":"IH0020","locOnAlias":"IH0020-KG","type":"SPOT","category":"ANNUAL ACR","routeType":"IH","route":"0020","active":"Yes","fnctClass":"(1)Interstate","latestAadt":1012318,"latestAadtYear":2024,"latestDhv30":null,"latestKPercent":null,"latestDPercent":null,"latestVolumeCount":null,"latestVolumeDate":null,"extractedAt":"2025-08-02T15:26:28Z"}},{"type":"Feature","geometry":{"type":"Point","coordinates":[-97.619001,32.730777]},"properties":{"locationId":"184SP208EBSR","locatedOn":"IH0020","locOnAlias":"IH0020-AG","type":"SPOT","category":"ANNUAL ACR","routeType":"IH","route":"0020","active":"Yes","fnctClass":"(5)Major Collector","latestAadt":4798,"latestAadtYear":2024,"latestDhv30":479,"latestKPercent":10,"latestDPercent":null,"latestVolumeCount":4817,"latestVolumeDate":"2024-06-04","extractedAt":"2025-08-02T15:26:44Z"}},{"type":"Feature","geometry":{"type":"Point","coordinates":[-97.618831,32.731558]},"properties":{"locationId":"184SP208WBSR","locatedOn":"IH0020","locOnAlias":"IH0020-XG","type":"SPOT","category":"ANNUAL ACR","routeType":"IH","route":"0020","active":"Yes","fnctClass":"(5)Major Collector","latestAadt":16643,"latestAadtYear":2024,"latestDhv30":null,"latestKPercent":null,"latestDPercent":null,"latestVolumeCount":1636,"latestVolumeDate":"2022-08-16","extractedAt":"2025-08-02T15:27:00Z"}},{"type":"Feature","geometry":{"type":"Point","coordinates":[-97.603132,32.696368]},"properties":{"locationId":"184T24","locatedOn":"FM1187","locOnAlias":"FM1187-KG","type":"SPOT","category":"ANNUAL ACR","routeType":"FM","route":"1187","active":"Yes","fnctClass":"(4)Minor Arterial","latestAadt":194203,"latestAadtYear":2024,"latestDhv30":null,"latestKPercent":null,"latestDPercent":null,"latestVolumeCount":16781,"latestVolumeDate":"2016-06-15","extractedAt":"2025-08-02T15:41:19Z"}},{"type":"Feature","geometry":{"type":"Point","coordinates":[-97.602421,32.695877]},"properties":{"locationId":"184T24NBDR","locatedOn":"FM1187","locOnAlias":"FM1187-KG","type":"SPOT","category":"ANNUAL ACR","routeType":"FM","route":"1187","active":"Yes","fnctClass":"(4)Minor Arterial","latestAadt":10161,"latestAadtYear":2024,"latestDhv30":1141,"latestKPercent":11,"latestDPercent":null,"latestVolumeCount":11305,"latestVolumeDate":"2024-05-13","extractedAt":"2025-08-02T15:41:33Z"}},{"type":"Feature","geometry":{"type":"Point","coordinates":[-97.603848,32.69687]},"properties":{"locationId":"184T24SBDR","locatedOn":"FM1187","locOnAlias":"FM1187-KG","type":"SPOT","category":"ANNUAL ACR","routeType":"FM","route":"1187","active":"Yes","fnctClass":"(4)Minor Arterial","latestAadt":9545,"latestAadtYear":2024,"latestDhv30":1085,"latestKPercent":11,"latestDPercent":null,"latestVolumeCount":10618,"latestVolumeDate":"2024-05-13","extractedAt":"2025-08-02T15:41:50Z"}},{"type":"Feature","geometry":{"type":"Point","coordinates":[-97.602832,32.692435]},"properties":{"locationId":"184T25","locatedOn":"FM1187","locOnAlias":"FM1187-KG","type":"SPOT","category":"ANNUAL ACR","routeType":"FM","route":"1187","active":"Yes","fnctClass":"(4)Minor Arterial","latestAadt":100983,"latestAadtYear":2024,"latestDhv30":null,"latestKPercent":null,"latestDPercent":null,"latestVolumeCount":11676,"latestVolumeDate":"2023-07-19","extractedAt":"2025-08-02T15:42:07Z"}},{"type":"Feature","geometry":{"type":"Point","coordinates":[-97.684191,32.810998]},"properties":{"locationId":"184U15","locatedOn":"FM0730","locOnAlias":"FM0730-KG","type":"SPOT","category":"URBAN ACR","routeType":"FM","route":"730","active":"Yes","fnctClass":"(5)Major Collector","latestAadt":null,"latestAadtYear":null,"latestDhv30":null,"latestKPercent":null,"latestDPercent":null,"latestVolumeCount":null,"latestVolumeDate":null,"extractedAt":"2025-08-02T15:57:59Z"}},{"type":"Feature","geometry":{"type":"Point","coordinates":[-97.561346,32.739101]},"properties":{"locationId":"184U2","locatedOn":"WALSH RANCH","locOnAlias":"","type":"SPOT","category":"URBAN ACR","routeType":"","route":"","active":"Yes","fnctClass":"(4)Minor Arterial","latestAadt":2294,"latestAadtYear":2024,"latestDhv30":272,"latestKPercent":12,"latestDPercent":null,"latestVolumeCount":2677,"latestVolumeDate":"2024-05-21","extractedAt":"2025-08-02T16:04:34Z"}},{"type":"Feature","geometry":{"type":"Point","coordinates":[-97.574671,32.744223]},"properties":{"locationId":"184U3","locatedOn":"NAOLD WEATHERFORD","locOnAlias":"","type":"SPOT","category":"URBAN ACR","routeType":"","route":"","active":"Yes","fnctClass":"(5)Major Collector","latestAadt":1588,"latestAadtYear":2024,"latestDhv30":205,"latestKPercent":13,"latestDPercent":null,"latestVolumeCount":1661,"latestVolumeDate":"2024-05-21","extractedAt":"2025-08-02T16:05:04Z"}}]}