{"type":"FeatureCollection","features":[{"type":"Feature","geometry":{"type":"Point","coordinates":[-97.908217,32.661555]},"properties":{"locationId":"184CR91","locatedOn":"-","locOnAlias":"","type":"SPOT","category":"URBAN ACR","routeType":"","route":"","active":"Yes","fnctClass":"(6)Minor Collector","latestAadt":3794,"latestAadtYear":2024,"latestDhv30":432,"latestKPercent":11,"latestDPercent":null,"latestVolumeCount":3914,"latestVolumeDate":"2024-05-15","extractedAt":"2025-08-01T23:12:31Z"}}]}