{"type":"FeatureCollection","features":[{"type":"Feature","geometry":{"type":"Point","coordinates":[-97.731597,32.851009]},"properties":{"locationId":"184CR5A","locatedOn":"-","locOnAlias":"","type":"SPOT","category":"URBAN ACR","routeType":"","route":"","active":"Yes","fnctClass":"(6)Minor Collector","latestAadt":811,"latestAadtYear":2024,"latestDhv30":93,"latestKPercent":12,"latestDPercent":null,"latestVolumeCount":831,"latestVolumeDate":"2024-05-22","extractedAt":"2025-08-01T21:26:01Z"}},{"type":"Feature","geometry":{"type":"Point","coordinates":[-97.703784,32.842774]},"properties":{"locationId":"184FS24","locatedOn":"CR0000","locOnAlias":"184AA0261","type":"SPOT","category":"URBAN ACR","routeType":"CR","route":"0000","active":"Yes","fnctClass":"(6)Minor Collector","latestAadt":624,"latestAadtYear":2024,"latestDhv30":63,"latestKPercent":10,"latestDPercent":null,"latestVolumeCount":640,"latestVolumeDate":"2024-05-22","extractedAt":"2025-08-02T00:11:37Z"}}]}