{"type":"FeatureCollection","features":[{"type":"Feature","geometry":{"type":"Point","coordinates":[-97.716662,32.82466]},"properties":{"locationId":"184CR225","locatedOn":"NAUPPER DENTON","locOnAlias":"","type":"SPOT","category":"URBAN ACR","routeType":"","route":"","active":"Yes","fnctClass":"(6)Minor Collector","latestAadt":296,"latestAadtYear":2019,"latestDhv30":29,"latestKPercent":10,"latestDPercent":null,"latestVolumeCount":325,"latestVolumeDate":"2019-05-13","extractedAt":"2025-08-01T19:58:04Z"}},{"type":"Feature","geometry":{"type":"Point","coordinates":[-97.698523,32.809344]},"properties":{"locationId":"184CR52","locatedOn":"-","locOnAlias":"","type":"SPOT","category":"URBAN ACR","routeType":"","route":"","active":"Yes","fnctClass":"(7)Local","latestAadt":1230,"latestAadtYear":2024,"latestDhv30":124,"latestKPercent":10,"latestDPercent":null,"latestVolumeCount":1224,"latestVolumeDate":"2024-05-21","extractedAt":"2025-08-01T21:25:19Z"}},{"type":"Feature","geometry":{"type":"Point","coordinates":[-97.714693,32.826655]},"properties":{"locationId":"184CR52A","locatedOn":"-","locOnAlias":"","type":"SPOT","category":"URBAN ACR","routeType":"","route":"","active":"Yes","fnctClass":"(7)Local","latestAadt":862,"latestAadtYear":2024,"latestDhv30":81,"latestKPercent":9,"latestDPercent":null,"latestVolumeCount":839,"latestVolumeDate":"2024-05-22","extractedAt":"2025-08-01T21:25:33Z"}},{"type":"Feature","geometry":{"type":"Point","coordinates":[-97.712364,32.833161]},"properties":{"locationId":"184CR5B","locatedOn":"-","locOnAlias":"","type":"SPOT","category":"URBAN ACR","routeType":"","route":"","active":"Yes","fnctClass":"(6)Minor Collector","latestAadt":1070,"latestAadtYear":2024,"latestDhv30":113,"latestKPercent":11,"latestDPercent":null,"latestVolumeCount":1098,"latestVolumeDate":"2024-05-22","extractedAt":"2025-08-01T21:26:15Z"}},{"type":"Feature","geometry":{"type":"Point","coordinates":[-97.700992,32.80655]},"properties":{"locationId":"184H20","locatedOn":"FM0730","locOnAlias":"FM0730-KG","type":"SPOT","category":"ANNUAL ACR","routeType":"FM","route":"0730","active":"Yes","fnctClass":"(5)Major Collector","latestAadt":78673,"latestAadtYear":2024,"latestDhv30":null,"latestKPercent":null,"latestDPercent":null,"latestVolumeCount":7784,"latestVolumeDate":"2023-07-19","extractedAt":"2025-08-02T03:31:04Z"}}]}