{"type":"FeatureCollection","features":[{"type":"Feature","geometry":{"type":"Point","coordinates":[-97.729969,32.780662]},"properties":{"locationId":"184CR312","locatedOn":"-","locOnAlias":"","type":"SPOT","category":"URBAN ACR","routeType":"","route":"","active":"Yes","fnctClass":"(5)Major Collector","latestAadt":233,"latestAadtYear":2024,"latestDhv30":27,"latestKPercent":12,"latestDPercent":null,"latestVolumeCount":244,"latestVolumeDate":"2024-05-21","extractedAt":"2025-08-01T20:24:47Z"}},{"type":"Feature","geometry":{"type":"Point","coordinates":[-97.716614,32.77786]},"properties":{"locationId":"184CR312B","locatedOn":"-","locOnAlias":"","type":"SPOT","category":"URBAN ACR","routeType":"","route":"","active":"Yes","fnctClass":"(5)Major Collector","latestAadt":2881,"latestAadtYear":2024,"latestDhv30":314,"latestKPercent":11,"latestDPercent":null,"latestVolumeCount":2984,"latestVolumeDate":"2024-05-21","extractedAt":"2025-08-01T20:25:17Z"}},{"type":"Feature","geometry":{"type":"Point","coordinates":[-97.725979,32.786203]},"properties":{"locationId":"184CR313","locatedOn":"-","locOnAlias":"","type":"SPOT","category":"URBAN ACR","routeType":"","route":"","active":"Yes","fnctClass":"(7)Local","latestAadt":1309,"latestAadtYear":2024,"latestDhv30":122,"latestKPercent":9,"latestDPercent":null,"latestVolumeCount":1301,"latestVolumeDate":"2024-05-21","extractedAt":"2025-08-01T20:30:48Z"}},{"type":"Feature","geometry":{"type":"Point","coordinates":[-97.716176,32.787831]},"properties":{"locationId":"184CR314","locatedOn":"-","locOnAlias":"","type":"SPOT","category":"URBAN ACR","routeType":"","route":"","active":"Yes","fnctClass":"(7)Local","latestAadt":349,"latestAadtYear":2024,"latestDhv30":41,"latestKPercent":12,"latestDPercent":null,"latestVolumeCount":347,"latestVolumeDate":"2024-05-21","extractedAt":"2025-08-01T20:31:05Z"}},{"type":"Feature","geometry":{"type":"Point","coordinates":[-97.704916,32.797581]},"properties":{"locationId":"184CR315","locatedOn":"-","locOnAlias":"","type":"SPOT","category":"URBAN ACR","routeType":"","route":"","active":"Yes","fnctClass":"(7)Local","latestAadt":738,"latestAadtYear":2024,"latestDhv30":87,"latestKPercent":12,"latestDPercent":null,"latestVolumeCount":742,"latestVolumeDate":"2024-05-21","extractedAt":"2025-08-01T20:31:18Z"}},{"type":"Feature","geometry":{"type":"Point","coordinates":[-97.698983,32.787738]},"properties":{"locationId":"184RS23","locatedOn":"NALAKEVIEW","locOnAlias":"","type":"SPOT","category":"URBAN ACR","routeType":"","route":"","active":"Yes","fnctClass":"(7)Local","latestAadt":279,"latestAadtYear":2024,"latestDhv30":24,"latestKPercent":9,"latestDPercent":null,"latestVolumeCount":278,"latestVolumeDate":"2024-05-21","extractedAt":"2025-08-02T15:17:54Z"}},{"type":"Feature","geometry":{"type":"Point","coordinates":[-97.721111,32.776839]},"properties":{"locationId":"184RS27","locatedOn":"SILVERSTONE","locOnAlias":"","type":"SPOT","category":"URBAN ACR","routeType":"","route":"","active":"Yes","fnctClass":"(7)Local","latestAadt":936,"latestAadtYear":2024,"latestDhv30":160,"latestKPercent":17,"latestDPercent":null,"latestVolumeCount":931,"latestVolumeDate":"2024-05-21","extractedAt":"2025-08-02T15:18:56Z"}}]}