{"type":"FeatureCollection","features":[{"type":"Feature","geometry":{"type":"Point","coordinates":[-97.69712,32.755769]},"properties":{"locationId":"184CC1","locatedOn":"GS0000","locOnAlias":"20010","type":"SPOT","category":"RAMP","routeType":"GS","route":"0000","active":"Yes","fnctClass":"(1)Interstate","latestAadt":8388,"latestAadtYear":2024,"latestDhv30":660,"latestKPercent":8,"latestDPercent":null,"latestVolumeCount":8746,"latestVolumeDate":"2024-04-10","extractedAt":"2025-08-01T19:06:31Z"}},{"type":"Feature","geometry":{"type":"Point","coordinates":[-97.698881,32.757352]},"properties":{"locationId":"184CR325","locatedOn":"-","locOnAlias":"","type":"SPOT","category":"URBAN ACR","routeType":"","route":"","active":"Yes","fnctClass":"(5)Major Collector","latestAadt":9701,"latestAadtYear":2024,"latestDhv30":920,"latestKPercent":9,"latestDPercent":51,"latestVolumeCount":9801,"latestVolumeDate":"2024-05-13","extractedAt":"2025-08-01T20:46:39Z"}},{"type":"Feature","geometry":{"type":"Point","coordinates":[-97.707466,32.753057]},"properties":{"locationId":"184CR325A","locatedOn":"Newell Dr","locOnAlias":"297488","type":"SPOT","category":"URBAN ACR","routeType":"LS","route":"0000","active":"Yes","fnctClass":"(6)Minor Collector","latestAadt":526,"latestAadtYear":2024,"latestDhv30":49,"latestKPercent":9,"latestDPercent":null,"latestVolumeCount":524,"latestVolumeDate":"2024-05-13","extractedAt":"2025-08-01T20:46:53Z"}},{"type":"Feature","geometry":{"type":"Point","coordinates":[-97.699129,32.753452]},"properties":{"locationId":"184CR325B","locatedOn":"-","locOnAlias":"","type":"SPOT","category":"URBAN ACR","routeType":"","route":"","active":"Yes","fnctClass":"(7)Local","latestAadt":1684,"latestAadtYear":2024,"latestDhv30":172,"latestKPercent":10,"latestDPercent":null,"latestVolumeCount":1811,"latestVolumeDate":"2024-05-13","extractedAt":"2025-08-01T20:47:06Z"}},{"type":"Feature","geometry":{"type":"Point","coordinates":[-97.710674,32.75781]},"properties":{"locationId":"184CR326","locatedOn":"-","locOnAlias":"","type":"SPOT","category":"URBAN ACR","routeType":"","route":"","active":"Yes","fnctClass":"(5)Major Collector","latestAadt":6994,"latestAadtYear":2024,"latestDhv30":597,"latestKPercent":9,"latestDPercent":null,"latestVolumeCount":7195,"latestVolumeDate":"2024-05-21","extractedAt":"2025-08-01T20:47:21Z"}},{"type":"Feature","geometry":{"type":"Point","coordinates":[-97.728794,32.748658]},"properties":{"locationId":"184CR327A","locatedOn":"-","locOnAlias":"","type":"SPOT","category":"URBAN ACR","routeType":"","route":"","active":"Yes","fnctClass":"(6)Minor Collector","latestAadt":868,"latestAadtYear":2024,"latestDhv30":71,"latestKPercent":8,"latestDPercent":null,"latestVolumeCount":866,"latestVolumeDate":"2024-05-13","extractedAt":"2025-08-01T20:47:34Z"}},{"type":"Feature","geometry":{"type":"Point","coordinates":[-97.727718,32.74678]},"properties":{"locationId":"184CR328","locatedOn":"-","locOnAlias":"","type":"SPOT","category":"URBAN ACR","routeType":"","route":"","active":"Yes","fnctClass":"(6)Minor Collector","latestAadt":1486,"latestAadtYear":2024,"latestDhv30":156,"latestKPercent":11,"latestDPercent":null,"latestVolumeCount":1479,"latestVolumeDate":"2024-05-13","extractedAt":"2025-08-01T20:47:47Z"}},{"type":"Feature","geometry":{"type":"Point","coordinates":[-97.727008,32.742708]},"properties":{"locationId":"184CR329B","locatedOn":"-","locOnAlias":"","type":"SPOT","category":"URBAN ACR","routeType":"","route":"","active":"Yes","fnctClass":"(5)Major Collector","latestAadt":1796,"latestAadtYear":2024,"latestDhv30":211,"latestKPercent":12,"latestDPercent":null,"latestVolumeCount":1824,"latestVolumeDate":"2024-05-13","extractedAt":"2025-08-01T20:54:24Z"}},{"type":"Feature","geometry":{"type":"Point","coordinates":[-97.692532,32.755442]},"properties":{"locationId":"184FS305","locatedOn":"LS0000","locOnAlias":"1132827","type":"SPOT","category":"URBAN ACR","routeType":"LS","route":"0000","active":"Yes","fnctClass":"(7)Local","latestAadt":376,"latestAadtYear":2024,"latestDhv30":37,"latestKPercent":10,"latestDPercent":null,"latestVolumeCount":406,"latestVolumeDate":"2024-05-13","extractedAt":"2025-08-02T00:34:01Z"}},{"type":"Feature","geometry":{"type":"Point","coordinates":[-97.699882,32.760673]},"properties":{"locationId":"184FS311","locatedOn":"LS0000","locOnAlias":"1132791","type":"SPOT","category":"URBAN ACR","routeType":"LS","route":"0000","active":"Yes","fnctClass":"(7)Local","latestAadt":1305,"latestAadtYear":2024,"latestDhv30":157,"latestKPercent":12,"latestDPercent":null,"latestVolumeCount":1334,"latestVolumeDate":"2024-05-21","extractedAt":"2025-08-02T00:35:15Z"}},{"type":"Feature","geometry":{"type":"Point","coordinates":[-97.692177,32.762383]},"properties":{"locationId":"184FS318","locatedOn":"CR0000","locOnAlias":"184AA1195","type":"SPOT","category":"URBAN ACR","routeType":"CR","route":"0000","active":"Yes","fnctClass":"(5)Major Collector","latestAadt":1506,"latestAadtYear":2024,"latestDhv30":165,"latestKPercent":11,"latestDPercent":null,"latestVolumeCount":1575,"latestVolumeDate":"2024-05-21","extractedAt":"2025-08-02T00:42:25Z"}},{"type":"Feature","geometry":{"type":"Point","coordinates":[-97.724224,32.744136]},"properties":{"locationId":"184HP8048","locatedOn":"EBANKHEAD","locOnAlias":"","type":"SPOT","category":"URBAN ACR","routeType":"","route":"","active":"Yes","fnctClass":"(5)Major Collector","latestAadt":1308,"latestAadtYear":2024,"latestDhv30":134,"latestKPercent":10,"latestDPercent":null,"latestVolumeCount":1326,"latestVolumeDate":"2024-05-13","extractedAt":"2025-08-02T13:07:13Z"}},{"type":"Feature","geometry":{"type":"Point","coordinates":[-97.731872,32.740876]},"properties":{"locationId":"184HP8049","locatedOn":"EBANKHEAD","locOnAlias":"","type":"SPOT","category":"URBAN ACR","routeType":"","route":"","active":"Yes","fnctClass":"(5)Major Collector","latestAadt":2352,"latestAadtYear":2019,"latestDhv30":283,"latestKPercent":12,"latestDPercent":null,"latestVolumeCount":2895,"latestVolumeDate":"2019-05-08","extractedAt":"2025-08-02T13:07:27Z"}},{"type":"Feature","geometry":{"type":"Point","coordinates":[-97.698929,32.761531]},"properties":{"locationId":"184HP8051","locatedOn":"NALAKESHORE","locOnAlias":"","type":"SPOT","category":"URBAN ACR","routeType":"","route":"","active":"Yes","fnctClass":"(5)Major Collector","latestAadt":4190,"latestAadtYear":2024,"latestDhv30":380,"latestKPercent":9,"latestDPercent":null,"latestVolumeCount":4381,"latestVolumeDate":"2024-05-21","extractedAt":"2025-08-02T13:07:56Z"}},{"type":"Feature","geometry":{"type":"Point","coordinates":[-97.711752,32.755152]},"properties":{"locationId":"184HP8057","locatedOn":"SOAKRIDGE","locOnAlias":"","type":"SPOT","category":"URBAN ACR","routeType":"","route":"","active":"Yes","fnctClass":"(5)Major Collector","latestAadt":5009,"latestAadtYear":2024,"latestDhv30":433,"latestKPercent":9,"latestDPercent":null,"latestVolumeCount":5237,"latestVolumeDate":"2024-05-21","extractedAt":"2025-08-02T13:14:57Z"}},{"type":"Feature","geometry":{"type":"Point","coordinates":[-97.73368,32.746613]},"properties":{"locationId":"184RP2021A","locatedOn":"IH0020","locOnAlias":"IH0020-KG","type":"SPOT","category":"RAMP","routeType":"IH","route":"0020","active":"Yes","fnctClass":"(1)Interstate","latestAadt":37988,"latestAadtYear":2024,"latestDhv30":290,"latestKPercent":8,"latestDPercent":null,"latestVolumeCount":3863,"latestVolumeDate":"2024-04-10","extractedAt":"2025-08-02T13:55:30Z"}},{"type":"Feature","geometry":{"type":"Point","coordinates":[-97.731651,32.747718]},"properties":{"locationId":"184RP2022A","locatedOn":"IH0020","locOnAlias":"IH0020-KG","type":"SPOT","category":"RAMP","routeType":"IH","route":"0020","active":"Yes","fnctClass":"(1)Interstate","latestAadt":34108,"latestAadtYear":2024,"latestDhv30":419,"latestKPercent":12,"latestDPercent":null,"latestVolumeCount":3570,"latestVolumeDate":"2024-04-10","extractedAt":"2025-08-02T13:56:17Z"}},{"type":"Feature","geometry":{"type":"Point","coordinates":[-97.702696,32.754731]},"properties":{"locationId":"184RP2023","locatedOn":"IH0020","locOnAlias":"","type":"SPOT","category":"RAMP","routeType":"","route":"","active":"Yes","fnctClass":"(1)Interstate","latestAadt":33508,"latestAadtYear":2024,"latestDhv30":295,"latestKPercent":9,"latestDPercent":null,"latestVolumeCount":3609,"latestVolumeDate":"2024-04-10","extractedAt":"2025-08-02T13:56:48Z"}},{"type":"Feature","geometry":{"type":"Point","coordinates":[-97.723264,32.749406]},"properties":{"locationId":"184RP2023A","locatedOn":"IH0020","locOnAlias":"IH0020-KG","type":"SPOT","category":"RAMP","routeType":"IH","route":"0020","active":"Yes","fnctClass":"(1)Interstate","latestAadt":12788,"latestAadtYear":2024,"latestDhv30":184,"latestKPercent":14,"latestDPercent":null,"latestVolumeCount":1380,"latestVolumeDate":"2024-04-10","extractedAt":"2025-08-02T13:57:04Z"}}]}