{"type":"FeatureCollection","features":[{"type":"Feature","geometry":{"type":"Point","coordinates":[-97.721055,32.731718]},"properties":{"locationId":"184CR328A","locatedOn":"-","locOnAlias":"","type":"SPOT","category":"URBAN ACR","routeType":"","route":"","active":"Yes","fnctClass":"(6)Minor Collector","latestAadt":1645,"latestAadtYear":2024,"latestDhv30":163,"latestKPercent":10,"latestDPercent":null,"latestVolumeCount":1621,"latestVolumeDate":"2024-05-13","extractedAt":"2025-08-01T20:48:01Z"}},{"type":"Feature","geometry":{"type":"Point","coordinates":[-97.718924,32.724676]},"properties":{"locationId":"184CR328B","locatedOn":"Dixon Rd","locOnAlias":"289916","type":"SPOT","category":"URBAN ACR","routeType":"FC","route":"0000","active":"Yes","fnctClass":"(6)Minor Collector","latestAadt":618,"latestAadtYear":2024,"latestDhv30":63,"latestKPercent":10,"latestDPercent":null,"latestVolumeCount":610,"latestVolumeDate":"2024-05-13","extractedAt":"2025-08-01T20:48:17Z"}},{"type":"Feature","geometry":{"type":"Point","coordinates":[-97.695942,32.712005]},"properties":{"locationId":"184CR328C","locatedOn":"-","locOnAlias":"","type":"SPOT","category":"INACTIVE","routeType":"","route":"","active":"No","fnctClass":"(6)Minor Collector","latestAadt":1258,"latestAadtYear":2019,"latestDhv30":130,"latestKPercent":10,"latestDPercent":null,"latestVolumeCount":1364,"latestVolumeDate":"2019-05-15","extractedAt":"2025-08-01T20:48:34Z"}}]}