{"type":"FeatureCollection","features":[{"type":"Feature","geometry":{"type":"Point","coordinates":[-97.820168,32.742383]},"properties":{"locationId":"184CR333B","locatedOn":"-","locOnAlias":"","type":"SPOT","category":"URBAN ACR","routeType":"","route":"","active":"Yes","fnctClass":"(7)Local","latestAadt":1314,"latestAadtYear":2024,"latestDhv30":150,"latestKPercent":11,"latestDPercent":null,"latestVolumeCount":1323,"latestVolumeDate":"2024-05-08","extractedAt":"2025-08-01T20:55:54Z"}},{"type":"Feature","geometry":{"type":"Point","coordinates":[-97.811618,32.748288]},"properties":{"locationId":"184FS103","locatedOn":"Charles St","locOnAlias":"1250407","type":"SPOT","category":"URBAN ACR","routeType":"LS","route":"0000","active":"Yes","fnctClass":"(7)Local","latestAadt":2889,"latestAadtYear":2024,"latestDhv30":642,"latestKPercent":22,"latestDPercent":null,"latestVolumeCount":2923,"latestVolumeDate":"2024-05-08","extractedAt":"2025-08-01T23:59:18Z"}}]}