{"type":"FeatureCollection","features":[{"type":"Feature","geometry":{"type":"Point","coordinates":[-97.811502,32.783913]},"properties":{"locationId":"184U3577","locatedOn":"-","locOnAlias":"","type":"SPOT","category":"INACTIVE","routeType":"","route":"","active":"No","fnctClass":"(3)Principal Arterial-Other","latestAadt":21033,"latestAadtYear":2015,"latestDhv30":null,"latestKPercent":15,"latestDPercent":null,"latestVolumeCount":2934,"latestVolumeDate":"2014-04-23","extractedAt":"2025-08-02T16:06:19Z"}}]}