{"type":"FeatureCollection","features":[{"type":"Feature","geometry":{"type":"Point","coordinates":[-97.867364,32.871338]},"properties":{"locationId":"184T35","locatedOn":"FM0920","locOnAlias":"FM0920-KG","type":"SPOT","category":"ANNUAL ACR","routeType":"FM","route":"0920","active":"Yes","fnctClass":"(5)Major Collector","latestAadt":7115,"latestAadtYear":2024,"latestDhv30":918,"latestKPercent":13,"latestDPercent":null,"latestVolumeCount":7425,"latestVolumeDate":"2024-05-20","extractedAt":"2025-08-02T15:49:17Z"}}]}