{"type":"FeatureCollection","features":[{"type":"Feature","geometry":{"type":"Point","coordinates":[-97.770842,32.781492]},"properties":{"locationId":"184CR305B","locatedOn":"-","locOnAlias":"","type":"SPOT","category":"URBAN ACR","routeType":"","route":"","active":"Yes","fnctClass":"(5)Major Collector","latestAadt":1766,"latestAadtYear":2024,"latestDhv30":199,"latestKPercent":11,"latestDPercent":null,"latestVolumeCount":1862,"latestVolumeDate":"2024-05-22","extractedAt":"2025-08-01T20:23:53Z"}}]}