{"type":"FeatureCollection","features":[{"type":"Feature","geometry":{"type":"Point","coordinates":[-97.771911,32.733979]},"properties":{"locationId":"184H2001","locatedOn":"IH0020","locOnAlias":"IH0020-KG","type":"SPOT","category":"ANNUAL ACR","routeType":"IH","route":"0020","active":"Yes","fnctClass":"(1)Interstate","latestAadt":716488,"latestAadtYear":2024,"latestDhv30":null,"latestKPercent":null,"latestDPercent":null,"latestVolumeCount":null,"latestVolumeDate":null,"extractedAt":"2025-08-02T03:36:41Z"}},{"type":"Feature","geometry":{"type":"Point","coordinates":[-97.772075,32.733483]},"properties":{"locationId":"184H2001EBSR","locatedOn":"IH0020","locOnAlias":"IH0020-AG","type":"SPOT","category":"ANNUAL ACR","routeType":"IH","route":"0020","active":"Yes","fnctClass":"(5)Major Collector","latestAadt":2977,"latestAadtYear":2024,"latestDhv30":356,"latestKPercent":12,"latestDPercent":null,"latestVolumeCount":3184,"latestVolumeDate":"2024-05-08","extractedAt":"2025-08-02T03:36:54Z"}},{"type":"Feature","geometry":{"type":"Point","coordinates":[-97.771981,32.734354]},"properties":{"locationId":"184H2001WBSR","locatedOn":"IH0020","locOnAlias":"IH0020-XG","type":"SPOT","category":"ANNUAL ACR","routeType":"IH","route":"0020","active":"Yes","fnctClass":"(5)Major Collector","latestAadt":3416,"latestAadtYear":2024,"latestDhv30":321,"latestKPercent":9,"latestDPercent":null,"latestVolumeCount":3654,"latestVolumeDate":"2024-05-08","extractedAt":"2025-08-02T03:37:08Z"}},{"type":"Feature","geometry":{"type":"Point","coordinates":[-97.769165,32.73472]},"properties":{"locationId":"184RP2015","locatedOn":"IH0020","locOnAlias":"","type":"SPOT","category":"RAMP","routeType":"","route":"","active":"Yes","fnctClass":"(1)Interstate","latestAadt":13068,"latestAadtYear":2024,"latestDhv30":150,"latestKPercent":11,"latestDPercent":null,"latestVolumeCount":1327,"latestVolumeDate":"2024-04-10","extractedAt":"2025-08-02T13:47:57Z"}}]}