{"type":"FeatureCollection","features":[{"type":"Feature","geometry":{"type":"Point","coordinates":[-97.685584,32.765777]},"properties":{"locationId":"184FS316","locatedOn":"CR0000","locOnAlias":"184AA1172","type":"SPOT","category":"URBAN ACR","routeType":"CR","route":"0000","active":"Yes","fnctClass":"(7)Local","latestAadt":710,"latestAadtYear":2024,"latestDhv30":75,"latestKPercent":11,"latestDPercent":null,"latestVolumeCount":726,"latestVolumeDate":"2024-05-21","extractedAt":"2025-08-02T00:41:55Z"}}]}