{"type":"FeatureCollection","features":[{"type":"Feature","geometry":{"type":"Point","coordinates":[-97.821255,32.759722]},"properties":{"locationId":"184T10A","locatedOn":"US0180","locOnAlias":"US0180-KG","type":"SPOT","category":"ANNUAL ACR","routeType":"US","route":"0180","active":"Yes","fnctClass":"(4)Minor Arterial","latestAadt":9462,"latestAadtYear":2024,"latestDhv30":979,"latestKPercent":10,"latestDPercent":57,"latestVolumeCount":10923,"latestVolumeDate":"2024-05-13","extractedAt":"2025-08-02T15:33:05Z"}}]}