{"type":"FeatureCollection","features":[{"type":"Feature","geometry":{"type":"Point","coordinates":[-97.820352,32.730429]},"properties":{"locationId":"184HP8030","locatedOn":"BOWIE","locOnAlias":"250313","type":"SPOT","category":"URBAN ACR","routeType":"FC","route":"0000","active":"Yes","fnctClass":"(4)Minor Arterial","latestAadt":6856,"latestAadtYear":2024,"latestDhv30":839,"latestKPercent":12,"latestDPercent":null,"latestVolumeCount":7750,"latestVolumeDate":"2024-05-08","extractedAt":"2025-08-02T12:52:19Z"}},{"type":"Feature","geometry":{"type":"Point","coordinates":[-97.817615,32.73137]},"properties":{"locationId":"184HP9","locatedOn":"W Park Ave","locOnAlias":"250325","type":"SPOT","category":"ANNUAL ACR","routeType":"FC","route":"0000","active":"Yes","fnctClass":"(4)Minor Arterial","latestAadt":1829,"latestAadtYear":2024,"latestDhv30":275,"latestKPercent":15,"latestDPercent":61,"latestVolumeCount":1930,"latestVolumeDate":"2024-05-15","extractedAt":"2025-08-02T13:16:07Z"}},{"type":"Feature","geometry":{"type":"Point","coordinates":[-97.819848,32.728084]},"properties":{"locationId":"184RP207R","locatedOn":"IH0020","locOnAlias":"IH0020-KG","type":"SPOT","category":"RAMP","routeType":"IH","route":"0020","active":"Yes","fnctClass":"(1)Interstate","latestAadt":22398,"latestAadtYear":2024,"latestDhv30":223,"latestKPercent":10,"latestDPercent":null,"latestVolumeCount":2557,"latestVolumeDate":"2024-04-08","extractedAt":"2025-08-02T14:17:45Z"}},{"type":"Feature","geometry":{"type":"Point","coordinates":[-97.817827,32.728387]},"properties":{"locationId":"184RP208R","locatedOn":"IH0020","locOnAlias":"IH0020-KG","type":"SPOT","category":"RAMP","routeType":"IH","route":"0020","active":"Yes","fnctClass":"(1)Interstate","latestAadt":25978,"latestAadtYear":2024,"latestDhv30":251,"latestKPercent":10,"latestDPercent":null,"latestVolumeCount":2618,"latestVolumeDate":"2024-04-08","extractedAt":"2025-08-02T14:18:01Z"}}]}