{"type":"FeatureCollection","features":[{"type":"Feature","geometry":{"type":"Point","coordinates":[-97.810755,32.792269]},"properties":{"locationId":"184CR338","locatedOn":"-","locOnAlias":"","type":"SPOT","category":"URBAN ACR","routeType":"","route":"","active":"Yes","fnctClass":"(7)Local","latestAadt":665,"latestAadtYear":2024,"latestDhv30":59,"latestKPercent":9,"latestDPercent":null,"latestVolumeCount":641,"latestVolumeDate":"2024-05-15","extractedAt":"2025-08-01T21:10:14Z"}},{"type":"Feature","geometry":{"type":"Point","coordinates":[-97.801685,32.788099]},"properties":{"locationId":"184U3576","locatedOn":"-","locOnAlias":"","type":"SPOT","category":"INACTIVE","routeType":"","route":"","active":"No","fnctClass":"(-)-","latestAadt":1113,"latestAadtYear":2014,"latestDhv30":169,"latestKPercent":15,"latestDPercent":null,"latestVolumeCount":1582,"latestVolumeDate":"2014-04-23","extractedAt":"2025-08-02T16:06:07Z"}}]}