{"type":"FeatureCollection","features":[{"type":"Feature","geometry":{"type":"Point","coordinates":[-97.808826,32.778757]},"properties":{"locationId":"184CR337A","locatedOn":"-","locOnAlias":"","type":"SPOT","category":"URBAN ACR","routeType":"","route":"","active":"Yes","fnctClass":"(7)Local","latestAadt":1210,"latestAadtYear":2024,"latestDhv30":135,"latestKPercent":11,"latestDPercent":null,"latestVolumeCount":1168,"latestVolumeDate":"2024-05-15","extractedAt":"2025-08-01T21:09:58Z"}},{"type":"Feature","geometry":{"type":"Point","coordinates":[-97.805437,32.775248]},"properties":{"locationId":"184U21","locatedOn":"FM0920","locOnAlias":"FM0920-KG","type":"SPOT","category":"URBAN ACR","routeType":"FM","route":"920","active":"Yes","fnctClass":"(5)Major Collector","latestAadt":11434,"latestAadtYear":2024,"latestDhv30":1039,"latestKPercent":9,"latestDPercent":null,"latestVolumeCount":12639,"latestVolumeDate":"2024-05-15","extractedAt":"2025-08-02T16:04:51Z"}},{"type":"Feature","geometry":{"type":"Point","coordinates":[-97.811502,32.783913]},"properties":{"locationId":"184U3577","locatedOn":"-","locOnAlias":"","type":"SPOT","category":"INACTIVE","routeType":"","route":"","active":"No","fnctClass":"(3)Principal Arterial-Other","latestAadt":21033,"latestAadtYear":2015,"latestDhv30":null,"latestKPercent":15,"latestDPercent":null,"latestVolumeCount":2934,"latestVolumeDate":"2014-04-23","extractedAt":"2025-08-02T16:06:19Z"}},{"type":"Feature","geometry":{"type":"Point","coordinates":[-97.820191,32.776137]},"properties":{"locationId":"184U3578","locatedOn":"-","locOnAlias":"","type":"SPOT","category":"INACTIVE","routeType":"","route":"","active":"No","fnctClass":"(-)-","latestAadt":2963,"latestAadtYear":2014,"latestDhv30":420,"latestKPercent":14,"latestDPercent":null,"latestVolumeCount":4236,"latestVolumeDate":"2014-04-23","extractedAt":"2025-08-02T16:06:35Z"}}]}