{"type":"FeatureCollection","features":[{"type":"Feature","geometry":{"type":"Point","coordinates":[-97.815129,32.727921]},"properties":{"locationId":"184H2002","locatedOn":"IH0020","locOnAlias":"IH0020-KG","type":"SPOT","category":"ANNUAL ACR","routeType":"IH","route":"0020","active":"Yes","fnctClass":"(1)Interstate","latestAadt":499558,"latestAadtYear":2024,"latestDhv30":null,"latestKPercent":null,"latestDPercent":null,"latestVolumeCount":null,"latestVolumeDate":null,"extractedAt":"2025-08-02T03:37:24Z"}},{"type":"Feature","geometry":{"type":"Point","coordinates":[-97.814681,32.72752]},"properties":{"locationId":"184H2002EBSR","locatedOn":"IH0020","locOnAlias":"IH0020-AG","type":"SPOT","category":"ANNUAL ACR","routeType":"IH","route":"0020","active":"Yes","fnctClass":"(5)Major Collector","latestAadt":103163,"latestAadtYear":2024,"latestDhv30":null,"latestKPercent":null,"latestDPercent":null,"latestVolumeCount":10939,"latestVolumeDate":"2023-07-19","extractedAt":"2025-08-02T03:37:38Z"}},{"type":"Feature","geometry":{"type":"Point","coordinates":[-97.814616,32.728251]},"properties":{"locationId":"184H2002WBSR","locatedOn":"IH0020","locOnAlias":"IH0020-XG","type":"SPOT","category":"ANNUAL ACR","routeType":"IH","route":"0020","active":"Yes","fnctClass":"(5)Major Collector","latestAadt":127383,"latestAadtYear":2024,"latestDhv30":null,"latestKPercent":null,"latestDPercent":null,"latestVolumeCount":13354,"latestVolumeDate":"2023-07-19","extractedAt":"2025-08-02T03:37:53Z"}},{"type":"Feature","geometry":{"type":"Point","coordinates":[-97.813966,32.721591]},"properties":{"locationId":"184HP6005","locatedOn":"WBB FIELDER","locOnAlias":"","type":"SPOT","category":"URBAN ACR","routeType":"","route":"","active":"Yes","fnctClass":"(6)Minor Collector","latestAadt":2746,"latestAadtYear":2024,"latestDhv30":332,"latestKPercent":12,"latestDPercent":74,"latestVolumeCount":2854,"latestVolumeDate":"2024-05-15","extractedAt":"2025-08-02T12:43:49Z"}},{"type":"Feature","geometry":{"type":"Point","coordinates":[-97.820352,32.730429]},"properties":{"locationId":"184HP8030","locatedOn":"BOWIE","locOnAlias":"250313","type":"SPOT","category":"URBAN ACR","routeType":"FC","route":"0000","active":"Yes","fnctClass":"(4)Minor Arterial","latestAadt":6856,"latestAadtYear":2024,"latestDhv30":839,"latestKPercent":12,"latestDPercent":null,"latestVolumeCount":7750,"latestVolumeDate":"2024-05-08","extractedAt":"2025-08-02T12:52:19Z"}},{"type":"Feature","geometry":{"type":"Point","coordinates":[-97.80881,32.720585]},"properties":{"locationId":"184HP8059","locatedOn":"WBB FIELDER","locOnAlias":"","type":"SPOT","category":"URBAN ACR","routeType":"","route":"","active":"Yes","fnctClass":"(5)Major Collector","latestAadt":3129,"latestAadtYear":2024,"latestDhv30":null,"latestKPercent":null,"latestDPercent":null,"latestVolumeCount":3181,"latestVolumeDate":"2019-05-15","extractedAt":"2025-08-02T13:15:23Z"}},{"type":"Feature","geometry":{"type":"Point","coordinates":[-97.817615,32.73137]},"properties":{"locationId":"184HP9","locatedOn":"W Park Ave","locOnAlias":"250325","type":"SPOT","category":"ANNUAL ACR","routeType":"FC","route":"0000","active":"Yes","fnctClass":"(4)Minor Arterial","latestAadt":1829,"latestAadtYear":2024,"latestDhv30":275,"latestKPercent":15,"latestDPercent":61,"latestVolumeCount":1930,"latestVolumeDate":"2024-05-15","extractedAt":"2025-08-02T13:16:07Z"}},{"type":"Feature","geometry":{"type":"Point","coordinates":[-97.810124,32.7278]},"properties":{"locationId":"184RP2010R","locatedOn":"IH0020","locOnAlias":"IH0020-KG","type":"SPOT","category":"RAMP","routeType":"IH","route":"0020","active":"Yes","fnctClass":"(1)Interstate","latestAadt":57568,"latestAadtYear":2024,"latestDhv30":519,"latestKPercent":9,"latestDPercent":null,"latestVolumeCount":5900,"latestVolumeDate":"2024-05-01","extractedAt":"2025-08-02T13:40:00Z"}},{"type":"Feature","geometry":{"type":"Point","coordinates":[-97.819848,32.728084]},"properties":{"locationId":"184RP207R","locatedOn":"IH0020","locOnAlias":"IH0020-KG","type":"SPOT","category":"RAMP","routeType":"IH","route":"0020","active":"Yes","fnctClass":"(1)Interstate","latestAadt":22398,"latestAadtYear":2024,"latestDhv30":223,"latestKPercent":10,"latestDPercent":null,"latestVolumeCount":2557,"latestVolumeDate":"2024-04-08","extractedAt":"2025-08-02T14:17:45Z"}},{"type":"Feature","geometry":{"type":"Point","coordinates":[-97.817827,32.728387]},"properties":{"locationId":"184RP208R","locatedOn":"IH0020","locOnAlias":"IH0020-KG","type":"SPOT","category":"RAMP","routeType":"IH","route":"0020","active":"Yes","fnctClass":"(1)Interstate","latestAadt":25978,"latestAadtYear":2024,"latestDhv30":251,"latestKPercent":10,"latestDPercent":null,"latestVolumeCount":2618,"latestVolumeDate":"2024-04-08","extractedAt":"2025-08-02T14:18:01Z"}},{"type":"Feature","geometry":{"type":"Point","coordinates":[-97.812394,32.727488]},"properties":{"locationId":"184RP209","locatedOn":"IH0020","locOnAlias":"IH0020-KG","type":"SPOT","category":"RAMP","routeType":"IH","route":"0020","active":"Yes","fnctClass":"(1)Interstate","latestAadt":47478,"latestAadtYear":2024,"latestDhv30":452,"latestKPercent":10,"latestDPercent":null,"latestVolumeCount":4244,"latestVolumeDate":"2024-04-08","extractedAt":"2025-08-02T14:23:41Z"}}]}