{"type":"FeatureCollection","features":[{"type":"Feature","geometry":{"type":"Point","coordinates":[-97.802089,32.698307]},"properties":{"locationId":"184CR228","locatedOn":"NAHARMONY","locOnAlias":"","type":"SPOT","category":"URBAN ACR","routeType":"","route":"","active":"Yes","fnctClass":"(6)Minor Collector","latestAadt":675,"latestAadtYear":2024,"latestDhv30":69,"latestKPercent":10,"latestDPercent":null,"latestVolumeCount":699,"latestVolumeDate":"2024-05-15","extractedAt":"2025-08-01T19:58:52Z"}}]}