{"type":"FeatureCollection","features":[{"type":"Feature","geometry":{"type":"Point","coordinates":[-97.816337,32.626804]},"properties":{"locationId":"184FS4","locatedOn":"CR0000","locOnAlias":"184AA0959","type":"SPOT","category":"INACTIVE","routeType":"CR","route":"0000","active":"No","fnctClass":"(7)Local","latestAadt":291,"latestAadtYear":2019,"latestDhv30":32,"latestKPercent":11,"latestDPercent":null,"latestVolumeCount":314,"latestVolumeDate":"2019-05-15","extractedAt":"2025-08-02T00:55:08Z"}},{"type":"Feature","geometry":{"type":"Point","coordinates":[-97.816337,32.626804]},"properties":{"locationId":"184FS4","locatedOn":"CR0000","locOnAlias":"184AA0959","type":"SPOT","category":"INACTIVE","routeType":"CR","route":"0000","active":"No","fnctClass":"(7)Local","latestAadt":291,"latestAadtYear":2019,"latestDhv30":32,"latestKPercent":11,"latestDPercent":null,"latestVolumeCount":314,"latestVolumeDate":"2019-05-15","extractedAt":"2025-08-02T01:10:27Z"}}]}