{"type":"FeatureCollection","features":[{"type":"Feature","geometry":{"type":"Point","coordinates":[-97.727721,32.9004]},"properties":{"locationId":"184CR174","locatedOn":"-","locOnAlias":"","type":"SPOT","category":"URBAN ACR","routeType":"","route":"","active":"Yes","fnctClass":"(5)Major Collector","latestAadt":1965,"latestAadtYear":2024,"latestDhv30":178,"latestKPercent":9,"latestDPercent":null,"latestVolumeCount":2070,"latestVolumeDate":"2024-05-22","extractedAt":"2025-08-01T19:30:33Z"}},{"type":"Feature","geometry":{"type":"Point","coordinates":[-97.662913,32.889789]},"properties":{"locationId":"184CR31C","locatedOn":"-","locOnAlias":"","type":"SPOT","category":"URBAN ACR","routeType":"","route":"","active":"Yes","fnctClass":"(6)Minor Collector","latestAadt":1155,"latestAadtYear":2024,"latestDhv30":115,"latestKPercent":10,"latestDPercent":null,"latestVolumeCount":1202,"latestVolumeDate":"2024-05-22","extractedAt":"2025-08-01T20:38:57Z"}},{"type":"Feature","geometry":{"type":"Point","coordinates":[-97.731597,32.851009]},"properties":{"locationId":"184CR5A","locatedOn":"-","locOnAlias":"","type":"SPOT","category":"URBAN ACR","routeType":"","route":"","active":"Yes","fnctClass":"(6)Minor Collector","latestAadt":811,"latestAadtYear":2024,"latestDhv30":93,"latestKPercent":12,"latestDPercent":null,"latestVolumeCount":831,"latestVolumeDate":"2024-05-22","extractedAt":"2025-08-01T21:26:01Z"}},{"type":"Feature","geometry":{"type":"Point","coordinates":[-97.657297,32.909795]},"properties":{"locationId":"184CR8D","locatedOn":"-","locOnAlias":"","type":"SPOT","category":"URBAN ACR","routeType":"","route":"","active":"Yes","fnctClass":"(7)Local","latestAadt":1153,"latestAadtYear":2024,"latestDhv30":109,"latestKPercent":10,"latestDPercent":null,"latestVolumeCount":1162,"latestVolumeDate":"2024-05-22","extractedAt":"2025-08-01T23:11:32Z"}},{"type":"Feature","geometry":{"type":"Point","coordinates":[-97.703784,32.842774]},"properties":{"locationId":"184FS24","locatedOn":"CR0000","locOnAlias":"184AA0261","type":"SPOT","category":"URBAN ACR","routeType":"CR","route":"0000","active":"Yes","fnctClass":"(6)Minor Collector","latestAadt":624,"latestAadtYear":2024,"latestDhv30":63,"latestKPercent":10,"latestDPercent":null,"latestVolumeCount":640,"latestVolumeDate":"2024-05-22","extractedAt":"2025-08-02T00:11:37Z"}},{"type":"Feature","geometry":{"type":"Point","coordinates":[-97.6832,32.884697]},"properties":{"locationId":"184FS34","locatedOn":"CR0000","locOnAlias":"184AA1533","type":"SPOT","category":"URBAN ACR","routeType":"CR","route":"0000","active":"Yes","fnctClass":"(7)Local","latestAadt":39,"latestAadtYear":2024,"latestDhv30":5,"latestKPercent":15,"latestDPercent":null,"latestVolumeCount":39,"latestVolumeDate":"2024-05-22","extractedAt":"2025-08-02T00:43:01Z"}},{"type":"Feature","geometry":{"type":"Point","coordinates":[-97.681341,32.906524]},"properties":{"locationId":"184HP6004","locatedOn":"Old Springtown Rd","locOnAlias":"184AA0172","type":"SPOT","category":"URBAN ACR","routeType":"CR","route":"0172","active":"Yes","fnctClass":"(6)Minor Collector","latestAadt":1066,"latestAadtYear":2024,"latestDhv30":107,"latestKPercent":10,"latestDPercent":null,"latestVolumeCount":1144,"latestVolumeDate":"2024-05-22","extractedAt":"2025-08-02T12:43:31Z"}}]}