{"type":"FeatureCollection","features":[{"type":"Feature","geometry":{"type":"Point","coordinates":[-97.716662,32.82466]},"properties":{"locationId":"184CR225","locatedOn":"NAUPPER DENTON","locOnAlias":"","type":"SPOT","category":"URBAN ACR","routeType":"","route":"","active":"Yes","fnctClass":"(6)Minor Collector","latestAadt":296,"latestAadtYear":2019,"latestDhv30":29,"latestKPercent":10,"latestDPercent":null,"latestVolumeCount":325,"latestVolumeDate":"2019-05-13","extractedAt":"2025-08-01T19:58:04Z"}},{"type":"Feature","geometry":{"type":"Point","coordinates":[-97.729969,32.780662]},"properties":{"locationId":"184CR312","locatedOn":"-","locOnAlias":"","type":"SPOT","category":"URBAN ACR","routeType":"","route":"","active":"Yes","fnctClass":"(5)Major Collector","latestAadt":233,"latestAadtYear":2024,"latestDhv30":27,"latestKPercent":12,"latestDPercent":null,"latestVolumeCount":244,"latestVolumeDate":"2024-05-21","extractedAt":"2025-08-01T20:24:47Z"}},{"type":"Feature","geometry":{"type":"Point","coordinates":[-97.716614,32.77786]},"properties":{"locationId":"184CR312B","locatedOn":"-","locOnAlias":"","type":"SPOT","category":"URBAN ACR","routeType":"","route":"","active":"Yes","fnctClass":"(5)Major Collector","latestAadt":2881,"latestAadtYear":2024,"latestDhv30":314,"latestKPercent":11,"latestDPercent":null,"latestVolumeCount":2984,"latestVolumeDate":"2024-05-21","extractedAt":"2025-08-01T20:25:17Z"}},{"type":"Feature","geometry":{"type":"Point","coordinates":[-97.725979,32.786203]},"properties":{"locationId":"184CR313","locatedOn":"-","locOnAlias":"","type":"SPOT","category":"URBAN ACR","routeType":"","route":"","active":"Yes","fnctClass":"(7)Local","latestAadt":1309,"latestAadtYear":2024,"latestDhv30":122,"latestKPercent":9,"latestDPercent":null,"latestVolumeCount":1301,"latestVolumeDate":"2024-05-21","extractedAt":"2025-08-01T20:30:48Z"}},{"type":"Feature","geometry":{"type":"Point","coordinates":[-97.716176,32.787831]},"properties":{"locationId":"184CR314","locatedOn":"-","locOnAlias":"","type":"SPOT","category":"URBAN ACR","routeType":"","route":"","active":"Yes","fnctClass":"(7)Local","latestAadt":349,"latestAadtYear":2024,"latestDhv30":41,"latestKPercent":12,"latestDPercent":null,"latestVolumeCount":347,"latestVolumeDate":"2024-05-21","extractedAt":"2025-08-01T20:31:05Z"}},{"type":"Feature","geometry":{"type":"Point","coordinates":[-97.704916,32.797581]},"properties":{"locationId":"184CR315","locatedOn":"-","locOnAlias":"","type":"SPOT","category":"URBAN ACR","routeType":"","route":"","active":"Yes","fnctClass":"(7)Local","latestAadt":738,"latestAadtYear":2024,"latestDhv30":87,"latestKPercent":12,"latestDPercent":null,"latestVolumeCount":742,"latestVolumeDate":"2024-05-21","extractedAt":"2025-08-01T20:31:18Z"}},{"type":"Feature","geometry":{"type":"Point","coordinates":[-97.64907,32.78802]},"properties":{"locationId":"184CR317A","locatedOn":"White Settlement Rd","locOnAlias":"298066","type":"SPOT","category":"ANNUAL ACR","routeType":"LS","route":"0000","active":"Yes","fnctClass":"(6)Minor Collector","latestAadt":749,"latestAadtYear":2024,"latestDhv30":89,"latestKPercent":12,"latestDPercent":53,"latestVolumeCount":722,"latestVolumeDate":"2024-05-14","extractedAt":"2025-08-01T20:31:47Z"}},{"type":"Feature","geometry":{"type":"Point","coordinates":[-97.646792,32.789786]},"properties":{"locationId":"184CR317B","locatedOn":"-","locOnAlias":"","type":"SPOT","category":"URBAN ACR","routeType":"","route":"","active":"Yes","fnctClass":"(7)Local","latestAadt":84,"latestAadtYear":2024,"latestDhv30":10,"latestKPercent":13,"latestDPercent":null,"latestVolumeCount":86,"latestVolumeDate":"2024-05-21","extractedAt":"2025-08-01T20:32:03Z"}},{"type":"Feature","geometry":{"type":"Point","coordinates":[-97.659178,32.838312]},"properties":{"locationId":"184CR35","locatedOn":"Tucker","locOnAlias":"184AA0125","type":"SPOT","category":"URBAN ACR","routeType":"CR","route":"0000","active":"Yes","fnctClass":"(7)Local","latestAadt":1734,"latestAadtYear":2024,"latestDhv30":185,"latestKPercent":11,"latestDPercent":null,"latestVolumeCount":1733,"latestVolumeDate":"2024-05-21","extractedAt":"2025-08-01T21:17:49Z"}},{"type":"Feature","geometry":{"type":"Point","coordinates":[-97.698523,32.809344]},"properties":{"locationId":"184CR52","locatedOn":"-","locOnAlias":"","type":"SPOT","category":"URBAN ACR","routeType":"","route":"","active":"Yes","fnctClass":"(7)Local","latestAadt":1230,"latestAadtYear":2024,"latestDhv30":124,"latestKPercent":10,"latestDPercent":null,"latestVolumeCount":1224,"latestVolumeDate":"2024-05-21","extractedAt":"2025-08-01T21:25:19Z"}},{"type":"Feature","geometry":{"type":"Point","coordinates":[-97.714693,32.826655]},"properties":{"locationId":"184CR52A","locatedOn":"-","locOnAlias":"","type":"SPOT","category":"URBAN ACR","routeType":"","route":"","active":"Yes","fnctClass":"(7)Local","latestAadt":862,"latestAadtYear":2024,"latestDhv30":81,"latestKPercent":9,"latestDPercent":null,"latestVolumeCount":839,"latestVolumeDate":"2024-05-22","extractedAt":"2025-08-01T21:25:33Z"}},{"type":"Feature","geometry":{"type":"Point","coordinates":[-97.712364,32.833161]},"properties":{"locationId":"184CR5B","locatedOn":"-","locOnAlias":"","type":"SPOT","category":"URBAN ACR","routeType":"","route":"","active":"Yes","fnctClass":"(6)Minor Collector","latestAadt":1070,"latestAadtYear":2024,"latestDhv30":113,"latestKPercent":11,"latestDPercent":null,"latestVolumeCount":1098,"latestVolumeDate":"2024-05-22","extractedAt":"2025-08-01T21:26:15Z"}},{"type":"Feature","geometry":{"type":"Point","coordinates":[-97.666613,32.780044]},"properties":{"locationId":"184FS312","locatedOn":"CR0000","locOnAlias":"184AA1900","type":"SPOT","category":"URBAN ACR","routeType":"CR","route":"0000","active":"Yes","fnctClass":"(7)Local","latestAadt":40,"latestAadtYear":2024,"latestDhv30":6,"latestKPercent":17,"latestDPercent":null,"latestVolumeCount":41,"latestVolumeDate":"2024-05-21","extractedAt":"2025-08-02T00:40:49Z"}},{"type":"Feature","geometry":{"type":"Point","coordinates":[-97.700992,32.80655]},"properties":{"locationId":"184H20","locatedOn":"FM0730","locOnAlias":"FM0730-KG","type":"SPOT","category":"ANNUAL ACR","routeType":"FM","route":"0730","active":"Yes","fnctClass":"(5)Major Collector","latestAadt":78673,"latestAadtYear":2024,"latestDhv30":null,"latestKPercent":null,"latestDPercent":null,"latestVolumeCount":7784,"latestVolumeDate":"2023-07-19","extractedAt":"2025-08-02T03:31:04Z"}},{"type":"Feature","geometry":{"type":"Point","coordinates":[-97.698983,32.787738]},"properties":{"locationId":"184RS23","locatedOn":"NALAKEVIEW","locOnAlias":"","type":"SPOT","category":"URBAN ACR","routeType":"","route":"","active":"Yes","fnctClass":"(7)Local","latestAadt":279,"latestAadtYear":2024,"latestDhv30":24,"latestKPercent":9,"latestDPercent":null,"latestVolumeCount":278,"latestVolumeDate":"2024-05-21","extractedAt":"2025-08-02T15:17:54Z"}},{"type":"Feature","geometry":{"type":"Point","coordinates":[-97.721111,32.776839]},"properties":{"locationId":"184RS27","locatedOn":"SILVERSTONE","locOnAlias":"","type":"SPOT","category":"URBAN ACR","routeType":"","route":"","active":"Yes","fnctClass":"(7)Local","latestAadt":936,"latestAadtYear":2024,"latestDhv30":160,"latestKPercent":17,"latestDPercent":null,"latestVolumeCount":931,"latestVolumeDate":"2024-05-21","extractedAt":"2025-08-02T15:18:56Z"}},{"type":"Feature","geometry":{"type":"Point","coordinates":[-97.661776,32.808056]},"properties":{"locationId":"184RS8","locatedOn":"NAPEARSON RANCH","locOnAlias":"","type":"SPOT","category":"URBAN ACR","routeType":"","route":"","active":"Yes","fnctClass":"(7)Local","latestAadt":75,"latestAadtYear":2024,"latestDhv30":7,"latestKPercent":11,"latestDPercent":null,"latestVolumeCount":75,"latestVolumeDate":"2024-05-21","extractedAt":"2025-08-02T15:25:59Z"}},{"type":"Feature","geometry":{"type":"Point","coordinates":[-97.684191,32.810998]},"properties":{"locationId":"184U15","locatedOn":"FM0730","locOnAlias":"FM0730-KG","type":"SPOT","category":"URBAN ACR","routeType":"FM","route":"730","active":"Yes","fnctClass":"(5)Major Collector","latestAadt":null,"latestAadtYear":null,"latestDhv30":null,"latestKPercent":null,"latestDPercent":null,"latestVolumeCount":null,"latestVolumeDate":null,"extractedAt":"2025-08-02T15:57:59Z"}}]}