{"type":"FeatureCollection","features":[{"type":"Feature","geometry":{"type":"Point","coordinates":[-97.69712,32.755769]},"properties":{"locationId":"184CC1","locatedOn":"GS0000","locOnAlias":"20010","type":"SPOT","category":"RAMP","routeType":"GS","route":"0000","active":"Yes","fnctClass":"(1)Interstate","latestAadt":8388,"latestAadtYear":2024,"latestDhv30":660,"latestKPercent":8,"latestDPercent":null,"latestVolumeCount":8746,"latestVolumeDate":"2024-04-10","extractedAt":"2025-08-01T19:06:31Z"}},{"type":"Feature","geometry":{"type":"Point","coordinates":[-97.653144,32.766614]},"properties":{"locationId":"184CR317","locatedOn":"-","locOnAlias":"","type":"SPOT","category":"URBAN ACR","routeType":"","route":"","active":"Yes","fnctClass":"(5)Major Collector","latestAadt":1055,"latestAadtYear":2019,"latestDhv30":131,"latestKPercent":12,"latestDPercent":null,"latestVolumeCount":1282,"latestVolumeDate":"2019-05-06","extractedAt":"2025-08-01T20:31:32Z"}},{"type":"Feature","geometry":{"type":"Point","coordinates":[-97.651349,32.743381]},"properties":{"locationId":"184CR318","locatedOn":"-","locOnAlias":"","type":"SPOT","category":"INACTIVE","routeType":"","route":"","active":"No","fnctClass":"(7)Local","latestAadt":590,"latestAadtYear":2019,"latestDhv30":79,"latestKPercent":13,"latestDPercent":null,"latestVolumeCount":635,"latestVolumeDate":"2019-05-08","extractedAt":"2025-08-01T20:32:19Z"}},{"type":"Feature","geometry":{"type":"Point","coordinates":[-97.653083,32.74162]},"properties":{"locationId":"184CR318A","locatedOn":"-","locOnAlias":"","type":"SPOT","category":"URBAN ACR","routeType":"","route":"","active":"Yes","fnctClass":"(7)Local","latestAadt":1519,"latestAadtYear":2024,"latestDhv30":149,"latestKPercent":10,"latestDPercent":null,"latestVolumeCount":1643,"latestVolumeDate":"2024-05-13","extractedAt":"2025-08-01T20:32:32Z"}},{"type":"Feature","geometry":{"type":"Point","coordinates":[-97.666759,32.746727]},"properties":{"locationId":"184CR320","locatedOn":"-","locOnAlias":"","type":"SPOT","category":"URBAN ACR","routeType":"","route":"","active":"Yes","fnctClass":"(7)Local","latestAadt":322,"latestAadtYear":2024,"latestDhv30":40,"latestKPercent":13,"latestDPercent":null,"latestVolumeCount":350,"latestVolumeDate":"2024-05-13","extractedAt":"2025-08-01T20:39:27Z"}},{"type":"Feature","geometry":{"type":"Point","coordinates":[-97.670961,32.739305]},"properties":{"locationId":"184CR321","locatedOn":"-","locOnAlias":"","type":"SPOT","category":"URBAN ACR","routeType":"","route":"","active":"Yes","fnctClass":"(5)Major Collector","latestAadt":846,"latestAadtYear":2024,"latestDhv30":117,"latestKPercent":14,"latestDPercent":null,"latestVolumeCount":862,"latestVolumeDate":"2024-05-13","extractedAt":"2025-08-01T20:39:43Z"}},{"type":"Feature","geometry":{"type":"Point","coordinates":[-97.673059,32.738456]},"properties":{"locationId":"184CR322","locatedOn":"-","locOnAlias":"","type":"SPOT","category":"INACTIVE","routeType":"","route":"","active":"No","fnctClass":"(5)Major Collector","latestAadt":1411,"latestAadtYear":2019,"latestDhv30":180,"latestKPercent":13,"latestDPercent":null,"latestVolumeCount":1745,"latestVolumeDate":"2019-05-08","extractedAt":"2025-08-01T20:39:58Z"}},{"type":"Feature","geometry":{"type":"Point","coordinates":[-97.677097,32.719537]},"properties":{"locationId":"184CR322A","locatedOn":"-","locOnAlias":"","type":"SPOT","category":"URBAN ACR","routeType":"","route":"","active":"Yes","fnctClass":"(7)Local","latestAadt":785,"latestAadtYear":2024,"latestDhv30":71,"latestKPercent":9,"latestDPercent":null,"latestVolumeCount":819,"latestVolumeDate":"2024-05-13","extractedAt":"2025-08-01T20:40:13Z"}},{"type":"Feature","geometry":{"type":"Point","coordinates":[-97.674234,32.749431]},"properties":{"locationId":"184CR323","locatedOn":"-","locOnAlias":"","type":"SPOT","category":"URBAN ACR","routeType":"","route":"","active":"Yes","fnctClass":"(5)Major Collector","latestAadt":6602,"latestAadtYear":2024,"latestDhv30":565,"latestKPercent":9,"latestDPercent":null,"latestVolumeCount":6673,"latestVolumeDate":"2024-05-13","extractedAt":"2025-08-01T20:40:29Z"}},{"type":"Feature","geometry":{"type":"Point","coordinates":[-97.673487,32.752015]},"properties":{"locationId":"184CR323A","locatedOn":"-","locOnAlias":"","type":"SPOT","category":"URBAN ACR","routeType":"","route":"","active":"Yes","fnctClass":"(7)Local","latestAadt":3264,"latestAadtYear":2024,"latestDhv30":297,"latestKPercent":9,"latestDPercent":null,"latestVolumeCount":3539,"latestVolumeDate":"2024-05-13","extractedAt":"2025-08-01T20:40:44Z"}},{"type":"Feature","geometry":{"type":"Point","coordinates":[-97.686059,32.753216]},"properties":{"locationId":"184CR324","locatedOn":"-","locOnAlias":"","type":"SPOT","category":"URBAN ACR","routeType":"","route":"","active":"Yes","fnctClass":"(7)Local","latestAadt":241,"latestAadtYear":2019,"latestDhv30":31,"latestKPercent":13,"latestDPercent":null,"latestVolumeCount":259,"latestVolumeDate":"2019-05-08","extractedAt":"2025-08-01T20:40:57Z"}},{"type":"Feature","geometry":{"type":"Point","coordinates":[-97.698881,32.757352]},"properties":{"locationId":"184CR325","locatedOn":"-","locOnAlias":"","type":"SPOT","category":"URBAN ACR","routeType":"","route":"","active":"Yes","fnctClass":"(5)Major Collector","latestAadt":9701,"latestAadtYear":2024,"latestDhv30":920,"latestKPercent":9,"latestDPercent":51,"latestVolumeCount":9801,"latestVolumeDate":"2024-05-13","extractedAt":"2025-08-01T20:46:39Z"}},{"type":"Feature","geometry":{"type":"Point","coordinates":[-97.707466,32.753057]},"properties":{"locationId":"184CR325A","locatedOn":"Newell Dr","locOnAlias":"297488","type":"SPOT","category":"URBAN ACR","routeType":"LS","route":"0000","active":"Yes","fnctClass":"(6)Minor Collector","latestAadt":526,"latestAadtYear":2024,"latestDhv30":49,"latestKPercent":9,"latestDPercent":null,"latestVolumeCount":524,"latestVolumeDate":"2024-05-13","extractedAt":"2025-08-01T20:46:53Z"}},{"type":"Feature","geometry":{"type":"Point","coordinates":[-97.699129,32.753452]},"properties":{"locationId":"184CR325B","locatedOn":"-","locOnAlias":"","type":"SPOT","category":"URBAN ACR","routeType":"","route":"","active":"Yes","fnctClass":"(7)Local","latestAadt":1684,"latestAadtYear":2024,"latestDhv30":172,"latestKPercent":10,"latestDPercent":null,"latestVolumeCount":1811,"latestVolumeDate":"2024-05-13","extractedAt":"2025-08-01T20:47:06Z"}},{"type":"Feature","geometry":{"type":"Point","coordinates":[-97.710674,32.75781]},"properties":{"locationId":"184CR326","locatedOn":"-","locOnAlias":"","type":"SPOT","category":"URBAN ACR","routeType":"","route":"","active":"Yes","fnctClass":"(5)Major Collector","latestAadt":6994,"latestAadtYear":2024,"latestDhv30":597,"latestKPercent":9,"latestDPercent":null,"latestVolumeCount":7195,"latestVolumeDate":"2024-05-21","extractedAt":"2025-08-01T20:47:21Z"}},{"type":"Feature","geometry":{"type":"Point","coordinates":[-97.728794,32.748658]},"properties":{"locationId":"184CR327A","locatedOn":"-","locOnAlias":"","type":"SPOT","category":"URBAN ACR","routeType":"","route":"","active":"Yes","fnctClass":"(6)Minor Collector","latestAadt":868,"latestAadtYear":2024,"latestDhv30":71,"latestKPercent":8,"latestDPercent":null,"latestVolumeCount":866,"latestVolumeDate":"2024-05-13","extractedAt":"2025-08-01T20:47:34Z"}},{"type":"Feature","geometry":{"type":"Point","coordinates":[-97.727718,32.74678]},"properties":{"locationId":"184CR328","locatedOn":"-","locOnAlias":"","type":"SPOT","category":"URBAN ACR","routeType":"","route":"","active":"Yes","fnctClass":"(6)Minor Collector","latestAadt":1486,"latestAadtYear":2024,"latestDhv30":156,"latestKPercent":11,"latestDPercent":null,"latestVolumeCount":1479,"latestVolumeDate":"2024-05-13","extractedAt":"2025-08-01T20:47:47Z"}},{"type":"Feature","geometry":{"type":"Point","coordinates":[-97.721055,32.731718]},"properties":{"locationId":"184CR328A","locatedOn":"-","locOnAlias":"","type":"SPOT","category":"URBAN ACR","routeType":"","route":"","active":"Yes","fnctClass":"(6)Minor Collector","latestAadt":1645,"latestAadtYear":2024,"latestDhv30":163,"latestKPercent":10,"latestDPercent":null,"latestVolumeCount":1621,"latestVolumeDate":"2024-05-13","extractedAt":"2025-08-01T20:48:01Z"}},{"type":"Feature","geometry":{"type":"Point","coordinates":[-97.718924,32.724676]},"properties":{"locationId":"184CR328B","locatedOn":"Dixon Rd","locOnAlias":"289916","type":"SPOT","category":"URBAN ACR","routeType":"FC","route":"0000","active":"Yes","fnctClass":"(6)Minor Collector","latestAadt":618,"latestAadtYear":2024,"latestDhv30":63,"latestKPercent":10,"latestDPercent":null,"latestVolumeCount":610,"latestVolumeDate":"2024-05-13","extractedAt":"2025-08-01T20:48:17Z"}},{"type":"Feature","geometry":{"type":"Point","coordinates":[-97.695942,32.712005]},"properties":{"locationId":"184CR328C","locatedOn":"-","locOnAlias":"","type":"SPOT","category":"INACTIVE","routeType":"","route":"","active":"No","fnctClass":"(6)Minor Collector","latestAadt":1258,"latestAadtYear":2019,"latestDhv30":130,"latestKPercent":10,"latestDPercent":null,"latestVolumeCount":1364,"latestVolumeDate":"2019-05-15","extractedAt":"2025-08-01T20:48:34Z"}},{"type":"Feature","geometry":{"type":"Point","coordinates":[-97.727008,32.742708]},"properties":{"locationId":"184CR329B","locatedOn":"-","locOnAlias":"","type":"SPOT","category":"URBAN ACR","routeType":"","route":"","active":"Yes","fnctClass":"(5)Major Collector","latestAadt":1796,"latestAadtYear":2024,"latestDhv30":211,"latestKPercent":12,"latestDPercent":null,"latestVolumeCount":1824,"latestVolumeDate":"2024-05-13","extractedAt":"2025-08-01T20:54:24Z"}},{"type":"Feature","geometry":{"type":"Point","coordinates":[-97.679896,32.74883]},"properties":{"locationId":"184CR332B","locatedOn":"-","locOnAlias":"","type":"SPOT","category":"URBAN ACR","routeType":"","route":"","active":"Yes","fnctClass":"(7)Local","latestAadt":310,"latestAadtYear":2024,"latestDhv30":35,"latestKPercent":11,"latestDPercent":null,"latestVolumeCount":335,"latestVolumeDate":"2024-05-13","extractedAt":"2025-08-01T20:55:24Z"}},{"type":"Feature","geometry":{"type":"Point","coordinates":[-97.647736,32.74085]},"properties":{"locationId":"184CR340","locatedOn":"Meadow Place Dr","locOnAlias":"CR0000","type":"SPOT","category":"URBAN ACR","routeType":"CR","route":"0000","active":"Yes","fnctClass":"(7)Local","latestAadt":823,"latestAadtYear":2024,"latestDhv30":91,"latestKPercent":11,"latestDPercent":null,"latestVolumeCount":893,"latestVolumeDate":"2024-05-13","extractedAt":"2025-08-01T21:11:43Z"}},{"type":"Feature","geometry":{"type":"Point","coordinates":[-97.674023,32.705508]},"properties":{"locationId":"184CR67C","locatedOn":"-","locOnAlias":"","type":"SPOT","category":"URBAN ACR","routeType":"","route":"","active":"Yes","fnctClass":"(7)Local","latestAadt":3467,"latestAadtYear":2024,"latestDhv30":368,"latestKPercent":11,"latestDPercent":null,"latestVolumeCount":3617,"latestVolumeDate":"2024-05-13","extractedAt":"2025-08-01T21:27:31Z"}},{"type":"Feature","geometry":{"type":"Point","coordinates":[-97.711506,32.763383]},"properties":{"locationId":"184FS301","locatedOn":"FC0000","locOnAlias":"297467","type":"SPOT","category":"INACTIVE","routeType":"FC","route":"0000","active":"No","fnctClass":"(5)Major Collector","latestAadt":61333,"latestAadtYear":2022,"latestDhv30":null,"latestKPercent":null,"latestDPercent":null,"latestVolumeCount":4537,"latestVolumeDate":"2014-04-22","extractedAt":"2025-08-02T00:33:31Z"}},{"type":"Feature","geometry":{"type":"Point","coordinates":[-97.706362,32.760682]},"properties":{"locationId":"184FS304F","locatedOn":"-","locOnAlias":"","type":"SPOT","category":"INACTIVE","routeType":"","route":"","active":"No","fnctClass":"(7)Local","latestAadt":925,"latestAadtYear":2019,"latestDhv30":121,"latestKPercent":13,"latestDPercent":null,"latestVolumeCount":968,"latestVolumeDate":"2019-05-06","extractedAt":"2025-08-02T00:33:44Z"}},{"type":"Feature","geometry":{"type":"Point","coordinates":[-97.692532,32.755442]},"properties":{"locationId":"184FS305","locatedOn":"LS0000","locOnAlias":"1132827","type":"SPOT","category":"URBAN ACR","routeType":"LS","route":"0000","active":"Yes","fnctClass":"(7)Local","latestAadt":376,"latestAadtYear":2024,"latestDhv30":37,"latestKPercent":10,"latestDPercent":null,"latestVolumeCount":406,"latestVolumeDate":"2024-05-13","extractedAt":"2025-08-02T00:34:01Z"}},{"type":"Feature","geometry":{"type":"Point","coordinates":[-97.698041,32.760701]},"properties":{"locationId":"184FS306","locatedOn":"CR0000","locOnAlias":"184AA2071","type":"SPOT","category":"INACTIVE","routeType":"CR","route":"0000","active":"No","fnctClass":"(7)Local","latestAadt":209,"latestAadtYear":2019,"latestDhv30":22,"latestKPercent":11,"latestDPercent":null,"latestVolumeCount":219,"latestVolumeDate":"2019-05-06","extractedAt":"2025-08-02T00:34:15Z"}},{"type":"Feature","geometry":{"type":"Point","coordinates":[-97.688477,32.707509]},"properties":{"locationId":"184FS310F","locatedOn":"-","locOnAlias":"","type":"SPOT","category":"INACTIVE","routeType":"","route":"","active":"No","fnctClass":"(6)Minor Collector","latestAadt":1110,"latestAadtYear":2009,"latestDhv30":null,"latestKPercent":null,"latestDPercent":null,"latestVolumeCount":null,"latestVolumeDate":null,"extractedAt":"2025-08-02T00:35:00Z"}},{"type":"Feature","geometry":{"type":"Point","coordinates":[-97.699882,32.760673]},"properties":{"locationId":"184FS311","locatedOn":"LS0000","locOnAlias":"1132791","type":"SPOT","category":"URBAN ACR","routeType":"LS","route":"0000","active":"Yes","fnctClass":"(7)Local","latestAadt":1305,"latestAadtYear":2024,"latestDhv30":157,"latestKPercent":12,"latestDPercent":null,"latestVolumeCount":1334,"latestVolumeDate":"2024-05-21","extractedAt":"2025-08-02T00:35:15Z"}},{"type":"Feature","geometry":{"type":"Point","coordinates":[-97.685584,32.765777]},"properties":{"locationId":"184FS316","locatedOn":"CR0000","locOnAlias":"184AA1172","type":"SPOT","category":"URBAN ACR","routeType":"CR","route":"0000","active":"Yes","fnctClass":"(7)Local","latestAadt":710,"latestAadtYear":2024,"latestDhv30":75,"latestKPercent":11,"latestDPercent":null,"latestVolumeCount":726,"latestVolumeDate":"2024-05-21","extractedAt":"2025-08-02T00:41:55Z"}},{"type":"Feature","geometry":{"type":"Point","coordinates":[-97.692177,32.762383]},"properties":{"locationId":"184FS318","locatedOn":"CR0000","locOnAlias":"184AA1195","type":"SPOT","category":"URBAN ACR","routeType":"CR","route":"0000","active":"Yes","fnctClass":"(5)Major Collector","latestAadt":1506,"latestAadtYear":2024,"latestDhv30":165,"latestKPercent":11,"latestDPercent":null,"latestVolumeCount":1575,"latestVolumeDate":"2024-05-21","extractedAt":"2025-08-02T00:42:25Z"}},{"type":"Feature","geometry":{"type":"Point","coordinates":[-97.70094,32.763604]},"properties":{"locationId":"184FS33","locatedOn":"LS0000","locOnAlias":"1250776","type":"SPOT","category":"INACTIVE","routeType":"LS","route":"0000","active":"No","fnctClass":"(7)Local","latestAadt":282,"latestAadtYear":2014,"latestDhv30":34,"latestKPercent":16,"latestDPercent":null,"latestVolumeCount":294,"latestVolumeDate":"2014-04-21","extractedAt":"2025-08-02T00:42:42Z"}},{"type":"Feature","geometry":{"type":"Point","coordinates":[-97.650058,32.739426]},"properties":{"locationId":"184H2004","locatedOn":"IH0020","locOnAlias":"IH0020-KG","type":"SPOT","category":"ANNUAL ACR","routeType":"IH","route":"0020","active":"Yes","fnctClass":"(1)Interstate","latestAadt":951248,"latestAadtYear":2024,"latestDhv30":null,"latestKPercent":null,"latestDPercent":null,"latestVolumeCount":null,"latestVolumeDate":null,"extractedAt":"2025-08-02T03:38:09Z"}},{"type":"Feature","geometry":{"type":"Point","coordinates":[-97.650206,32.739037]},"properties":{"locationId":"184H2004EBSR","locatedOn":"IH0020","locOnAlias":"IH0020-AG","type":"SPOT","category":"ANNUAL ACR","routeType":"IH","route":"0020","active":"Yes","fnctClass":"(5)Major Collector","latestAadt":1504,"latestAadtYear":2024,"latestDhv30":131,"latestKPercent":9,"latestDPercent":null,"latestVolumeCount":1534,"latestVolumeDate":"2024-06-04","extractedAt":"2025-08-02T03:38:23Z"}},{"type":"Feature","geometry":{"type":"Point","coordinates":[-97.650502,32.739979]},"properties":{"locationId":"184H2004WBSR","locatedOn":"IH0020","locOnAlias":"IH0020-XG","type":"SPOT","category":"ANNUAL ACR","routeType":"IH","route":"0020","active":"Yes","fnctClass":"(5)Major Collector","latestAadt":9380,"latestAadtYear":2024,"latestDhv30":997,"latestKPercent":11,"latestDPercent":null,"latestVolumeCount":9565,"latestVolumeDate":"2024-06-04","extractedAt":"2025-08-02T03:38:37Z"}},{"type":"Feature","geometry":{"type":"Point","coordinates":[-97.689846,32.708036]},"properties":{"locationId":"184HP8","locatedOn":"Airport Rd","locOnAlias":"297487","type":"SPOT","category":"ANNUAL ACR","routeType":"FC","route":"0000","active":"Yes","fnctClass":"(6)Minor Collector","latestAadt":11493,"latestAadtYear":2024,"latestDhv30":null,"latestKPercent":null,"latestDPercent":null,"latestVolumeCount":1336,"latestVolumeDate":"2023-07-17","extractedAt":"2025-08-02T12:44:20Z"}},{"type":"Feature","geometry":{"type":"Point","coordinates":[-97.676344,32.764715]},"properties":{"locationId":"184HP8041","locatedOn":"MIKUS RD","locOnAlias":"267319","type":"SPOT","category":"URBAN ACR","routeType":"FC","route":"0000","active":"Yes","fnctClass":"(5)Major Collector","latestAadt":2766,"latestAadtYear":2024,"latestDhv30":296,"latestKPercent":11,"latestDPercent":null,"latestVolumeCount":2892,"latestVolumeDate":"2024-05-21","extractedAt":"2025-08-02T13:00:08Z"}},{"type":"Feature","geometry":{"type":"Point","coordinates":[-97.724224,32.744136]},"properties":{"locationId":"184HP8048","locatedOn":"EBANKHEAD","locOnAlias":"","type":"SPOT","category":"URBAN ACR","routeType":"","route":"","active":"Yes","fnctClass":"(5)Major Collector","latestAadt":1308,"latestAadtYear":2024,"latestDhv30":134,"latestKPercent":10,"latestDPercent":null,"latestVolumeCount":1326,"latestVolumeDate":"2024-05-13","extractedAt":"2025-08-02T13:07:13Z"}},{"type":"Feature","geometry":{"type":"Point","coordinates":[-97.731872,32.740876]},"properties":{"locationId":"184HP8049","locatedOn":"EBANKHEAD","locOnAlias":"","type":"SPOT","category":"URBAN ACR","routeType":"","route":"","active":"Yes","fnctClass":"(5)Major Collector","latestAadt":2352,"latestAadtYear":2019,"latestDhv30":283,"latestKPercent":12,"latestDPercent":null,"latestVolumeCount":2895,"latestVolumeDate":"2019-05-08","extractedAt":"2025-08-02T13:07:27Z"}},{"type":"Feature","geometry":{"type":"Point","coordinates":[-97.698929,32.761531]},"properties":{"locationId":"184HP8051","locatedOn":"NALAKESHORE","locOnAlias":"","type":"SPOT","category":"URBAN ACR","routeType":"","route":"","active":"Yes","fnctClass":"(5)Major Collector","latestAadt":4190,"latestAadtYear":2024,"latestDhv30":380,"latestKPercent":9,"latestDPercent":null,"latestVolumeCount":4381,"latestVolumeDate":"2024-05-21","extractedAt":"2025-08-02T13:07:56Z"}},{"type":"Feature","geometry":{"type":"Point","coordinates":[-97.674516,32.768446]},"properties":{"locationId":"184HP8055","locatedOn":"ELAKE","locOnAlias":"","type":"SPOT","category":"URBAN ACR","routeType":"","route":"","active":"Yes","fnctClass":"(5)Major Collector","latestAadt":2440,"latestAadtYear":2024,"latestDhv30":227,"latestKPercent":9,"latestDPercent":null,"latestVolumeCount":2551,"latestVolumeDate":"2024-05-21","extractedAt":"2025-08-02T13:09:01Z"}},{"type":"Feature","geometry":{"type":"Point","coordinates":[-97.711752,32.755152]},"properties":{"locationId":"184HP8057","locatedOn":"SOAKRIDGE","locOnAlias":"","type":"SPOT","category":"URBAN ACR","routeType":"","route":"","active":"Yes","fnctClass":"(5)Major Collector","latestAadt":5009,"latestAadtYear":2024,"latestDhv30":433,"latestKPercent":9,"latestDPercent":null,"latestVolumeCount":5237,"latestVolumeDate":"2024-05-21","extractedAt":"2025-08-02T13:14:57Z"}},{"type":"Feature","geometry":{"type":"Point","coordinates":[-97.73368,32.746613]},"properties":{"locationId":"184RP2021A","locatedOn":"IH0020","locOnAlias":"IH0020-KG","type":"SPOT","category":"RAMP","routeType":"IH","route":"0020","active":"Yes","fnctClass":"(1)Interstate","latestAadt":37988,"latestAadtYear":2024,"latestDhv30":290,"latestKPercent":8,"latestDPercent":null,"latestVolumeCount":3863,"latestVolumeDate":"2024-04-10","extractedAt":"2025-08-02T13:55:30Z"}},{"type":"Feature","geometry":{"type":"Point","coordinates":[-97.731651,32.747718]},"properties":{"locationId":"184RP2022A","locatedOn":"IH0020","locOnAlias":"IH0020-KG","type":"SPOT","category":"RAMP","routeType":"IH","route":"0020","active":"Yes","fnctClass":"(1)Interstate","latestAadt":34108,"latestAadtYear":2024,"latestDhv30":419,"latestKPercent":12,"latestDPercent":null,"latestVolumeCount":3570,"latestVolumeDate":"2024-04-10","extractedAt":"2025-08-02T13:56:17Z"}},{"type":"Feature","geometry":{"type":"Point","coordinates":[-97.702696,32.754731]},"properties":{"locationId":"184RP2023","locatedOn":"IH0020","locOnAlias":"","type":"SPOT","category":"RAMP","routeType":"","route":"","active":"Yes","fnctClass":"(1)Interstate","latestAadt":33508,"latestAadtYear":2024,"latestDhv30":295,"latestKPercent":9,"latestDPercent":null,"latestVolumeCount":3609,"latestVolumeDate":"2024-04-10","extractedAt":"2025-08-02T13:56:48Z"}},{"type":"Feature","geometry":{"type":"Point","coordinates":[-97.723264,32.749406]},"properties":{"locationId":"184RP2023A","locatedOn":"IH0020","locOnAlias":"IH0020-KG","type":"SPOT","category":"RAMP","routeType":"IH","route":"0020","active":"Yes","fnctClass":"(1)Interstate","latestAadt":12788,"latestAadtYear":2024,"latestDhv30":184,"latestKPercent":14,"latestDPercent":null,"latestVolumeCount":1380,"latestVolumeDate":"2024-04-10","extractedAt":"2025-08-02T13:57:04Z"}},{"type":"Feature","geometry":{"type":"Point","coordinates":[-97.712488,32.762472]},"properties":{"locationId":"184RS12","locatedOn":"GARDNER","locOnAlias":"","type":"SPOT","category":"INACTIVE","routeType":"","route":"","active":"No","fnctClass":"(7)Local","latestAadt":102,"latestAadtYear":2019,"latestDhv30":12,"latestKPercent":12,"latestDPercent":null,"latestVolumeCount":107,"latestVolumeDate":"2019-05-06","extractedAt":"2025-08-02T14:25:32Z"}},{"type":"Feature","geometry":{"type":"Point","coordinates":[-97.663581,32.729869]},"properties":{"locationId":"184RS204A","locatedOn":"MCDAVID DR","locOnAlias":"184AA0854","type":"SPOT","category":"URBAN ACR","routeType":"CR","route":"854","active":"Yes","fnctClass":"(7)Local","latestAadt":429,"latestAadtYear":2024,"latestDhv30":52,"latestKPercent":12,"latestDPercent":null,"latestVolumeCount":462,"latestVolumeDate":"2024-05-13","extractedAt":"2025-08-02T15:17:10Z"}}]}