{"type":"FeatureCollection","features":[{"type":"Feature","geometry":{"type":"Point","coordinates":[-97.723068,32.687179]},"properties":{"locationId":"184CR211","locatedOn":"NABEAR CREEK","locOnAlias":"","type":"SPOT","category":"URBAN ACR","routeType":"","route":"","active":"Yes","fnctClass":"(7)Local","latestAadt":1315,"latestAadtYear":2024,"latestDhv30":140,"latestKPercent":11,"latestDPercent":null,"latestVolumeCount":1418,"latestVolumeDate":"2024-05-13","extractedAt":"2025-08-01T19:43:10Z"}},{"type":"Feature","geometry":{"type":"Point","coordinates":[-97.661182,32.679423]},"properties":{"locationId":"184CR232","locatedOn":"BRANCH HOLLOW","locOnAlias":"","type":"SPOT","category":"URBAN ACR","routeType":"","route":"","active":"Yes","fnctClass":"(7)Local","latestAadt":261,"latestAadtYear":2024,"latestDhv30":59,"latestKPercent":23,"latestDPercent":null,"latestVolumeCount":271,"latestVolumeDate":"2024-05-13","extractedAt":"2025-08-01T19:59:49Z"}},{"type":"Feature","geometry":{"type":"Point","coordinates":[-97.682096,32.68142]},"properties":{"locationId":"184CR67","locatedOn":"-","locOnAlias":"","type":"SPOT","category":"URBAN ACR","routeType":"","route":"","active":"Yes","fnctClass":"(7)Local","latestAadt":3001,"latestAadtYear":2024,"latestDhv30":344,"latestKPercent":11,"latestDPercent":null,"latestVolumeCount":3127,"latestVolumeDate":"2024-05-13","extractedAt":"2025-08-01T21:26:46Z"}},{"type":"Feature","geometry":{"type":"Point","coordinates":[-97.669328,32.65436]},"properties":{"locationId":"184CR67D","locatedOn":"-","locOnAlias":"","type":"SPOT","category":"URBAN ACR","routeType":"","route":"","active":"Yes","fnctClass":"(7)Local","latestAadt":986,"latestAadtYear":2024,"latestDhv30":139,"latestKPercent":14,"latestDPercent":null,"latestVolumeCount":1055,"latestVolumeDate":"2024-05-13","extractedAt":"2025-08-01T21:32:46Z"}}]}