{"type":"FeatureCollection","features":[{"type":"Feature","geometry":{"type":"Point","coordinates":[-97.726388,32.573811]},"properties":{"locationId":"184CR73A","locatedOn":"-","locOnAlias":"","type":"SPOT","category":"INACTIVE","routeType":"","route":"","active":"No","fnctClass":"(7)Local","latestAadt":87,"latestAadtYear":2019,"latestDhv30":11,"latestKPercent":13,"latestDPercent":null,"latestVolumeCount":94,"latestVolumeDate":"2019-05-15","extractedAt":"2025-08-01T21:35:05Z"}},{"type":"Feature","geometry":{"type":"Point","coordinates":[-97.72584,32.604332]},"properties":{"locationId":"184CR74A","locatedOn":"-","locOnAlias":"","type":"SPOT","category":"INACTIVE","routeType":"","route":"","active":"No","fnctClass":"(7)Local","latestAadt":88,"latestAadtYear":2019,"latestDhv30":12,"latestKPercent":14,"latestDPercent":null,"latestVolumeCount":95,"latestVolumeDate":"2019-05-15","extractedAt":"2025-08-01T22:46:25Z"}},{"type":"Feature","geometry":{"type":"Point","coordinates":[-97.697584,32.558572]},"properties":{"locationId":"184D7A","locatedOn":"FM3450","locOnAlias":"FM3450-KG","type":"SPOT","category":"INACTIVE","routeType":"FM","route":"3450","active":"No","fnctClass":"(5)Major Collector","latestAadt":2078,"latestAadtYear":2019,"latestDhv30":219,"latestKPercent":11,"latestDPercent":null,"latestVolumeCount":2980,"latestVolumeDate":"2019-04-17","extractedAt":"2025-08-01T23:50:58Z"}}]}