{"type":"FeatureCollection","features":[{"type":"Feature","geometry":{"type":"Point","coordinates":[-97.670961,32.739305]},"properties":{"locationId":"184CR321","locatedOn":"-","locOnAlias":"","type":"SPOT","category":"URBAN ACR","routeType":"","route":"","active":"Yes","fnctClass":"(5)Major Collector","latestAadt":846,"latestAadtYear":2024,"latestDhv30":117,"latestKPercent":14,"latestDPercent":null,"latestVolumeCount":862,"latestVolumeDate":"2024-05-13","extractedAt":"2025-08-01T20:39:43Z"}},{"type":"Feature","geometry":{"type":"Point","coordinates":[-97.673059,32.738456]},"properties":{"locationId":"184CR322","locatedOn":"-","locOnAlias":"","type":"SPOT","category":"INACTIVE","routeType":"","route":"","active":"No","fnctClass":"(5)Major Collector","latestAadt":1411,"latestAadtYear":2019,"latestDhv30":180,"latestKPercent":13,"latestDPercent":null,"latestVolumeCount":1745,"latestVolumeDate":"2019-05-08","extractedAt":"2025-08-01T20:39:58Z"}}]}