{"type":"FeatureCollection","features":[{"type":"Feature","geometry":{"type":"Point","coordinates":[-97.922155,32.886269]},"properties":{"locationId":"184CR142","locatedOn":"-","locOnAlias":"","type":"SPOT","category":"URBAN ACR","routeType":"","route":"","active":"Yes","fnctClass":"(7)Local","latestAadt":806,"latestAadtYear":2024,"latestDhv30":77,"latestKPercent":10,"latestDPercent":null,"latestVolumeCount":786,"latestVolumeDate":"2024-05-15","extractedAt":"2025-08-01T18:07:47Z"}},{"type":"Feature","geometry":{"type":"Point","coordinates":[-97.923626,32.892377]},"properties":{"locationId":"184CR142A","locatedOn":"-","locOnAlias":"","type":"SPOT","category":"URBAN ACR","routeType":"","route":"","active":"Yes","fnctClass":"(7)Local","latestAadt":669,"latestAadtYear":2024,"latestDhv30":59,"latestKPercent":9,"latestDPercent":null,"latestVolumeCount":653,"latestVolumeDate":"2024-05-15","extractedAt":"2025-08-01T18:08:03Z"}},{"type":"Feature","geometry":{"type":"Point","coordinates":[-97.927387,32.913136]},"properties":{"locationId":"184CR208","locatedOn":"NAADVANCE","locOnAlias":"","type":"SPOT","category":"URBAN ACR","routeType":"","route":"","active":"Yes","fnctClass":"(7)Local","latestAadt":472,"latestAadtYear":2024,"latestDhv30":44,"latestKPercent":9,"latestDPercent":null,"latestVolumeCount":460,"latestVolumeDate":"2024-05-15","extractedAt":"2025-08-01T19:42:26Z"}}]}