{"type":"FeatureCollection","features":[{"type":"Feature","geometry":{"type":"Point","coordinates":[-97.953528,32.741822]},"properties":{"locationId":"184CR107A","locatedOn":"-","locOnAlias":"","type":"SPOT","category":"INACTIVE","routeType":"","route":"","active":"No","fnctClass":"(7)Local","latestAadt":91,"latestAadtYear":2019,"latestDhv30":14,"latestKPercent":15,"latestDPercent":null,"latestVolumeCount":98,"latestVolumeDate":"2019-05-08","extractedAt":"2025-08-01T16:59:06Z"}},{"type":"Feature","geometry":{"type":"Point","coordinates":[-97.914811,32.756471]},"properties":{"locationId":"184CR108A","locatedOn":"-","locOnAlias":"","type":"SPOT","category":"INACTIVE","routeType":"","route":"","active":"No","fnctClass":"(6)Minor Collector","latestAadt":154,"latestAadtYear":2019,"latestDhv30":24,"latestKPercent":16,"latestDPercent":null,"latestVolumeCount":167,"latestVolumeDate":"2019-05-08","extractedAt":"2025-08-01T16:59:20Z"}}]}