{"type":"FeatureCollection","features":[{"type":"Feature","geometry":{"type":"Point","coordinates":[-97.932638,32.624226]},"properties":{"locationId":"184CR95","locatedOn":"-","locOnAlias":"","type":"SPOT","category":"URBAN ACR","routeType":"","route":"","active":"Yes","fnctClass":"(7)Local","latestAadt":648,"latestAadtYear":2024,"latestDhv30":81,"latestKPercent":13,"latestDPercent":null,"latestVolumeCount":641,"latestVolumeDate":"2024-05-15","extractedAt":"2025-08-01T23:31:05Z"}},{"type":"Feature","geometry":{"type":"Point","coordinates":[-97.943427,32.639564]},"properties":{"locationId":"184CR95A","locatedOn":"-","locOnAlias":"","type":"SPOT","category":"INACTIVE","routeType":"","route":"","active":"No","fnctClass":"(7)Local","latestAadt":76,"latestAadtYear":2014,"latestDhv30":14,"latestKPercent":18,"latestDPercent":null,"latestVolumeCount":79,"latestVolumeDate":"2014-04-23","extractedAt":"2025-08-01T23:31:19Z"}}]}