{"type":"FeatureCollection","features":[{"type":"Feature","geometry":{"type":"Point","coordinates":[-97.786227,32.730772]},"properties":{"locationId":"184PT16","locatedOn":"IH0020","locOnAlias":"IH0020-XG","type":"SPOT","category":"ANNUAL ACR","routeType":"IH","route":"0020","active":"Yes","fnctClass":"(5)Major Collector","latestAadt":15504,"latestAadtYear":2024,"latestDhv30":1285,"latestKPercent":8,"latestDPercent":null,"latestVolumeCount":15964,"latestVolumeDate":"2024-05-13","extractedAt":"2025-08-02T13:23:56Z"}},{"type":"Feature","geometry":{"type":"Point","coordinates":[-97.786346,32.73013]},"properties":{"locationId":"184RP2013","locatedOn":"IH0020","locOnAlias":"","type":"SPOT","category":"RAMP","routeType":"","route":"","active":"Yes","fnctClass":"(1)Interstate","latestAadt":11588,"latestAadtYear":2024,"latestDhv30":143,"latestKPercent":12,"latestDPercent":null,"latestVolumeCount":1380,"latestVolumeDate":"2024-04-10","extractedAt":"2025-08-02T13:46:56Z"}},{"type":"Feature","geometry":{"type":"Point","coordinates":[-97.784794,32.73093]},"properties":{"locationId":"184RP2014","locatedOn":"IH0020","locOnAlias":"IH0020-KG","type":"SPOT","category":"RAMP","routeType":"IH","route":"0020","active":"Yes","fnctClass":"(1)Interstate","latestAadt":22388,"latestAadtYear":2024,"latestDhv30":215,"latestKPercent":10,"latestDPercent":null,"latestVolumeCount":2367,"latestVolumeDate":"2024-04-10","extractedAt":"2025-08-02T13:47:28Z"}}]}