{"type":"FeatureCollection","features":[{"type":"Feature","geometry":{"type":"Point","coordinates":[-97.787593,32.749111]},"properties":{"locationId":"184HP8040","locatedOn":"Foster","locOnAlias":"290226","type":"SPOT","category":"URBAN ACR","routeType":"FC","route":"0000","active":"Yes","fnctClass":"(5)Major Collector","latestAadt":8820,"latestAadtYear":2024,"latestDhv30":812,"latestKPercent":9,"latestDPercent":55,"latestVolumeCount":9490,"latestVolumeDate":"2024-05-13","extractedAt":"2025-08-02T12:59:56Z"}}]}