{"type":"FeatureCollection","features":[{"type":"Feature","geometry":{"type":"Point","coordinates":[-97.786648,32.750375]},"properties":{"locationId":"184PT2","locatedOn":"Foster Ln","locOnAlias":"290226","type":"SPOT","category":"ANNUAL ACR","routeType":"LS","route":"0000","active":"Yes","fnctClass":"(5)Major Collector","latestAadt":11268,"latestAadtYear":2024,"latestDhv30":964,"latestKPercent":9,"latestDPercent":50,"latestVolumeCount":12593,"latestVolumeDate":"2024-05-22","extractedAt":"2025-08-02T13:24:11Z"}}]}