{"type":"FeatureCollection","features":[{"type":"Feature","geometry":{"type":"Point","coordinates":[-97.787922,32.741894]},"properties":{"locationId":"184HP8061","locatedOn":"COLLEGE PARK DR","locOnAlias":"290225","type":"SPOT","category":"URBAN ACR","routeType":"CS","route":"290225","active":"Yes","fnctClass":"(4)Minor Arterial","latestAadt":10006,"latestAadtYear":2024,"latestDhv30":942,"latestKPercent":9,"latestDPercent":null,"latestVolumeCount":12151,"latestVolumeDate":"2024-05-13","extractedAt":"2025-08-02T13:15:52Z"}}]}