{"type":"FeatureCollection","features":[{"type":"Feature","geometry":{"type":"Point","coordinates":[-97.78432,32.72512]},"properties":{"locationId":"184CR331A","locatedOn":"-","locOnAlias":"","type":"SPOT","category":"URBAN ACR","routeType":"","route":"","active":"Yes","fnctClass":"(7)Local","latestAadt":1826,"latestAadtYear":2024,"latestDhv30":178,"latestKPercent":10,"latestDPercent":null,"latestVolumeCount":1830,"latestVolumeDate":"2024-05-15","extractedAt":"2025-08-01T20:55:07Z"}},{"type":"Feature","geometry":{"type":"Point","coordinates":[-97.788827,32.724862]},"properties":{"locationId":"184HP8056","locatedOn":"WBB FIELDER","locOnAlias":"","type":"SPOT","category":"URBAN ACR","routeType":"","route":"","active":"Yes","fnctClass":"(5)Major Collector","latestAadt":5278,"latestAadtYear":2024,"latestDhv30":639,"latestKPercent":12,"latestDPercent":61,"latestVolumeCount":5560,"latestVolumeDate":"2024-05-15","extractedAt":"2025-08-02T13:09:15Z"}}]}