{"type":"FeatureCollection","features":[{"type":"Feature","geometry":{"type":"Point","coordinates":[-98.053772,32.831157]},"properties":{"locationId":"184CR127E","locatedOn":"-","locOnAlias":"","type":"SPOT","category":"INACTIVE","routeType":"","route":"","active":"No","fnctClass":"(7)Local","latestAadt":89,"latestAadtYear":2019,"latestDhv30":15,"latestKPercent":17,"latestDPercent":null,"latestVolumeCount":96,"latestVolumeDate":"2019-05-08","extractedAt":"2025-08-01T17:36:51Z"}},{"type":"Feature","geometry":{"type":"Point","coordinates":[-98.053428,32.829793]},"properties":{"locationId":"184CR127G","locatedOn":"-","locOnAlias":"","type":"SPOT","category":"URBAN ACR","routeType":"","route":"","active":"Yes","fnctClass":"(7)Local","latestAadt":153,"latestAadtYear":2024,"latestDhv30":17,"latestKPercent":12,"latestDPercent":null,"latestVolumeCount":152,"latestVolumeDate":"2024-05-08","extractedAt":"2025-08-01T17:37:21Z"}}]}