{"type":"FeatureCollection","features":[{"type":"Feature","geometry":{"type":"Point","coordinates":[-98.054933,32.81201]},"properties":{"locationId":"184HP8058","locatedOn":"WASHINGTON","locOnAlias":"","type":"SPOT","category":"URBAN ACR","routeType":"","route":"","active":"Yes","fnctClass":"(5)Major Collector","latestAadt":2929,"latestAadtYear":2024,"latestDhv30":271,"latestKPercent":9,"latestDPercent":73,"latestVolumeCount":3062,"latestVolumeDate":"2024-05-06","extractedAt":"2025-08-02T13:15:09Z"}}]}