{"type":"FeatureCollection","features":[{"type":"Feature","geometry":{"type":"Point","coordinates":[-97.731872,32.740876]},"properties":{"locationId":"184HP8049","locatedOn":"EBANKHEAD","locOnAlias":"","type":"SPOT","category":"URBAN ACR","routeType":"","route":"","active":"Yes","fnctClass":"(5)Major Collector","latestAadt":2352,"latestAadtYear":2019,"latestDhv30":283,"latestKPercent":12,"latestDPercent":null,"latestVolumeCount":2895,"latestVolumeDate":"2019-05-08","extractedAt":"2025-08-02T13:07:27Z"}}]}