{"type":"FeatureCollection","features":[{"type":"Feature","geometry":{"type":"Point","coordinates":[-97.728794,32.748658]},"properties":{"locationId":"184CR327A","locatedOn":"-","locOnAlias":"","type":"SPOT","category":"URBAN ACR","routeType":"","route":"","active":"Yes","fnctClass":"(6)Minor Collector","latestAadt":868,"latestAadtYear":2024,"latestDhv30":71,"latestKPercent":8,"latestDPercent":null,"latestVolumeCount":866,"latestVolumeDate":"2024-05-13","extractedAt":"2025-08-01T20:47:34Z"}},{"type":"Feature","geometry":{"type":"Point","coordinates":[-97.727718,32.74678]},"properties":{"locationId":"184CR328","locatedOn":"-","locOnAlias":"","type":"SPOT","category":"URBAN ACR","routeType":"","route":"","active":"Yes","fnctClass":"(6)Minor Collector","latestAadt":1486,"latestAadtYear":2024,"latestDhv30":156,"latestKPercent":11,"latestDPercent":null,"latestVolumeCount":1479,"latestVolumeDate":"2024-05-13","extractedAt":"2025-08-01T20:47:47Z"}},{"type":"Feature","geometry":{"type":"Point","coordinates":[-97.727008,32.742708]},"properties":{"locationId":"184CR329B","locatedOn":"-","locOnAlias":"","type":"SPOT","category":"URBAN ACR","routeType":"","route":"","active":"Yes","fnctClass":"(5)Major Collector","latestAadt":1796,"latestAadtYear":2024,"latestDhv30":211,"latestKPercent":12,"latestDPercent":null,"latestVolumeCount":1824,"latestVolumeDate":"2024-05-13","extractedAt":"2025-08-01T20:54:24Z"}},{"type":"Feature","geometry":{"type":"Point","coordinates":[-97.724224,32.744136]},"properties":{"locationId":"184HP8048","locatedOn":"EBANKHEAD","locOnAlias":"","type":"SPOT","category":"URBAN ACR","routeType":"","route":"","active":"Yes","fnctClass":"(5)Major Collector","latestAadt":1308,"latestAadtYear":2024,"latestDhv30":134,"latestKPercent":10,"latestDPercent":null,"latestVolumeCount":1326,"latestVolumeDate":"2024-05-13","extractedAt":"2025-08-02T13:07:13Z"}},{"type":"Feature","geometry":{"type":"Point","coordinates":[-97.73368,32.746613]},"properties":{"locationId":"184RP2021A","locatedOn":"IH0020","locOnAlias":"IH0020-KG","type":"SPOT","category":"RAMP","routeType":"IH","route":"0020","active":"Yes","fnctClass":"(1)Interstate","latestAadt":37988,"latestAadtYear":2024,"latestDhv30":290,"latestKPercent":8,"latestDPercent":null,"latestVolumeCount":3863,"latestVolumeDate":"2024-04-10","extractedAt":"2025-08-02T13:55:30Z"}},{"type":"Feature","geometry":{"type":"Point","coordinates":[-97.731651,32.747718]},"properties":{"locationId":"184RP2022A","locatedOn":"IH0020","locOnAlias":"IH0020-KG","type":"SPOT","category":"RAMP","routeType":"IH","route":"0020","active":"Yes","fnctClass":"(1)Interstate","latestAadt":34108,"latestAadtYear":2024,"latestDhv30":419,"latestKPercent":12,"latestDPercent":null,"latestVolumeCount":3570,"latestVolumeDate":"2024-04-10","extractedAt":"2025-08-02T13:56:17Z"}}]}