{"type":"FeatureCollection","features":[{"type":"Feature","geometry":{"type":"Point","coordinates":[-97.729969,32.780662]},"properties":{"locationId":"184CR312","locatedOn":"-","locOnAlias":"","type":"SPOT","category":"URBAN ACR","routeType":"","route":"","active":"Yes","fnctClass":"(5)Major Collector","latestAadt":233,"latestAadtYear":2024,"latestDhv30":27,"latestKPercent":12,"latestDPercent":null,"latestVolumeCount":244,"latestVolumeDate":"2024-05-21","extractedAt":"2025-08-01T20:24:47Z"}},{"type":"Feature","geometry":{"type":"Point","coordinates":[-97.725979,32.786203]},"properties":{"locationId":"184CR313","locatedOn":"-","locOnAlias":"","type":"SPOT","category":"URBAN ACR","routeType":"","route":"","active":"Yes","fnctClass":"(7)Local","latestAadt":1309,"latestAadtYear":2024,"latestDhv30":122,"latestKPercent":9,"latestDPercent":null,"latestVolumeCount":1301,"latestVolumeDate":"2024-05-21","extractedAt":"2025-08-01T20:30:48Z"}}]}