{"type":"FeatureCollection","features":[{"type":"Feature","geometry":{"type":"Point","coordinates":[-97.774112,32.739121]},"properties":{"locationId":"184HP8037","locatedOn":"Holland Lake Dr","locOnAlias":"267322","type":"SPOT","category":"INACTIVE","routeType":"FC","route":"0000","active":"No","fnctClass":"(5)Major Collector","latestAadt":51023,"latestAadtYear":2022,"latestDhv30":null,"latestKPercent":null,"latestDPercent":null,"latestVolumeCount":6325,"latestVolumeDate":"2019-05-06","extractedAt":"2025-08-02T12:59:11Z"}}]}