{"type":"FeatureCollection","features":[{"type":"Feature","geometry":{"type":"Point","coordinates":[-97.773835,32.732458]},"properties":{"locationId":"184PT7","locatedOn":"Fossil Hill Rd","locOnAlias":"1250504","type":"SPOT","category":"ANNUAL ACR","routeType":"LS","route":"0000","active":"Yes","fnctClass":"(7)Local","latestAadt":422,"latestAadtYear":2024,"latestDhv30":58,"latestKPercent":14,"latestDPercent":null,"latestVolumeCount":442,"latestVolumeDate":"2024-05-13","extractedAt":"2025-08-02T13:25:11Z"}},{"type":"Feature","geometry":{"type":"Point","coordinates":[-97.774195,32.733779]},"properties":{"locationId":"184PT8","locatedOn":"Holland Lake Dr","locOnAlias":"267322","type":"SPOT","category":"ANNUAL ACR","routeType":"LS","route":"0000","active":"Yes","fnctClass":"(5)Major Collector","latestAadt":60563,"latestAadtYear":2024,"latestDhv30":null,"latestKPercent":null,"latestDPercent":null,"latestVolumeCount":6257,"latestVolumeDate":"2023-07-19","extractedAt":"2025-08-02T13:30:50Z"}},{"type":"Feature","geometry":{"type":"Point","coordinates":[-97.775691,32.732936]},"properties":{"locationId":"184RP2014A","locatedOn":"IH0020","locOnAlias":"IH0020-KG","type":"SPOT","category":"RAMP","routeType":"IH","route":"0020","active":"Yes","fnctClass":"(1)Interstate","latestAadt":120848,"latestAadtYear":2024,"latestDhv30":1168,"latestKPercent":10,"latestDPercent":null,"latestVolumeCount":12684,"latestVolumeDate":"2024-04-10","extractedAt":"2025-08-02T13:47:43Z"}}]}