{"type":"FeatureCollection","features":[{"type":"Feature","geometry":{"type":"Point","coordinates":[-97.910122,32.844066]},"properties":{"locationId":"184CR143B","locatedOn":"-","locOnAlias":"","type":"SPOT","category":"INACTIVE","routeType":"","route":"","active":"No","fnctClass":"(7)Local","latestAadt":12,"latestAadtYear":2019,"latestDhv30":2,"latestKPercent":17,"latestDPercent":null,"latestVolumeCount":13,"latestVolumeDate":"2019-05-15","extractedAt":"2025-08-01T18:14:15Z"}},{"type":"Feature","geometry":{"type":"Point","coordinates":[-97.910115,32.851395]},"properties":{"locationId":"184CR231","locatedOn":"NACABANISS","locOnAlias":"","type":"SPOT","category":"URBAN ACR","routeType":"","route":"","active":"Yes","fnctClass":"(7)Local","latestAadt":159,"latestAadtYear":2024,"latestDhv30":17,"latestKPercent":11,"latestDPercent":null,"latestVolumeCount":156,"latestVolumeDate":"2024-05-15","extractedAt":"2025-08-01T19:59:37Z"}}]}