{"type":"FeatureCollection","features":[{"type":"Feature","geometry":{"type":"Point","coordinates":[-97.908631,32.637761]},"properties":{"locationId":"184CR92","locatedOn":"Old Dennis","locOnAlias":"184AA0411","type":"SPOT","category":"URBAN ACR","routeType":"CR","route":"0000","active":"Yes","fnctClass":"(6)Minor Collector","latestAadt":811,"latestAadtYear":2024,"latestDhv30":85,"latestKPercent":11,"latestDPercent":null,"latestVolumeCount":837,"latestVolumeDate":"2024-05-15","extractedAt":"2025-08-01T23:30:06Z"}}]}