{"type":"FeatureCollection","features":[{"type":"Feature","geometry":{"type":"Point","coordinates":[-97.606036,32.72924]},"properties":{"locationId":"184RP2035","locatedOn":"IH0020","locOnAlias":"","type":"SPOT","category":"RAMP","routeType":"","route":"","active":"Yes","fnctClass":"(1)Interstate","latestAadt":5877,"latestAadtYear":2024,"latestDhv30":513,"latestKPercent":9,"latestDPercent":null,"latestVolumeCount":6153,"latestVolumeDate":"2024-04-10","extractedAt":"2025-08-02T14:08:55Z"}},{"type":"Feature","geometry":{"type":"Point","coordinates":[-97.60418,32.729705]},"properties":{"locationId":"184RP2036","locatedOn":"IH0020","locOnAlias":"","type":"SPOT","category":"RAMP","routeType":"","route":"","active":"Yes","fnctClass":"(1)Interstate","latestAadt":5721,"latestAadtYear":2024,"latestDhv30":522,"latestKPercent":9,"latestDPercent":null,"latestVolumeCount":5954,"latestVolumeDate":"2024-04-10","extractedAt":"2025-08-02T14:09:09Z"}}]}