{"type":"FeatureCollection","features":[{"type":"Feature","geometry":{"type":"Point","coordinates":[-98.053428,32.829793]},"properties":{"locationId":"184CR127G","locatedOn":"-","locOnAlias":"","type":"SPOT","category":"URBAN ACR","routeType":"","route":"","active":"Yes","fnctClass":"(7)Local","latestAadt":153,"latestAadtYear":2024,"latestDhv30":17,"latestKPercent":12,"latestDPercent":null,"latestVolumeCount":152,"latestVolumeDate":"2024-05-08","extractedAt":"2025-08-01T17:37:21Z"}},{"type":"Feature","geometry":{"type":"Point","coordinates":[-98.059066,32.825478]},"properties":{"locationId":"184CR127H","locatedOn":"-","locOnAlias":"","type":"SPOT","category":"URBAN ACR","routeType":"","route":"","active":"Yes","fnctClass":"(5)Major Collector","latestAadt":550,"latestAadtYear":2019,"latestDhv30":76,"latestKPercent":14,"latestDPercent":null,"latestVolumeCount":665,"latestVolumeDate":"2019-05-08","extractedAt":"2025-08-01T17:37:37Z"}},{"type":"Feature","geometry":{"type":"Point","coordinates":[-98.053244,32.820424]},"properties":{"locationId":"184CR127J","locatedOn":"-","locOnAlias":"","type":"SPOT","category":"URBAN ACR","routeType":"","route":"","active":"Yes","fnctClass":"(5)Major Collector","latestAadt":1063,"latestAadtYear":2024,"latestDhv30":105,"latestKPercent":10,"latestDPercent":null,"latestVolumeCount":1120,"latestVolumeDate":"2024-05-08","extractedAt":"2025-08-01T17:37:53Z"}},{"type":"Feature","geometry":{"type":"Point","coordinates":[-98.054933,32.81201]},"properties":{"locationId":"184HP8058","locatedOn":"WASHINGTON","locOnAlias":"","type":"SPOT","category":"URBAN ACR","routeType":"","route":"","active":"Yes","fnctClass":"(5)Major Collector","latestAadt":2929,"latestAadtYear":2024,"latestDhv30":271,"latestKPercent":9,"latestDPercent":73,"latestVolumeCount":3062,"latestVolumeDate":"2024-05-06","extractedAt":"2025-08-02T13:15:09Z"}}]}