{"type":"FeatureCollection","features":[{"type":"Feature","geometry":{"type":"Point","coordinates":[-97.905504,32.723962]},"properties":{"locationId":"184FS16","locatedOn":"CR0000","locOnAlias":"184AA0507","type":"SPOT","category":"INACTIVE","routeType":"CR","route":"0000","active":"No","fnctClass":"(7)Local","latestAadt":24,"latestAadtYear":2019,"latestDhv30":6,"latestKPercent":25,"latestDPercent":null,"latestVolumeCount":26,"latestVolumeDate":"2019-05-15","extractedAt":"2025-08-02T00:10:38Z"}}]}