{"type":"FeatureCollection","features":[{"type":"Feature","geometry":{"type":"Point","coordinates":[-97.651349,32.743381]},"properties":{"locationId":"184CR318","locatedOn":"-","locOnAlias":"","type":"SPOT","category":"INACTIVE","routeType":"","route":"","active":"No","fnctClass":"(7)Local","latestAadt":590,"latestAadtYear":2019,"latestDhv30":79,"latestKPercent":13,"latestDPercent":null,"latestVolumeCount":635,"latestVolumeDate":"2019-05-08","extractedAt":"2025-08-01T20:32:19Z"}},{"type":"Feature","geometry":{"type":"Point","coordinates":[-97.653083,32.74162]},"properties":{"locationId":"184CR318A","locatedOn":"-","locOnAlias":"","type":"SPOT","category":"URBAN ACR","routeType":"","route":"","active":"Yes","fnctClass":"(7)Local","latestAadt":1519,"latestAadtYear":2024,"latestDhv30":149,"latestKPercent":10,"latestDPercent":null,"latestVolumeCount":1643,"latestVolumeDate":"2024-05-13","extractedAt":"2025-08-01T20:32:32Z"}}]}