{"type":"FeatureCollection","features":[{"type":"Feature","geometry":{"type":"Point","coordinates":[-97.995326,32.831636]},"properties":{"locationId":"184CR129","locatedOn":"-","locOnAlias":"","type":"SPOT","category":"URBAN ACR","routeType":"","route":"","active":"Yes","fnctClass":"(7)Local","latestAadt":907,"latestAadtYear":2024,"latestDhv30":95,"latestKPercent":11,"latestDPercent":null,"latestVolumeCount":884,"latestVolumeDate":"2024-05-15","extractedAt":"2025-08-01T17:38:09Z"}},{"type":"Feature","geometry":{"type":"Point","coordinates":[-97.989136,32.833167]},"properties":{"locationId":"184CR130A","locatedOn":"-","locOnAlias":"","type":"SPOT","category":"INACTIVE","routeType":"","route":"","active":"No","fnctClass":"(7)Local","latestAadt":12,"latestAadtYear":2019,"latestDhv30":3,"latestKPercent":25,"latestDPercent":null,"latestVolumeCount":13,"latestVolumeDate":"2019-05-15","extractedAt":"2025-08-01T17:38:41Z"}}]}