{"type":"FeatureCollection","features":[{"type":"Feature","geometry":{"type":"Point","coordinates":[-97.866327,32.866495]},"properties":{"locationId":"184CR147","locatedOn":"-","locOnAlias":"","type":"SPOT","category":"URBAN ACR","routeType":"","route":"","active":"Yes","fnctClass":"(7)Local","latestAadt":2684,"latestAadtYear":2024,"latestDhv30":653,"latestKPercent":24,"latestDPercent":null,"latestVolumeCount":2615,"latestVolumeDate":"2024-05-15","extractedAt":"2025-08-01T18:15:15Z"}},{"type":"Feature","geometry":{"type":"Point","coordinates":[-97.867364,32.871338]},"properties":{"locationId":"184T35","locatedOn":"FM0920","locOnAlias":"FM0920-KG","type":"SPOT","category":"ANNUAL ACR","routeType":"FM","route":"0920","active":"Yes","fnctClass":"(5)Major Collector","latestAadt":7115,"latestAadtYear":2024,"latestDhv30":918,"latestKPercent":13,"latestDPercent":null,"latestVolumeCount":7425,"latestVolumeDate":"2024-05-20","extractedAt":"2025-08-02T15:49:17Z"}}]}