{"type":"FeatureCollection","features":[{"type":"Feature","geometry":{"type":"Point","coordinates":[-98.048448,32.652837]},"properties":{"locationId":"184RP20111","locatedOn":"IH0020","locOnAlias":"IH0020-KG","type":"SPOT","category":"RAMP","routeType":"","route":"","active":"Yes","fnctClass":"(1)Interstate","latestAadt":598,"latestAadtYear":2024,"latestDhv30":7,"latestKPercent":12,"latestDPercent":null,"latestVolumeCount":44,"latestVolumeDate":"2024-04-08","extractedAt":"2025-08-02T13:40:43Z"}},{"type":"Feature","geometry":{"type":"Point","coordinates":[-98.048989,32.653169]},"properties":{"locationId":"184RP20112","locatedOn":"IH0020","locOnAlias":"IH0020-KG","type":"SPOT","category":"RAMP","routeType":"","route":"","active":"Yes","fnctClass":"(1)Interstate","latestAadt":528,"latestAadtYear":2024,"latestDhv30":7,"latestKPercent":13,"latestDPercent":null,"latestVolumeCount":59,"latestVolumeDate":"2024-12-11","extractedAt":"2025-08-02T13:41:00Z"}}]}