{"type":"FeatureCollection","features":[{"type":"Feature","geometry":{"type":"Point","coordinates":[-98.053428,32.829793]},"properties":{"locationId":"184CR127G","locatedOn":"-","locOnAlias":"","type":"SPOT","category":"URBAN ACR","routeType":"","route":"","active":"Yes","fnctClass":"(7)Local","latestAadt":153,"latestAadtYear":2024,"latestDhv30":17,"latestKPercent":12,"latestDPercent":null,"latestVolumeCount":152,"latestVolumeDate":"2024-05-08","extractedAt":"2025-08-01T17:37:21Z"}},{"type":"Feature","geometry":{"type":"Point","coordinates":[-98.059066,32.825478]},"properties":{"locationId":"184CR127H","locatedOn":"-","locOnAlias":"","type":"SPOT","category":"URBAN ACR","routeType":"","route":"","active":"Yes","fnctClass":"(5)Major Collector","latestAadt":550,"latestAadtYear":2019,"latestDhv30":76,"latestKPercent":14,"latestDPercent":null,"latestVolumeCount":665,"latestVolumeDate":"2019-05-08","extractedAt":"2025-08-01T17:37:37Z"}}]}