{"type":"FeatureCollection","features":[{"type":"Feature","geometry":{"type":"Point","coordinates":[-97.632163,32.727426]},"properties":{"locationId":"184HP8050","locatedOn":"EBANKHEAD","locOnAlias":"","type":"SPOT","category":"URBAN ACR","routeType":"","route":"","active":"Yes","fnctClass":"(5)Major Collector","latestAadt":9773,"latestAadtYear":2024,"latestDhv30":959,"latestKPercent":10,"latestDPercent":null,"latestVolumeCount":9846,"latestVolumeDate":"2024-05-13","extractedAt":"2025-08-02T13:07:44Z"}}]}