{"type":"FeatureCollection","features":[{"type":"Feature","geometry":{"type":"Point","coordinates":[-97.633446,32.733027]},"properties":{"locationId":"184CR67A","locatedOn":"-","locOnAlias":"","type":"SPOT","category":"URBAN ACR","routeType":"","route":"","active":"Yes","fnctClass":"(5)Major Collector","latestAadt":11496,"latestAadtYear":2024,"latestDhv30":985,"latestKPercent":9,"latestDPercent":60,"latestVolumeCount":11585,"latestVolumeDate":"2024-05-13","extractedAt":"2025-08-01T21:27:02Z"}},{"type":"Feature","geometry":{"type":"Point","coordinates":[-97.632399,32.735605]},"properties":{"locationId":"184CR67B","locatedOn":"-","locOnAlias":"","type":"SPOT","category":"URBAN ACR","routeType":"","route":"","active":"Yes","fnctClass":"(5)Major Collector","latestAadt":7532,"latestAadtYear":2024,"latestDhv30":694,"latestKPercent":9,"latestDPercent":null,"latestVolumeCount":7604,"latestVolumeDate":"2024-05-13","extractedAt":"2025-08-01T21:27:15Z"}}]}