{"type":"FeatureCollection","features":[{"type":"Feature","geometry":{"type":"Point","coordinates":[-97.84294,32.861736]},"properties":{"locationId":"184FS22","locatedOn":"CR0000","locOnAlias":"184AA1048","type":"SPOT","category":"URBAN ACR","routeType":"CR","route":"0000","active":"Yes","fnctClass":"(7)Local","latestAadt":1357,"latestAadtYear":2024,"latestDhv30":313,"latestKPercent":23,"latestDPercent":null,"latestVolumeCount":1320,"latestVolumeDate":"2024-05-15","extractedAt":"2025-08-02T00:11:20Z"}}]}