{"type":"FeatureCollection","features":[{"type":"Feature","geometry":{"type":"Point","coordinates":[-97.841117,32.808479]},"properties":{"locationId":"184CR339B","locatedOn":"-","locOnAlias":"","type":"SPOT","category":"URBAN ACR","routeType":"","route":"","active":"Yes","fnctClass":"(7)Local","latestAadt":678,"latestAadtYear":2024,"latestDhv30":57,"latestKPercent":8,"latestDPercent":null,"latestVolumeCount":652,"latestVolumeDate":"2024-05-15","extractedAt":"2025-08-01T21:10:46Z"}},{"type":"Feature","geometry":{"type":"Point","coordinates":[-97.841188,32.81609]},"properties":{"locationId":"184RS4","locatedOn":"NAJOHNSON BEND","locOnAlias":"","type":"SPOT","category":"INACTIVE","routeType":"","route":"","active":"No","fnctClass":"(7)Local","latestAadt":356,"latestAadtYear":2019,"latestDhv30":29,"latestKPercent":8,"latestDPercent":null,"latestVolumeCount":372,"latestVolumeDate":"2019-05-13","extractedAt":"2025-08-02T15:25:02Z"}}]}