{"type":"FeatureCollection","features":[{"type":"Feature","geometry":{"type":"Point","coordinates":[-97.824629,32.726613]},"properties":{"locationId":"184CR333","locatedOn":"-","locOnAlias":"","type":"SPOT","category":"URBAN ACR","routeType":"","route":"","active":"Yes","fnctClass":"(5)Major Collector","latestAadt":8832,"latestAadtYear":2024,"latestDhv30":653,"latestKPercent":7,"latestDPercent":null,"latestVolumeCount":9307,"latestVolumeDate":"2024-05-15","extractedAt":"2025-08-01T20:55:39Z"}},{"type":"Feature","geometry":{"type":"Point","coordinates":[-97.844212,32.728584]},"properties":{"locationId":"184D48WBSR","locatedOn":"IH0020","locOnAlias":"IH0020-XG","type":"SPOT","category":"ANNUAL ACR","routeType":"IH","route":"0020","active":"Yes","fnctClass":"(5)Major Collector","latestAadt":519,"latestAadtYear":2024,"latestDhv30":119,"latestKPercent":23,"latestDPercent":null,"latestVolumeCount":555,"latestVolumeDate":"2024-05-08","extractedAt":"2025-08-01T23:40:57Z"}},{"type":"Feature","geometry":{"type":"Point","coordinates":[-97.825017,32.728184]},"properties":{"locationId":"184RP205","locatedOn":"IH0020","locOnAlias":"","type":"SPOT","category":"RAMP","routeType":"","route":"","active":"Yes","fnctClass":"(1)Interstate","latestAadt":21798,"latestAadtYear":2024,"latestDhv30":220,"latestKPercent":10,"latestDPercent":null,"latestVolumeCount":2581,"latestVolumeDate":"2024-05-01","extractedAt":"2025-08-02T14:16:18Z"}},{"type":"Feature","geometry":{"type":"Point","coordinates":[-97.835197,32.728039]},"properties":{"locationId":"184RP205A","locatedOn":"IH0020","locOnAlias":"IH0020-KG","type":"SPOT","category":"RAMP","routeType":"IH","route":"0020","active":"Yes","fnctClass":"(1)Interstate","latestAadt":62618,"latestAadtYear":2024,"latestDhv30":486,"latestKPercent":8,"latestDPercent":null,"latestVolumeCount":5587,"latestVolumeDate":"2024-04-08","extractedAt":"2025-08-02T14:16:31Z"}},{"type":"Feature","geometry":{"type":"Point","coordinates":[-97.8272,32.72861]},"properties":{"locationId":"184RP206","locatedOn":"IH0020","locOnAlias":"","type":"SPOT","category":"RAMP","routeType":"","route":"","active":"Yes","fnctClass":"(1)Interstate","latestAadt":22948,"latestAadtYear":2024,"latestDhv30":191,"latestKPercent":8,"latestDPercent":null,"latestVolumeCount":2317,"latestVolumeDate":"2024-04-08","extractedAt":"2025-08-02T14:17:01Z"}},{"type":"Feature","geometry":{"type":"Point","coordinates":[-97.8355,32.728551]},"properties":{"locationId":"184RP206A","locatedOn":"IH0020","locOnAlias":"IH0020-KG","type":"SPOT","category":"RAMP","routeType":"IH","route":"0020","active":"Yes","fnctClass":"(1)Interstate","latestAadt":74818,"latestAadtYear":2024,"latestDhv30":651,"latestKPercent":9,"latestDPercent":null,"latestVolumeCount":7354,"latestVolumeDate":"2024-04-08","extractedAt":"2025-08-02T14:17:15Z"}},{"type":"Feature","geometry":{"type":"Point","coordinates":[-97.843985,32.728466]},"properties":{"locationId":"184RP206B","locatedOn":"IH0020","locOnAlias":"IH0020-KG","type":"SPOT","category":"RAMP","routeType":"IH","route":"0020","active":"Yes","fnctClass":"(1)Interstate","latestAadt":3448,"latestAadtYear":2024,"latestDhv30":30,"latestKPercent":9,"latestDPercent":null,"latestVolumeCount":347,"latestVolumeDate":"2024-04-08","extractedAt":"2025-08-02T14:17:28Z"}}]}