{"type":"FeatureCollection","features":[{"type":"Feature","geometry":{"type":"Point","coordinates":[-97.822268,32.699891]},"properties":{"locationId":"184U17","locatedOn":"FM1884","locOnAlias":"FM1884-KG","type":"SPOT","category":"URBAN ACR","routeType":"FM","route":"1884","active":"Yes","fnctClass":"(5)Major Collector","latestAadt":null,"latestAadtYear":null,"latestDhv30":null,"latestKPercent":null,"latestDPercent":null,"latestVolumeCount":null,"latestVolumeDate":null,"extractedAt":"2025-08-02T15:58:26Z"}}]}