{"type":"FeatureCollection","features":[{"type":"Feature","geometry":{"type":"Point","coordinates":[-97.986231,32.832047]},"properties":{"locationId":"184CR130","locatedOn":"-","locOnAlias":"","type":"SPOT","category":"URBAN ACR","routeType":"","route":"","active":"Yes","fnctClass":"(6)Minor Collector","latestAadt":504,"latestAadtYear":2024,"latestDhv30":157,"latestKPercent":31,"latestDPercent":null,"latestVolumeCount":519,"latestVolumeDate":"2024-05-15","extractedAt":"2025-08-01T17:38:26Z"}},{"type":"Feature","geometry":{"type":"Point","coordinates":[-97.986689,32.832551]},"properties":{"locationId":"184T28","locatedOn":"FM0113","locOnAlias":"FM0113-KG","type":"SPOT","category":"ANNUAL ACR","routeType":"FM","route":"0113","active":"Yes","fnctClass":"(5)Major Collector","latestAadt":2529,"latestAadtYear":2024,"latestDhv30":295,"latestKPercent":12,"latestDPercent":null,"latestVolumeCount":2675,"latestVolumeDate":"2024-05-14","extractedAt":"2025-08-02T15:42:54Z"}}]}