{"type":"FeatureCollection","features":[{"type":"Feature","geometry":{"type":"Point","coordinates":[-97.76926,32.82459]},"properties":{"locationId":"184CR307","locatedOn":"-","locOnAlias":"","type":"SPOT","category":"URBAN ACR","routeType":"","route":"","active":"Yes","fnctClass":"(7)Local","latestAadt":643,"latestAadtYear":2024,"latestDhv30":56,"latestKPercent":9,"latestDPercent":null,"latestVolumeCount":653,"latestVolumeDate":"2024-05-22","extractedAt":"2025-08-01T20:24:36Z"}},{"type":"Feature","geometry":{"type":"Point","coordinates":[-97.764587,32.833518]},"properties":{"locationId":"184H2","locatedOn":"FM0051","locOnAlias":"FM0051-KG","type":"SPOT","category":"ANNUAL ACR","routeType":"FM","route":"0051","active":"Yes","fnctClass":"(4)Minor Arterial","latestAadt":10761,"latestAadtYear":2024,"latestDhv30":947,"latestKPercent":9,"latestDPercent":null,"latestVolumeCount":11885,"latestVolumeDate":"2024-05-22","extractedAt":"2025-08-02T03:30:51Z"}}]}