{"type":"FeatureCollection","features":[{"type":"Feature","geometry":{"type":"Point","coordinates":[-97.770842,32.781492]},"properties":{"locationId":"184CR305B","locatedOn":"-","locOnAlias":"","type":"SPOT","category":"URBAN ACR","routeType":"","route":"","active":"Yes","fnctClass":"(5)Major Collector","latestAadt":1766,"latestAadtYear":2024,"latestDhv30":199,"latestKPercent":11,"latestDPercent":null,"latestVolumeCount":1862,"latestVolumeDate":"2024-05-22","extractedAt":"2025-08-01T20:23:53Z"}},{"type":"Feature","geometry":{"type":"Point","coordinates":[-97.766964,32.787457]},"properties":{"locationId":"184CR305C","locatedOn":"-","locOnAlias":"","type":"SPOT","category":"URBAN ACR","routeType":"","route":"","active":"Yes","fnctClass":"(7)Local","latestAadt":598,"latestAadtYear":2014,"latestDhv30":72,"latestKPercent":12,"latestDPercent":null,"latestVolumeCount":623,"latestVolumeDate":"2014-04-21","extractedAt":"2025-08-01T20:24:06Z"}},{"type":"Feature","geometry":{"type":"Point","coordinates":[-97.743175,32.799881]},"properties":{"locationId":"184CR52C","locatedOn":"-","locOnAlias":"","type":"SPOT","category":"URBAN ACR","routeType":"","route":"","active":"Yes","fnctClass":"(7)Local","latestAadt":478,"latestAadtYear":2024,"latestDhv30":45,"latestKPercent":10,"latestDPercent":null,"latestVolumeCount":467,"latestVolumeDate":"2024-05-22","extractedAt":"2025-08-01T21:25:46Z"}},{"type":"Feature","geometry":{"type":"Point","coordinates":[-97.739513,32.773848]},"properties":{"locationId":"184H21","locatedOn":"FM0730","locOnAlias":"FM0730-KG","type":"SPOT","category":"ANNUAL ACR","routeType":"FM","route":"0730","active":"Yes","fnctClass":"(5)Major Collector","latestAadt":105643,"latestAadtYear":2024,"latestDhv30":null,"latestKPercent":null,"latestDPercent":null,"latestVolumeCount":10451,"latestVolumeDate":"2023-07-19","extractedAt":"2025-08-02T03:38:54Z"}},{"type":"Feature","geometry":{"type":"Point","coordinates":[-97.760267,32.792736]},"properties":{"locationId":"184HP7","locatedOn":"Upper Denton","locOnAlias":"184AA0261","type":"SPOT","category":"ANNUAL ACR","routeType":"CR","route":"0000","active":"Yes","fnctClass":"(6)Minor Collector","latestAadt":1281,"latestAadtYear":2024,"latestDhv30":119,"latestKPercent":9,"latestDPercent":66,"latestVolumeCount":1283,"latestVolumeDate":"2024-05-15","extractedAt":"2025-08-02T12:44:07Z"}}]}