{"type":"FeatureCollection","features":[{"type":"Feature","geometry":{"type":"Point","coordinates":[-97.760035,32.736488]},"properties":{"locationId":"184CR329A","locatedOn":"-","locOnAlias":"","type":"SPOT","category":"URBAN ACR","routeType":"","route":"","active":"Yes","fnctClass":"(7)Local","latestAadt":4144,"latestAadtYear":2019,"latestDhv30":386,"latestKPercent":9,"latestDPercent":null,"latestVolumeCount":4497,"latestVolumeDate":"2019-05-15","extractedAt":"2025-08-01T20:48:48Z"}},{"type":"Feature","geometry":{"type":"Point","coordinates":[-97.747676,32.74402]},"properties":{"locationId":"184CR330","locatedOn":"-","locOnAlias":"","type":"SPOT","category":"URBAN ACR","routeType":"","route":"","active":"Yes","fnctClass":"(5)Major Collector","latestAadt":8741,"latestAadtYear":2024,"latestDhv30":972,"latestKPercent":11,"latestDPercent":null,"latestVolumeCount":8909,"latestVolumeDate":"2024-05-13","extractedAt":"2025-08-01T20:54:51Z"}},{"type":"Feature","geometry":{"type":"Point","coordinates":[-97.771911,32.733979]},"properties":{"locationId":"184H2001","locatedOn":"IH0020","locOnAlias":"IH0020-KG","type":"SPOT","category":"ANNUAL ACR","routeType":"IH","route":"0020","active":"Yes","fnctClass":"(1)Interstate","latestAadt":716488,"latestAadtYear":2024,"latestDhv30":null,"latestKPercent":null,"latestDPercent":null,"latestVolumeCount":null,"latestVolumeDate":null,"extractedAt":"2025-08-02T03:36:41Z"}},{"type":"Feature","geometry":{"type":"Point","coordinates":[-97.772075,32.733483]},"properties":{"locationId":"184H2001EBSR","locatedOn":"IH0020","locOnAlias":"IH0020-AG","type":"SPOT","category":"ANNUAL ACR","routeType":"IH","route":"0020","active":"Yes","fnctClass":"(5)Major Collector","latestAadt":2977,"latestAadtYear":2024,"latestDhv30":356,"latestKPercent":12,"latestDPercent":null,"latestVolumeCount":3184,"latestVolumeDate":"2024-05-08","extractedAt":"2025-08-02T03:36:54Z"}},{"type":"Feature","geometry":{"type":"Point","coordinates":[-97.771981,32.734354]},"properties":{"locationId":"184H2001WBSR","locatedOn":"IH0020","locOnAlias":"IH0020-XG","type":"SPOT","category":"ANNUAL ACR","routeType":"IH","route":"0020","active":"Yes","fnctClass":"(5)Major Collector","latestAadt":3416,"latestAadtYear":2024,"latestDhv30":321,"latestKPercent":9,"latestDPercent":null,"latestVolumeCount":3654,"latestVolumeDate":"2024-05-08","extractedAt":"2025-08-02T03:37:08Z"}},{"type":"Feature","geometry":{"type":"Point","coordinates":[-97.777248,32.760565]},"properties":{"locationId":"184HP8007","locatedOn":"Jameson","locOnAlias":"250320","type":"SPOT","category":"URBAN ACR","routeType":"FC","route":"0000","active":"Yes","fnctClass":"(5)Major Collector","latestAadt":2380,"latestAadtYear":2024,"latestDhv30":275,"latestKPercent":12,"latestDPercent":null,"latestVolumeCount":2500,"latestVolumeDate":"2024-05-21","extractedAt":"2025-08-02T12:45:32Z"}},{"type":"Feature","geometry":{"type":"Point","coordinates":[-97.742592,32.765284]},"properties":{"locationId":"184HP8038","locatedOn":"Old Dicey Rd","locOnAlias":"269664","type":"SPOT","category":"URBAN ACR","routeType":"FC","route":"0000","active":"Yes","fnctClass":"(5)Major Collector","latestAadt":1565,"latestAadtYear":2024,"latestDhv30":253,"latestKPercent":16,"latestDPercent":null,"latestVolumeCount":1643,"latestVolumeDate":"2024-05-21","extractedAt":"2025-08-02T12:59:26Z"}},{"type":"Feature","geometry":{"type":"Point","coordinates":[-97.764177,32.736356]},"properties":{"locationId":"184PT10","locatedOn":"IH0020","locOnAlias":"IH0020-AG","type":"SPOT","category":"ANNUAL ACR","routeType":"IH","route":"0020","active":"Yes","fnctClass":"(5)Major Collector","latestAadt":14493,"latestAadtYear":2024,"latestDhv30":null,"latestKPercent":null,"latestDPercent":null,"latestVolumeCount":1534,"latestVolumeDate":"2023-07-19","extractedAt":"2025-08-02T13:23:10Z"}},{"type":"Feature","geometry":{"type":"Point","coordinates":[-97.766155,32.736444]},"properties":{"locationId":"184PT11","locatedOn":"IH0020","locOnAlias":"IH0020-XG","type":"SPOT","category":"ANNUAL ACR","routeType":"IH","route":"0020","active":"Yes","fnctClass":"(5)Major Collector","latestAadt":2580,"latestAadtYear":2024,"latestDhv30":196,"latestKPercent":8,"latestDPercent":null,"latestVolumeCount":2626,"latestVolumeDate":"2024-05-13","extractedAt":"2025-08-02T13:23:26Z"}},{"type":"Feature","geometry":{"type":"Point","coordinates":[-97.763439,32.737334]},"properties":{"locationId":"184PT6","locatedOn":"IH0020","locOnAlias":"IH0020-AG","type":"SPOT","category":"ANNUAL ACR","routeType":"IH","route":"0020","active":"Yes","fnctClass":"(5)Major Collector","latestAadt":223,"latestAadtYear":2024,"latestDhv30":null,"latestKPercent":null,"latestDPercent":null,"latestVolumeCount":23,"latestVolumeDate":"2023-07-19","extractedAt":"2025-08-02T13:24:55Z"}},{"type":"Feature","geometry":{"type":"Point","coordinates":[-97.773835,32.732458]},"properties":{"locationId":"184PT7","locatedOn":"Fossil Hill Rd","locOnAlias":"1250504","type":"SPOT","category":"ANNUAL ACR","routeType":"LS","route":"0000","active":"Yes","fnctClass":"(7)Local","latestAadt":422,"latestAadtYear":2024,"latestDhv30":58,"latestKPercent":14,"latestDPercent":null,"latestVolumeCount":442,"latestVolumeDate":"2024-05-13","extractedAt":"2025-08-02T13:25:11Z"}},{"type":"Feature","geometry":{"type":"Point","coordinates":[-97.774195,32.733779]},"properties":{"locationId":"184PT8","locatedOn":"Holland Lake Dr","locOnAlias":"267322","type":"SPOT","category":"ANNUAL ACR","routeType":"LS","route":"0000","active":"Yes","fnctClass":"(5)Major Collector","latestAadt":60563,"latestAadtYear":2024,"latestDhv30":null,"latestKPercent":null,"latestDPercent":null,"latestVolumeCount":6257,"latestVolumeDate":"2023-07-19","extractedAt":"2025-08-02T13:30:50Z"}},{"type":"Feature","geometry":{"type":"Point","coordinates":[-97.775691,32.732936]},"properties":{"locationId":"184RP2014A","locatedOn":"IH0020","locOnAlias":"IH0020-KG","type":"SPOT","category":"RAMP","routeType":"IH","route":"0020","active":"Yes","fnctClass":"(1)Interstate","latestAadt":120848,"latestAadtYear":2024,"latestDhv30":1168,"latestKPercent":10,"latestDPercent":null,"latestVolumeCount":12684,"latestVolumeDate":"2024-04-10","extractedAt":"2025-08-02T13:47:43Z"}},{"type":"Feature","geometry":{"type":"Point","coordinates":[-97.769165,32.73472]},"properties":{"locationId":"184RP2015","locatedOn":"IH0020","locOnAlias":"","type":"SPOT","category":"RAMP","routeType":"","route":"","active":"Yes","fnctClass":"(1)Interstate","latestAadt":13068,"latestAadtYear":2024,"latestDhv30":150,"latestKPercent":11,"latestDPercent":null,"latestVolumeCount":1327,"latestVolumeDate":"2024-04-10","extractedAt":"2025-08-02T13:47:57Z"}},{"type":"Feature","geometry":{"type":"Point","coordinates":[-97.767147,32.735968]},"properties":{"locationId":"184RP2016","locatedOn":"IH0020","locOnAlias":"","type":"SPOT","category":"RAMP","routeType":"","route":"","active":"Yes","fnctClass":"(1)Interstate","latestAadt":7208,"latestAadtYear":2024,"latestDhv30":79,"latestKPercent":11,"latestDPercent":null,"latestVolumeCount":752,"latestVolumeDate":"2024-04-10","extractedAt":"2025-08-02T13:48:14Z"}},{"type":"Feature","geometry":{"type":"Point","coordinates":[-97.760611,32.737668]},"properties":{"locationId":"184RP2017","locatedOn":"IH0020","locOnAlias":"","type":"SPOT","category":"RAMP","routeType":"","route":"","active":"Yes","fnctClass":"(1)Interstate","latestAadt":54088,"latestAadtYear":2024,"latestDhv30":407,"latestKPercent":8,"latestDPercent":null,"latestVolumeCount":5491,"latestVolumeDate":"2024-04-10","extractedAt":"2025-08-02T13:48:30Z"}},{"type":"Feature","geometry":{"type":"Point","coordinates":[-97.760671,32.73834]},"properties":{"locationId":"184RP2018","locatedOn":"IH0020","locOnAlias":"","type":"SPOT","category":"RAMP","routeType":"","route":"","active":"Yes","fnctClass":"(1)Interstate","latestAadt":59368,"latestAadtYear":2024,"latestDhv30":502,"latestKPercent":8,"latestDPercent":null,"latestVolumeCount":6249,"latestVolumeDate":"2024-04-10","extractedAt":"2025-08-02T13:48:46Z"}},{"type":"Feature","geometry":{"type":"Point","coordinates":[-97.746769,32.742546]},"properties":{"locationId":"184RP2019","locatedOn":"IH0020","locOnAlias":"","type":"SPOT","category":"RAMP","routeType":"","route":"","active":"Yes","fnctClass":"(1)Interstate","latestAadt":27298,"latestAadtYear":2024,"latestDhv30":230,"latestKPercent":8,"latestDPercent":null,"latestVolumeCount":2946,"latestVolumeDate":"2024-04-10","extractedAt":"2025-08-02T13:49:04Z"}},{"type":"Feature","geometry":{"type":"Point","coordinates":[-97.748029,32.742848]},"properties":{"locationId":"184RP2020","locatedOn":"IH0020","locOnAlias":"","type":"SPOT","category":"RAMP","routeType":"","route":"","active":"Yes","fnctClass":"(1)Interstate","latestAadt":36358,"latestAadtYear":2024,"latestDhv30":362,"latestKPercent":10,"latestDPercent":null,"latestVolumeCount":3424,"latestVolumeDate":"2024-04-10","extractedAt":"2025-08-02T13:54:58Z"}},{"type":"Feature","geometry":{"type":"Point","coordinates":[-97.743872,32.74384]},"properties":{"locationId":"184RP2021R","locatedOn":"IH0020","locOnAlias":"IH0020-KG","type":"SPOT","category":"RAMP","routeType":"IH","route":"0020","active":"Yes","fnctClass":"(1)Interstate","latestAadt":23518,"latestAadtYear":2024,"latestDhv30":255,"latestKPercent":11,"latestDPercent":null,"latestVolumeCount":2533,"latestVolumeDate":"2024-04-10","extractedAt":"2025-08-02T13:55:45Z"}},{"type":"Feature","geometry":{"type":"Point","coordinates":[-97.740881,32.74516]},"properties":{"locationId":"184RP2022R","locatedOn":"IH0020","locOnAlias":"IH0020-KG","type":"SPOT","category":"RAMP","routeType":"IH","route":"0020","active":"Yes","fnctClass":"(1)Interstate","latestAadt":37078,"latestAadtYear":2024,"latestDhv30":640,"latestKPercent":17,"latestDPercent":null,"latestVolumeCount":4212,"latestVolumeDate":"2024-12-11","extractedAt":"2025-08-02T13:56:31Z"}},{"type":"Feature","geometry":{"type":"Point","coordinates":[-97.757007,32.745719]},"properties":{"locationId":"184RS22","locatedOn":"JENNIFER","locOnAlias":"","type":"SPOT","category":"URBAN ACR","routeType":"","route":"","active":"Yes","fnctClass":"(7)Local","latestAadt":1118,"latestAadtYear":2024,"latestDhv30":103,"latestKPercent":9,"latestDPercent":null,"latestVolumeCount":1197,"latestVolumeDate":"2024-05-13","extractedAt":"2025-08-02T15:17:39Z"}},{"type":"Feature","geometry":{"type":"Point","coordinates":[-97.769221,32.757795]},"properties":{"locationId":"184T6","locatedOn":"US0180","locOnAlias":"US0180-KG","type":"SPOT","category":"ANNUAL ACR","routeType":"US","route":"0180","active":"Yes","fnctClass":"(3)Principal Arterial-Other","latestAadt":224673,"latestAadtYear":2024,"latestDhv30":null,"latestKPercent":null,"latestDPercent":null,"latestVolumeCount":24878,"latestVolumeDate":"2023-07-19","extractedAt":"2025-08-02T15:50:07Z"}}]}