{"type":"FeatureCollection","features":[{"type":"Feature","geometry":{"type":"Point","coordinates":[-97.739292,32.718719]},"properties":{"locationId":"184CR214","locatedOn":"NAAIRPORT","locOnAlias":"","type":"SPOT","category":"URBAN ACR","routeType":"","route":"","active":"Yes","fnctClass":"(6)Minor Collector","latestAadt":922,"latestAadtYear":2019,"latestDhv30":98,"latestKPercent":11,"latestDPercent":null,"latestVolumeCount":1017,"latestVolumeDate":"2019-05-15","extractedAt":"2025-08-01T19:43:56Z"}},{"type":"Feature","geometry":{"type":"Point","coordinates":[-97.758594,32.724029]},"properties":{"locationId":"184HP8045","locatedOn":"NACLEAR LAKE","locOnAlias":"","type":"SPOT","category":"URBAN ACR","routeType":"","route":"","active":"Yes","fnctClass":"(5)Major Collector","latestAadt":1241,"latestAadtYear":2019,"latestDhv30":126,"latestKPercent":10,"latestDPercent":null,"latestVolumeCount":1554,"latestVolumeDate":"2019-05-15","extractedAt":"2025-08-02T13:01:11Z"}},{"type":"Feature","geometry":{"type":"Point","coordinates":[-97.752584,32.724933]},"properties":{"locationId":"184RS13","locatedOn":"NACLEAR LAKE","locOnAlias":"","type":"SPOT","category":"URBAN ACR","routeType":"","route":"","active":"Yes","fnctClass":"(7)Local","latestAadt":180,"latestAadtYear":2019,"latestDhv30":19,"latestKPercent":11,"latestDPercent":null,"latestVolumeCount":195,"latestVolumeDate":"2019-05-15","extractedAt":"2025-08-02T14:25:49Z"}}]}