{"type":"FeatureCollection","features":[{"type":"Feature","geometry":{"type":"Point","coordinates":[-97.905687,32.868558]},"properties":{"locationId":"184CR143","locatedOn":"-","locOnAlias":"","type":"SPOT","category":"URBAN ACR","routeType":"","route":"","active":"Yes","fnctClass":"(7)Local","latestAadt":885,"latestAadtYear":2024,"latestDhv30":104,"latestKPercent":12,"latestDPercent":null,"latestVolumeCount":863,"latestVolumeDate":"2024-05-15","extractedAt":"2025-08-01T18:08:18Z"}},{"type":"Feature","geometry":{"type":"Point","coordinates":[-97.910122,32.844066]},"properties":{"locationId":"184CR143B","locatedOn":"-","locOnAlias":"","type":"SPOT","category":"INACTIVE","routeType":"","route":"","active":"No","fnctClass":"(7)Local","latestAadt":12,"latestAadtYear":2019,"latestDhv30":2,"latestKPercent":17,"latestDPercent":null,"latestVolumeCount":13,"latestVolumeDate":"2019-05-15","extractedAt":"2025-08-01T18:14:15Z"}},{"type":"Feature","geometry":{"type":"Point","coordinates":[-97.866327,32.866495]},"properties":{"locationId":"184CR147","locatedOn":"-","locOnAlias":"","type":"SPOT","category":"URBAN ACR","routeType":"","route":"","active":"Yes","fnctClass":"(7)Local","latestAadt":2684,"latestAadtYear":2024,"latestDhv30":653,"latestKPercent":24,"latestDPercent":null,"latestVolumeCount":2615,"latestVolumeDate":"2024-05-15","extractedAt":"2025-08-01T18:15:15Z"}},{"type":"Feature","geometry":{"type":"Point","coordinates":[-97.866081,32.878198]},"properties":{"locationId":"184CR149","locatedOn":"-","locOnAlias":"","type":"SPOT","category":"URBAN ACR","routeType":"","route":"","active":"Yes","fnctClass":"(7)Local","latestAadt":458,"latestAadtYear":2024,"latestDhv30":69,"latestKPercent":15,"latestDPercent":null,"latestVolumeCount":443,"latestVolumeDate":"2024-05-15","extractedAt":"2025-08-01T18:15:29Z"}},{"type":"Feature","geometry":{"type":"Point","coordinates":[-97.861851,32.897817]},"properties":{"locationId":"184CR150","locatedOn":"-","locOnAlias":"","type":"SPOT","category":"URBAN ACR","routeType":"","route":"","active":"Yes","fnctClass":"(7)Local","latestAadt":643,"latestAadtYear":2024,"latestDhv30":68,"latestKPercent":11,"latestDPercent":null,"latestVolumeCount":620,"latestVolumeDate":"2024-05-15","extractedAt":"2025-08-01T18:16:30Z"}},{"type":"Feature","geometry":{"type":"Point","coordinates":[-97.825812,32.859753]},"properties":{"locationId":"184CR173C","locatedOn":"-","locOnAlias":"","type":"SPOT","category":"URBAN ACR","routeType":"","route":"","active":"Yes","fnctClass":"(7)Local","latestAadt":1350,"latestAadtYear":2024,"latestDhv30":297,"latestKPercent":22,"latestDPercent":null,"latestVolumeCount":1313,"latestVolumeDate":"2024-05-15","extractedAt":"2025-08-01T19:30:19Z"}},{"type":"Feature","geometry":{"type":"Point","coordinates":[-97.884617,32.897752]},"properties":{"locationId":"184CR220","locatedOn":"WDRY CREEK","locOnAlias":"","type":"SPOT","category":"URBAN ACR","routeType":"","route":"","active":"Yes","fnctClass":"(7)Local","latestAadt":873,"latestAadtYear":2024,"latestDhv30":90,"latestKPercent":10,"latestDPercent":null,"latestVolumeCount":844,"latestVolumeDate":"2024-05-15","extractedAt":"2025-08-01T19:51:27Z"}},{"type":"Feature","geometry":{"type":"Point","coordinates":[-97.910115,32.851395]},"properties":{"locationId":"184CR231","locatedOn":"NACABANISS","locOnAlias":"","type":"SPOT","category":"URBAN ACR","routeType":"","route":"","active":"Yes","fnctClass":"(7)Local","latestAadt":159,"latestAadtYear":2024,"latestDhv30":17,"latestKPercent":11,"latestDPercent":null,"latestVolumeCount":156,"latestVolumeDate":"2024-05-15","extractedAt":"2025-08-01T19:59:37Z"}},{"type":"Feature","geometry":{"type":"Point","coordinates":[-97.84294,32.861736]},"properties":{"locationId":"184FS22","locatedOn":"CR0000","locOnAlias":"184AA1048","type":"SPOT","category":"URBAN ACR","routeType":"CR","route":"0000","active":"Yes","fnctClass":"(7)Local","latestAadt":1357,"latestAadtYear":2024,"latestDhv30":313,"latestKPercent":23,"latestDPercent":null,"latestVolumeCount":1320,"latestVolumeDate":"2024-05-15","extractedAt":"2025-08-02T00:11:20Z"}},{"type":"Feature","geometry":{"type":"Point","coordinates":[-97.867364,32.871338]},"properties":{"locationId":"184T35","locatedOn":"FM0920","locOnAlias":"FM0920-KG","type":"SPOT","category":"ANNUAL ACR","routeType":"FM","route":"0920","active":"Yes","fnctClass":"(5)Major Collector","latestAadt":7115,"latestAadtYear":2024,"latestDhv30":918,"latestKPercent":13,"latestDPercent":null,"latestVolumeCount":7425,"latestVolumeDate":"2024-05-20","extractedAt":"2025-08-02T15:49:17Z"}},{"type":"Feature","geometry":{"type":"Point","coordinates":[-97.857995,32.916309]},"properties":{"locationId":"184U1","locatedOn":"FM0920-KG","locOnAlias":"","type":"SPOT","category":"URBAN ACR","routeType":"","route":"","active":"Yes","fnctClass":"(5)Major Collector","latestAadt":4333,"latestAadtYear":2024,"latestDhv30":427,"latestKPercent":10,"latestDPercent":null,"latestVolumeCount":4673,"latestVolumeDate":"2024-05-15","extractedAt":"2025-08-02T15:57:15Z"}}]}