{"type":"FeatureCollection","features":[{"type":"Feature","geometry":{"type":"Point","coordinates":[-97.881531,32.833822]},"properties":{"locationId":"184CR144","locatedOn":"-","locOnAlias":"","type":"SPOT","category":"URBAN ACR","routeType":"","route":"","active":"Yes","fnctClass":"(7)Local","latestAadt":735,"latestAadtYear":2024,"latestDhv30":77,"latestKPercent":10,"latestDPercent":null,"latestVolumeCount":716,"latestVolumeDate":"2024-05-15","extractedAt":"2025-08-01T18:14:32Z"}},{"type":"Feature","geometry":{"type":"Point","coordinates":[-97.893764,32.824976]},"properties":{"locationId":"184CR145A","locatedOn":"-","locOnAlias":"","type":"SPOT","category":"URBAN ACR","routeType":"","route":"","active":"Yes","fnctClass":"(7)Local","latestAadt":156,"latestAadtYear":2024,"latestDhv30":16,"latestKPercent":11,"latestDPercent":null,"latestVolumeCount":151,"latestVolumeDate":"2024-05-15","extractedAt":"2025-08-01T18:15:00Z"}},{"type":"Feature","geometry":{"type":"Point","coordinates":[-97.824383,32.786655]},"properties":{"locationId":"184CR337","locatedOn":"-","locOnAlias":"","type":"SPOT","category":"URBAN ACR","routeType":"","route":"","active":"Yes","fnctClass":"(7)Local","latestAadt":718,"latestAadtYear":2024,"latestDhv30":83,"latestKPercent":12,"latestDPercent":null,"latestVolumeCount":691,"latestVolumeDate":"2024-05-15","extractedAt":"2025-08-01T21:09:44Z"}},{"type":"Feature","geometry":{"type":"Point","coordinates":[-97.825573,32.824601]},"properties":{"locationId":"184CR339A","locatedOn":"-","locOnAlias":"","type":"SPOT","category":"URBAN ACR","routeType":"","route":"","active":"Yes","fnctClass":"(7)Local","latestAadt":925,"latestAadtYear":2024,"latestDhv30":76,"latestKPercent":8,"latestDPercent":null,"latestVolumeCount":890,"latestVolumeDate":"2024-05-15","extractedAt":"2025-08-01T21:10:28Z"}},{"type":"Feature","geometry":{"type":"Point","coordinates":[-97.841117,32.808479]},"properties":{"locationId":"184CR339B","locatedOn":"-","locOnAlias":"","type":"SPOT","category":"URBAN ACR","routeType":"","route":"","active":"Yes","fnctClass":"(7)Local","latestAadt":678,"latestAadtYear":2024,"latestDhv30":57,"latestKPercent":8,"latestDPercent":null,"latestVolumeCount":652,"latestVolumeDate":"2024-05-15","extractedAt":"2025-08-01T21:10:46Z"}},{"type":"Feature","geometry":{"type":"Point","coordinates":[-97.854696,32.827053]},"properties":{"locationId":"184D1","locatedOn":"FM0920","locOnAlias":"FM0920-KG","type":"SPOT","category":"ANNUAL ACR","routeType":"FM","route":"0920","active":"Yes","fnctClass":"(5)Major Collector","latestAadt":102573,"latestAadtYear":2024,"latestDhv30":null,"latestKPercent":null,"latestDPercent":null,"latestVolumeCount":10386,"latestVolumeDate":"2023-07-19","extractedAt":"2025-08-01T23:37:44Z"}},{"type":"Feature","geometry":{"type":"Point","coordinates":[-97.841188,32.81609]},"properties":{"locationId":"184RS4","locatedOn":"NAJOHNSON BEND","locOnAlias":"","type":"SPOT","category":"INACTIVE","routeType":"","route":"","active":"No","fnctClass":"(7)Local","latestAadt":356,"latestAadtYear":2019,"latestDhv30":29,"latestKPercent":8,"latestDPercent":null,"latestVolumeCount":372,"latestVolumeDate":"2019-05-13","extractedAt":"2025-08-02T15:25:02Z"}},{"type":"Feature","geometry":{"type":"Point","coordinates":[-97.900466,32.785958]},"properties":{"locationId":"184RS9","locatedOn":"WLAMBERT","locOnAlias":"","type":"SPOT","category":"URBAN ACR","routeType":"","route":"","active":"Yes","fnctClass":"(7)Local","latestAadt":382,"latestAadtYear":2024,"latestDhv30":45,"latestKPercent":12,"latestDPercent":null,"latestVolumeCount":381,"latestVolumeDate":"2024-05-08","extractedAt":"2025-08-02T15:26:15Z"}},{"type":"Feature","geometry":{"type":"Point","coordinates":[-97.8299,32.773195]},"properties":{"locationId":"184U3579","locatedOn":"-","locOnAlias":"","type":"SPOT","category":"INACTIVE","routeType":"","route":"","active":"No","fnctClass":"(-)-","latestAadt":2975,"latestAadtYear":2014,"latestDhv30":423,"latestKPercent":14,"latestDPercent":null,"latestVolumeCount":4252,"latestVolumeDate":"2014-04-23","extractedAt":"2025-08-02T16:06:48Z"}}]}