{"type":"FeatureCollection","features":[{"type":"Feature","geometry":{"type":"Point","coordinates":[-97.904071,32.696599]},"properties":{"locationId":"184CR213","locatedOn":"NAOLD BROCK","locOnAlias":"","type":"SPOT","category":"URBAN ACR","routeType":"","route":"","active":"Yes","fnctClass":"(7)Local","latestAadt":1211,"latestAadtYear":2024,"latestDhv30":219,"latestKPercent":18,"latestDPercent":null,"latestVolumeCount":1205,"latestVolumeDate":"2024-05-15","extractedAt":"2025-08-01T19:43:41Z"}},{"type":"Feature","geometry":{"type":"Point","coordinates":[-97.824629,32.726613]},"properties":{"locationId":"184CR333","locatedOn":"-","locOnAlias":"","type":"SPOT","category":"URBAN ACR","routeType":"","route":"","active":"Yes","fnctClass":"(5)Major Collector","latestAadt":8832,"latestAadtYear":2024,"latestDhv30":653,"latestKPercent":7,"latestDPercent":null,"latestVolumeCount":9307,"latestVolumeDate":"2024-05-15","extractedAt":"2025-08-01T20:55:39Z"}},{"type":"Feature","geometry":{"type":"Point","coordinates":[-97.824863,32.755281]},"properties":{"locationId":"184CR334","locatedOn":"-","locOnAlias":"","type":"SPOT","category":"URBAN ACR","routeType":"","route":"","active":"Yes","fnctClass":"(5)Major Collector","latestAadt":1242,"latestAadtYear":2024,"latestDhv30":110,"latestKPercent":9,"latestDPercent":null,"latestVolumeCount":1309,"latestVolumeDate":"2024-05-08","extractedAt":"2025-08-01T20:56:08Z"}},{"type":"Feature","geometry":{"type":"Point","coordinates":[-97.828602,32.764054]},"properties":{"locationId":"184CR336","locatedOn":"-","locOnAlias":"","type":"SPOT","category":"URBAN ACR","routeType":"","route":"","active":"Yes","fnctClass":"(7)Local","latestAadt":937,"latestAadtYear":2024,"latestDhv30":107,"latestKPercent":11,"latestDPercent":null,"latestVolumeCount":935,"latestVolumeDate":"2024-05-08","extractedAt":"2025-08-01T20:56:37Z"}},{"type":"Feature","geometry":{"type":"Point","coordinates":[-97.850064,32.720413]},"properties":{"locationId":"184CR89A","locatedOn":"-","locOnAlias":"","type":"SPOT","category":"URBAN ACR","routeType":"","route":"","active":"Yes","fnctClass":"(7)Local","latestAadt":423,"latestAadtYear":2024,"latestDhv30":55,"latestKPercent":13,"latestDPercent":null,"latestVolumeCount":420,"latestVolumeDate":"2024-05-15","extractedAt":"2025-08-01T23:11:02Z"}},{"type":"Feature","geometry":{"type":"Point","coordinates":[-97.874438,32.722099]},"properties":{"locationId":"184CR90","locatedOn":"-","locOnAlias":"","type":"SPOT","category":"URBAN ACR","routeType":"","route":"","active":"Yes","fnctClass":"(6)Minor Collector","latestAadt":6288,"latestAadtYear":2024,"latestDhv30":588,"latestKPercent":9,"latestDPercent":null,"latestVolumeCount":6504,"latestVolumeDate":"2024-05-15","extractedAt":"2025-08-01T23:12:18Z"}},{"type":"Feature","geometry":{"type":"Point","coordinates":[-97.844212,32.728584]},"properties":{"locationId":"184D48WBSR","locatedOn":"IH0020","locOnAlias":"IH0020-XG","type":"SPOT","category":"ANNUAL ACR","routeType":"IH","route":"0020","active":"Yes","fnctClass":"(5)Major Collector","latestAadt":519,"latestAadtYear":2024,"latestDhv30":119,"latestKPercent":23,"latestDPercent":null,"latestVolumeCount":555,"latestVolumeDate":"2024-05-08","extractedAt":"2025-08-01T23:40:57Z"}},{"type":"Feature","geometry":{"type":"Point","coordinates":[-97.822881,32.760947]},"properties":{"locationId":"184HP8031","locatedOn":"Garner Rd","locOnAlias":"296523","type":"SPOT","category":"URBAN ACR","routeType":"FC","route":"0000","active":"Yes","fnctClass":"(6)Minor Collector","latestAadt":1765,"latestAadtYear":2019,"latestDhv30":192,"latestKPercent":11,"latestDPercent":null,"latestVolumeCount":1936,"latestVolumeDate":"2019-05-06","extractedAt":"2025-08-02T12:52:31Z"}},{"type":"Feature","geometry":{"type":"Point","coordinates":[-97.887911,32.72509]},"properties":{"locationId":"184RP201","locatedOn":"IH0020","locOnAlias":"IH0020-KG","type":"SPOT","category":"RAMP","routeType":"IH","route":"0020","active":"Yes","fnctClass":"(1)Interstate","latestAadt":10818,"latestAadtYear":2024,"latestDhv30":116,"latestKPercent":11,"latestDPercent":null,"latestVolumeCount":1280,"latestVolumeDate":"2024-05-01","extractedAt":"2025-08-02T13:31:50Z"}},{"type":"Feature","geometry":{"type":"Point","coordinates":[-97.882461,32.727087]},"properties":{"locationId":"184RP202","locatedOn":"IH0020","locOnAlias":"IH0020-KG","type":"SPOT","category":"RAMP","routeType":"IH","route":"0020","active":"Yes","fnctClass":"(1)Interstate","latestAadt":14998,"latestAadtYear":2024,"latestDhv30":185,"latestKPercent":12,"latestDPercent":null,"latestVolumeCount":1517,"latestVolumeDate":"2024-04-08","extractedAt":"2025-08-02T13:54:42Z"}},{"type":"Feature","geometry":{"type":"Point","coordinates":[-97.873184,32.727357]},"properties":{"locationId":"184RP204","locatedOn":"IH0020","locOnAlias":"IH0020-KG","type":"SPOT","category":"RAMP","routeType":"IH","route":"0020","active":"Yes","fnctClass":"(1)Interstate","latestAadt":46328,"latestAadtYear":2024,"latestDhv30":388,"latestKPercent":8,"latestDPercent":null,"latestVolumeCount":4544,"latestVolumeDate":"2024-04-08","extractedAt":"2025-08-02T14:10:09Z"}},{"type":"Feature","geometry":{"type":"Point","coordinates":[-97.825017,32.728184]},"properties":{"locationId":"184RP205","locatedOn":"IH0020","locOnAlias":"","type":"SPOT","category":"RAMP","routeType":"","route":"","active":"Yes","fnctClass":"(1)Interstate","latestAadt":21798,"latestAadtYear":2024,"latestDhv30":220,"latestKPercent":10,"latestDPercent":null,"latestVolumeCount":2581,"latestVolumeDate":"2024-05-01","extractedAt":"2025-08-02T14:16:18Z"}},{"type":"Feature","geometry":{"type":"Point","coordinates":[-97.835197,32.728039]},"properties":{"locationId":"184RP205A","locatedOn":"IH0020","locOnAlias":"IH0020-KG","type":"SPOT","category":"RAMP","routeType":"IH","route":"0020","active":"Yes","fnctClass":"(1)Interstate","latestAadt":62618,"latestAadtYear":2024,"latestDhv30":486,"latestKPercent":8,"latestDPercent":null,"latestVolumeCount":5587,"latestVolumeDate":"2024-04-08","extractedAt":"2025-08-02T14:16:31Z"}},{"type":"Feature","geometry":{"type":"Point","coordinates":[-97.845338,32.727951]},"properties":{"locationId":"184RP205B","locatedOn":"IH0020","locOnAlias":"IH0020-KG","type":"SPOT","category":"RAMP","routeType":"","route":"","active":"Yes","fnctClass":"(1)Interstate","latestAadt":3628,"latestAadtYear":2024,"latestDhv30":41,"latestKPercent":11,"latestDPercent":null,"latestVolumeCount":412,"latestVolumeDate":"2024-04-08","extractedAt":"2025-08-02T14:16:49Z"}},{"type":"Feature","geometry":{"type":"Point","coordinates":[-97.8272,32.72861]},"properties":{"locationId":"184RP206","locatedOn":"IH0020","locOnAlias":"","type":"SPOT","category":"RAMP","routeType":"","route":"","active":"Yes","fnctClass":"(1)Interstate","latestAadt":22948,"latestAadtYear":2024,"latestDhv30":191,"latestKPercent":8,"latestDPercent":null,"latestVolumeCount":2317,"latestVolumeDate":"2024-04-08","extractedAt":"2025-08-02T14:17:01Z"}},{"type":"Feature","geometry":{"type":"Point","coordinates":[-97.8355,32.728551]},"properties":{"locationId":"184RP206A","locatedOn":"IH0020","locOnAlias":"IH0020-KG","type":"SPOT","category":"RAMP","routeType":"IH","route":"0020","active":"Yes","fnctClass":"(1)Interstate","latestAadt":74818,"latestAadtYear":2024,"latestDhv30":651,"latestKPercent":9,"latestDPercent":null,"latestVolumeCount":7354,"latestVolumeDate":"2024-04-08","extractedAt":"2025-08-02T14:17:15Z"}},{"type":"Feature","geometry":{"type":"Point","coordinates":[-97.843985,32.728466]},"properties":{"locationId":"184RP206B","locatedOn":"IH0020","locOnAlias":"IH0020-KG","type":"SPOT","category":"RAMP","routeType":"IH","route":"0020","active":"Yes","fnctClass":"(1)Interstate","latestAadt":3448,"latestAadtYear":2024,"latestDhv30":30,"latestKPercent":9,"latestDPercent":null,"latestVolumeCount":347,"latestVolumeDate":"2024-04-08","extractedAt":"2025-08-02T14:17:28Z"}},{"type":"Feature","geometry":{"type":"Point","coordinates":[-97.82813,32.751951]},"properties":{"locationId":"184U16","locatedOn":"SS0312","locOnAlias":"SS0312-KG","type":"SPOT","category":"URBAN ACR","routeType":"SS","route":"312","active":"Yes","fnctClass":"(5)Major Collector","latestAadt":3868,"latestAadtYear":2024,"latestDhv30":439,"latestKPercent":11,"latestDPercent":null,"latestVolumeCount":4405,"latestVolumeDate":"2024-05-08","extractedAt":"2025-08-02T15:58:12Z"}},{"type":"Feature","geometry":{"type":"Point","coordinates":[-97.822268,32.699891]},"properties":{"locationId":"184U17","locatedOn":"FM1884","locOnAlias":"FM1884-KG","type":"SPOT","category":"URBAN ACR","routeType":"FM","route":"1884","active":"Yes","fnctClass":"(5)Major Collector","latestAadt":null,"latestAadtYear":null,"latestDhv30":null,"latestKPercent":null,"latestDPercent":null,"latestVolumeCount":null,"latestVolumeDate":null,"extractedAt":"2025-08-02T15:58:26Z"}}]}