{"type":"FeatureCollection","features":[{"type":"Feature","geometry":{"type":"Point","coordinates":[-97.907706,32.590886]},"properties":{"locationId":"184CR94A","locatedOn":"-","locOnAlias":"","type":"SPOT","category":"URBAN ACR","routeType":"","route":"","active":"Yes","fnctClass":"(7)Local","latestAadt":130,"latestAadtYear":2024,"latestDhv30":12,"latestKPercent":10,"latestDPercent":null,"latestVolumeCount":129,"latestVolumeDate":"2024-05-15","extractedAt":"2025-08-01T23:30:37Z"}},{"type":"Feature","geometry":{"type":"Point","coordinates":[-97.896595,32.591928]},"properties":{"locationId":"184CR94B","locatedOn":"-","locOnAlias":"","type":"SPOT","category":"INACTIVE","routeType":"","route":"","active":"No","fnctClass":"(7)Local","latestAadt":38,"latestAadtYear":2019,"latestDhv30":6,"latestKPercent":16,"latestDPercent":null,"latestVolumeCount":41,"latestVolumeDate":"2019-05-15","extractedAt":"2025-08-01T23:30:52Z"}},{"type":"Feature","geometry":{"type":"Point","coordinates":[-97.825033,32.57275]},"properties":{"locationId":"184FS15","locatedOn":"CR0000","locOnAlias":"184AA0609","type":"SPOT","category":"INACTIVE","routeType":"CR","route":"0000","active":"No","fnctClass":"(7)Local","latestAadt":37,"latestAadtYear":2019,"latestDhv30":9,"latestKPercent":24,"latestDPercent":null,"latestVolumeCount":40,"latestVolumeDate":"2019-05-15","extractedAt":"2025-08-02T00:10:24Z"}},{"type":"Feature","geometry":{"type":"Point","coordinates":[-97.874523,32.576394]},"properties":{"locationId":"184RS2A","locatedOn":"LIPAN TRL","locOnAlias":"184AA0593","type":"SPOT","category":"URBAN ACR","routeType":"CR","route":"593","active":"Yes","fnctClass":"(7)Local","latestAadt":234,"latestAadtYear":2024,"latestDhv30":23,"latestKPercent":10,"latestDPercent":null,"latestVolumeCount":235,"latestVolumeDate":"2024-05-15","extractedAt":"2025-08-02T15:19:10Z"}}]}