{"type":"FeatureCollection","features":[{"type":"Feature","geometry":{"type":"Point","coordinates":[-97.814531,32.757221]},"properties":{"locationId":"184CR334A","locatedOn":"-","locOnAlias":"","type":"SPOT","category":"URBAN ACR","routeType":"","route":"","active":"Yes","fnctClass":"(4)Minor Arterial","latestAadt":5562,"latestAadtYear":2019,"latestDhv30":726,"latestKPercent":13,"latestDPercent":null,"latestVolumeCount":6890,"latestVolumeDate":"2019-05-06","extractedAt":"2025-08-01T20:56:22Z"}},{"type":"Feature","geometry":{"type":"Point","coordinates":[-97.814503,32.758982]},"properties":{"locationId":"184HP8029","locatedOn":"BOWIE","locOnAlias":"250313","type":"SPOT","category":"URBAN ACR","routeType":"FC","route":"0000","active":"Yes","fnctClass":"(5)Major Collector","latestAadt":736,"latestAadtYear":2024,"latestDhv30":80,"latestKPercent":11,"latestDPercent":null,"latestVolumeCount":776,"latestVolumeDate":"2024-05-08","extractedAt":"2025-08-02T12:52:02Z"}},{"type":"Feature","geometry":{"type":"Point","coordinates":[-97.812481,32.758804]},"properties":{"locationId":"184T10","locatedOn":"US0180","locOnAlias":"US0180-KG","type":"SPOT","category":"ANNUAL ACR","routeType":"US","route":"0180","active":"Yes","fnctClass":"(3)Principal Arterial-Other","latestAadt":14062,"latestAadtYear":2024,"latestDhv30":1270,"latestKPercent":9,"latestDPercent":57,"latestVolumeCount":14958,"latestVolumeDate":"2024-05-13","extractedAt":"2025-08-02T15:32:49Z"}}]}