{"type":"FeatureCollection","features":[{"type":"Feature","geometry":{"type":"Point","coordinates":[-97.815129,32.727921]},"properties":{"locationId":"184H2002","locatedOn":"IH0020","locOnAlias":"IH0020-KG","type":"SPOT","category":"ANNUAL ACR","routeType":"IH","route":"0020","active":"Yes","fnctClass":"(1)Interstate","latestAadt":499558,"latestAadtYear":2024,"latestDhv30":null,"latestKPercent":null,"latestDPercent":null,"latestVolumeCount":null,"latestVolumeDate":null,"extractedAt":"2025-08-02T03:37:24Z"}},{"type":"Feature","geometry":{"type":"Point","coordinates":[-97.814681,32.72752]},"properties":{"locationId":"184H2002EBSR","locatedOn":"IH0020","locOnAlias":"IH0020-AG","type":"SPOT","category":"ANNUAL ACR","routeType":"IH","route":"0020","active":"Yes","fnctClass":"(5)Major Collector","latestAadt":103163,"latestAadtYear":2024,"latestDhv30":null,"latestKPercent":null,"latestDPercent":null,"latestVolumeCount":10939,"latestVolumeDate":"2023-07-19","extractedAt":"2025-08-02T03:37:38Z"}},{"type":"Feature","geometry":{"type":"Point","coordinates":[-97.814616,32.728251]},"properties":{"locationId":"184H2002WBSR","locatedOn":"IH0020","locOnAlias":"IH0020-XG","type":"SPOT","category":"ANNUAL ACR","routeType":"IH","route":"0020","active":"Yes","fnctClass":"(5)Major Collector","latestAadt":127383,"latestAadtYear":2024,"latestDhv30":null,"latestKPercent":null,"latestDPercent":null,"latestVolumeCount":13354,"latestVolumeDate":"2023-07-19","extractedAt":"2025-08-02T03:37:53Z"}},{"type":"Feature","geometry":{"type":"Point","coordinates":[-97.812394,32.727488]},"properties":{"locationId":"184RP209","locatedOn":"IH0020","locOnAlias":"IH0020-KG","type":"SPOT","category":"RAMP","routeType":"IH","route":"0020","active":"Yes","fnctClass":"(1)Interstate","latestAadt":47478,"latestAadtYear":2024,"latestDhv30":452,"latestKPercent":10,"latestDPercent":null,"latestVolumeCount":4244,"latestVolumeDate":"2024-04-08","extractedAt":"2025-08-02T14:23:41Z"}}]}