{"type":"FeatureCollection","features":[{"type":"Feature","geometry":{"type":"Point","coordinates":[-97.813966,32.721591]},"properties":{"locationId":"184HP6005","locatedOn":"WBB FIELDER","locOnAlias":"","type":"SPOT","category":"URBAN ACR","routeType":"","route":"","active":"Yes","fnctClass":"(6)Minor Collector","latestAadt":2746,"latestAadtYear":2024,"latestDhv30":332,"latestKPercent":12,"latestDPercent":74,"latestVolumeCount":2854,"latestVolumeDate":"2024-05-15","extractedAt":"2025-08-02T12:43:49Z"}}]}