{"type":"FeatureCollection","features":[{"type":"Feature","geometry":{"type":"Point","coordinates":[-97.659178,32.838312]},"properties":{"locationId":"184CR35","locatedOn":"Tucker","locOnAlias":"184AA0125","type":"SPOT","category":"URBAN ACR","routeType":"CR","route":"0000","active":"Yes","fnctClass":"(7)Local","latestAadt":1734,"latestAadtYear":2024,"latestDhv30":185,"latestKPercent":11,"latestDPercent":null,"latestVolumeCount":1733,"latestVolumeDate":"2024-05-21","extractedAt":"2025-08-01T21:17:49Z"}}]}