{"type":"FeatureCollection","features":[{"type":"Feature","geometry":{"type":"Point","coordinates":[-97.663581,32.729869]},"properties":{"locationId":"184RS204A","locatedOn":"MCDAVID DR","locOnAlias":"184AA0854","type":"SPOT","category":"URBAN ACR","routeType":"CR","route":"854","active":"Yes","fnctClass":"(7)Local","latestAadt":429,"latestAadtYear":2024,"latestDhv30":52,"latestKPercent":12,"latestDPercent":null,"latestVolumeCount":462,"latestVolumeDate":"2024-05-13","extractedAt":"2025-08-02T15:17:10Z"}}]}