{"type":"FeatureCollection","features":[{"type":"Feature","geometry":{"type":"Point","coordinates":[-97.661182,32.679423]},"properties":{"locationId":"184CR232","locatedOn":"BRANCH HOLLOW","locOnAlias":"","type":"SPOT","category":"URBAN ACR","routeType":"","route":"","active":"Yes","fnctClass":"(7)Local","latestAadt":261,"latestAadtYear":2024,"latestDhv30":59,"latestKPercent":23,"latestDPercent":null,"latestVolumeCount":271,"latestVolumeDate":"2024-05-13","extractedAt":"2025-08-01T19:59:49Z"}}]}