{"type":"FeatureCollection","features":[{"type":"Feature","geometry":{"type":"Point","coordinates":[-97.557197,32.898947]},"properties":{"locationId":"184CR29","locatedOn":"-","locOnAlias":"","type":"SPOT","category":"URBAN ACR","routeType":"","route":"","active":"Yes","fnctClass":"(7)Local","latestAadt":661,"latestAadtYear":2024,"latestDhv30":59,"latestKPercent":9,"latestDPercent":null,"latestVolumeCount":663,"latestVolumeDate":"2024-05-21","extractedAt":"2025-08-01T20:14:10Z"}},{"type":"Feature","geometry":{"type":"Point","coordinates":[-97.555496,32.902643]},"properties":{"locationId":"184RP1993","locatedOn":"SL0344","locOnAlias":"","type":"SPOT","category":"RAMP","routeType":"","route":"","active":"Yes","fnctClass":"(5)Major Collector","latestAadt":3256,"latestAadtYear":2024,"latestDhv30":299,"latestKPercent":9,"latestDPercent":null,"latestVolumeCount":3378,"latestVolumeDate":"2024-04-22","extractedAt":"2025-08-02T13:31:34Z"}}]}