{"type":"FeatureCollection","features":[{"type":"Feature","geometry":{"type":"Point","coordinates":[-97.711506,32.763383]},"properties":{"locationId":"184FS301","locatedOn":"FC0000","locOnAlias":"297467","type":"SPOT","category":"INACTIVE","routeType":"FC","route":"0000","active":"No","fnctClass":"(5)Major Collector","latestAadt":61333,"latestAadtYear":2022,"latestDhv30":null,"latestKPercent":null,"latestDPercent":null,"latestVolumeCount":4537,"latestVolumeDate":"2014-04-22","extractedAt":"2025-08-02T00:33:31Z"}},{"type":"Feature","geometry":{"type":"Point","coordinates":[-97.706362,32.760682]},"properties":{"locationId":"184FS304F","locatedOn":"-","locOnAlias":"","type":"SPOT","category":"INACTIVE","routeType":"","route":"","active":"No","fnctClass":"(7)Local","latestAadt":925,"latestAadtYear":2019,"latestDhv30":121,"latestKPercent":13,"latestDPercent":null,"latestVolumeCount":968,"latestVolumeDate":"2019-05-06","extractedAt":"2025-08-02T00:33:44Z"}}]}