{"type":"FeatureCollection","features":[{"type":"Feature","geometry":{"type":"Point","coordinates":[-97.707466,32.753057]},"properties":{"locationId":"184CR325A","locatedOn":"Newell Dr","locOnAlias":"297488","type":"SPOT","category":"URBAN ACR","routeType":"LS","route":"0000","active":"Yes","fnctClass":"(6)Minor Collector","latestAadt":526,"latestAadtYear":2024,"latestDhv30":49,"latestKPercent":9,"latestDPercent":null,"latestVolumeCount":524,"latestVolumeDate":"2024-05-13","extractedAt":"2025-08-01T20:46:53Z"}},{"type":"Feature","geometry":{"type":"Point","coordinates":[-97.710674,32.75781]},"properties":{"locationId":"184CR326","locatedOn":"-","locOnAlias":"","type":"SPOT","category":"URBAN ACR","routeType":"","route":"","active":"Yes","fnctClass":"(5)Major Collector","latestAadt":6994,"latestAadtYear":2024,"latestDhv30":597,"latestKPercent":9,"latestDPercent":null,"latestVolumeCount":7195,"latestVolumeDate":"2024-05-21","extractedAt":"2025-08-01T20:47:21Z"}},{"type":"Feature","geometry":{"type":"Point","coordinates":[-97.711752,32.755152]},"properties":{"locationId":"184HP8057","locatedOn":"SOAKRIDGE","locOnAlias":"","type":"SPOT","category":"URBAN ACR","routeType":"","route":"","active":"Yes","fnctClass":"(5)Major Collector","latestAadt":5009,"latestAadtYear":2024,"latestDhv30":433,"latestKPercent":9,"latestDPercent":null,"latestVolumeCount":5237,"latestVolumeDate":"2024-05-21","extractedAt":"2025-08-02T13:14:57Z"}},{"type":"Feature","geometry":{"type":"Point","coordinates":[-97.702696,32.754731]},"properties":{"locationId":"184RP2023","locatedOn":"IH0020","locOnAlias":"","type":"SPOT","category":"RAMP","routeType":"","route":"","active":"Yes","fnctClass":"(1)Interstate","latestAadt":33508,"latestAadtYear":2024,"latestDhv30":295,"latestKPercent":9,"latestDPercent":null,"latestVolumeCount":3609,"latestVolumeDate":"2024-04-10","extractedAt":"2025-08-02T13:56:48Z"}}]}