{"type":"FeatureCollection","features":[{"type":"Feature","geometry":{"type":"Point","coordinates":[-97.557197,32.898947]},"properties":{"locationId":"184CR29","locatedOn":"-","locOnAlias":"","type":"SPOT","category":"URBAN ACR","routeType":"","route":"","active":"Yes","fnctClass":"(7)Local","latestAadt":661,"latestAadtYear":2024,"latestDhv30":59,"latestKPercent":9,"latestDPercent":null,"latestVolumeCount":663,"latestVolumeDate":"2024-05-21","extractedAt":"2025-08-01T20:14:10Z"}},{"type":"Feature","geometry":{"type":"Point","coordinates":[-97.546212,32.896616]},"properties":{"locationId":"184CR30","locatedOn":"-","locOnAlias":"","type":"SPOT","category":"URBAN ACR","routeType":"","route":"","active":"Yes","fnctClass":"(7)Local","latestAadt":603,"latestAadtYear":2024,"latestDhv30":70,"latestKPercent":12,"latestDPercent":null,"latestVolumeCount":604,"latestVolumeDate":"2024-05-21","extractedAt":"2025-08-01T20:14:41Z"}},{"type":"Feature","geometry":{"type":"Point","coordinates":[-97.549056,32.857447]},"properties":{"locationId":"184CR33A","locatedOn":"-","locOnAlias":"","type":"SPOT","category":"INACTIVE","routeType":"","route":"","active":"No","fnctClass":"(7)Local","latestAadt":1494,"latestAadtYear":2019,"latestDhv30":152,"latestKPercent":10,"latestDPercent":null,"latestVolumeCount":1583,"latestVolumeDate":"2019-05-13","extractedAt":"2025-08-01T21:11:02Z"}},{"type":"Feature","geometry":{"type":"Point","coordinates":[-97.548473,32.900989]},"properties":{"locationId":"184H13","locatedOn":"SH0199","locOnAlias":"SH0199-KG","type":"SPOT","category":"INACTIVE","routeType":"SH","route":"0199","active":"No","fnctClass":"(2)Principal Arterial-Other Freeways and Expressways","latestAadt":24603,"latestAadtYear":2021,"latestDhv30":2206,"latestKPercent":9,"latestDPercent":64,"latestVolumeCount":27220,"latestVolumeDate":"2021-08-02","extractedAt":"2025-08-02T01:45:23Z"}},{"type":"Feature","geometry":{"type":"Point","coordinates":[-97.548581,32.900661]},"properties":{"locationId":"184H13EBSR","locatedOn":"SH0199","locOnAlias":"SH0199-AG","type":"SPOT","category":"INACTIVE","routeType":"SH","route":"0199","active":"No","fnctClass":"(5)Major Collector","latestAadt":1899,"latestAadtYear":2020,"latestDhv30":181,"latestKPercent":10,"latestDPercent":null,"latestVolumeCount":2234,"latestVolumeDate":"2020-08-24","extractedAt":"2025-08-02T01:45:39Z"}},{"type":"Feature","geometry":{"type":"Point","coordinates":[-97.548338,32.901365]},"properties":{"locationId":"184H13WBSR","locatedOn":"SH0199","locOnAlias":"SH0199-XG","type":"SPOT","category":"INACTIVE","routeType":"SH","route":"0199","active":"No","fnctClass":"(5)Major Collector","latestAadt":3113,"latestAadtYear":2020,"latestDhv30":345,"latestKPercent":11,"latestDPercent":null,"latestVolumeCount":3659,"latestVolumeDate":"2020-08-24","extractedAt":"2025-08-02T01:47:20Z"}},{"type":"Feature","geometry":{"type":"Point","coordinates":[-97.549214,32.899436]},"properties":{"locationId":"184H14","locatedOn":"SL0344","locOnAlias":"SL0344-KG","type":"SPOT","category":"ANNUAL ACR","routeType":"SL","route":"0344","active":"Yes","fnctClass":"(5)Major Collector","latestAadt":6986,"latestAadtYear":2024,"latestDhv30":560,"latestKPercent":8,"latestDPercent":null,"latestVolumeCount":6888,"latestVolumeDate":"2024-07-08","extractedAt":"2025-08-02T01:47:37Z"}},{"type":"Feature","geometry":{"type":"Point","coordinates":[-97.553654,32.901748]},"properties":{"locationId":"184H15","locatedOn":"SL0344","locOnAlias":"SL0344-KG","type":"SPOT","category":"INACTIVE","routeType":"SL","route":"0344","active":"No","fnctClass":"(5)Major Collector","latestAadt":3205,"latestAadtYear":2024,"latestDhv30":233,"latestKPercent":7,"latestDPercent":null,"latestVolumeCount":3168,"latestVolumeDate":"2024-07-08","extractedAt":"2025-08-02T01:47:49Z"}},{"type":"Feature","geometry":{"type":"Point","coordinates":[-97.557195,32.90344]},"properties":{"locationId":"184H15A","locatedOn":"SH0199","locOnAlias":"SH0199-KG","type":"SPOT","category":"ANNUAL ACR","routeType":"SH","route":"0199","active":"Yes","fnctClass":"(2)Principal Arterial-Other Freeways and Expressways","latestAadt":30036,"latestAadtYear":2024,"latestDhv30":2684,"latestKPercent":9,"latestDPercent":null,"latestVolumeCount":31985,"latestVolumeDate":"2024-04-22","extractedAt":"2025-08-02T01:52:39Z"}},{"type":"Feature","geometry":{"type":"Point","coordinates":[-97.557184,32.903924]},"properties":{"locationId":"184H15AWBSR","locatedOn":"SH0199","locOnAlias":"SH0199-XG","type":"SPOT","category":"ANNUAL ACR","routeType":"SH","route":"0199","active":"Yes","fnctClass":"(5)Major Collector","latestAadt":3729,"latestAadtYear":2024,"latestDhv30":342,"latestKPercent":9,"latestDPercent":null,"latestVolumeCount":3743,"latestVolumeDate":"2024-06-03","extractedAt":"2025-08-02T03:28:43Z"}},{"type":"Feature","geometry":{"type":"Point","coordinates":[-97.552167,32.900122]},"properties":{"locationId":"184H16","locatedOn":"FM0730","locOnAlias":"FM0730-KG","type":"SPOT","category":"ANNUAL ACR","routeType":"FM","route":"0730","active":"Yes","fnctClass":"(5)Major Collector","latestAadt":13912,"latestAadtYear":2024,"latestDhv30":998,"latestKPercent":7,"latestDPercent":null,"latestVolumeCount":13493,"latestVolumeDate":"2024-07-08","extractedAt":"2025-08-02T03:28:57Z"}},{"type":"Feature","geometry":{"type":"Point","coordinates":[-97.55021,32.901495]},"properties":{"locationId":"184H19901","locatedOn":"SH0199","locOnAlias":"SH0199-KG","type":"SPOT","category":"ANNUAL ACR","routeType":"SH","route":"0199","active":"Yes","fnctClass":"(2)Principal Arterial-Other Freeways and Expressways","latestAadt":255903,"latestAadtYear":2024,"latestDhv30":null,"latestKPercent":null,"latestDPercent":null,"latestVolumeCount":null,"latestVolumeDate":null,"extractedAt":"2025-08-02T03:30:04Z"}},{"type":"Feature","geometry":{"type":"Point","coordinates":[-97.550336,32.90113]},"properties":{"locationId":"184H19901EBSR","locatedOn":"SH0199","locOnAlias":"SH0199-AG","type":"SPOT","category":"ANNUAL ACR","routeType":"SH","route":"0199","active":"Yes","fnctClass":"(5)Major Collector","latestAadt":2677,"latestAadtYear":2024,"latestDhv30":206,"latestKPercent":8,"latestDPercent":null,"latestVolumeCount":2729,"latestVolumeDate":"2024-06-03","extractedAt":"2025-08-02T03:30:19Z"}},{"type":"Feature","geometry":{"type":"Point","coordinates":[-97.550207,32.9019]},"properties":{"locationId":"184H19901WBSR","locatedOn":"SH0199","locOnAlias":"SH0199-XG","type":"SPOT","category":"ANNUAL ACR","routeType":"SH","route":"0199","active":"Yes","fnctClass":"(5)Major Collector","latestAadt":40333,"latestAadtYear":2024,"latestDhv30":null,"latestKPercent":null,"latestDPercent":null,"latestVolumeCount":4186,"latestVolumeDate":"2023-07-19","extractedAt":"2025-08-02T03:30:35Z"}},{"type":"Feature","geometry":{"type":"Point","coordinates":[-97.550915,32.902518]},"properties":{"locationId":"184HP8035","locatedOn":"Commerce St","locOnAlias":"250334","type":"SPOT","category":"URBAN ACR","routeType":"FC","route":"0000","active":"Yes","fnctClass":"(5)Major Collector","latestAadt":10013,"latestAadtYear":2024,"latestDhv30":949,"latestKPercent":9,"latestDPercent":null,"latestVolumeCount":10492,"latestVolumeDate":"2024-05-21","extractedAt":"2025-08-02T12:53:17Z"}},{"type":"Feature","geometry":{"type":"Point","coordinates":[-97.546535,32.900164]},"properties":{"locationId":"184RP1991","locatedOn":"SH0199","locOnAlias":"","type":"SPOT","category":"RAMP","routeType":"","route":"","active":"Yes","fnctClass":"(2)Principal Arterial-Other Freeways and Expressways","latestAadt":2271,"latestAadtYear":2024,"latestDhv30":213,"latestKPercent":9,"latestDPercent":null,"latestVolumeCount":2425,"latestVolumeDate":"2024-04-22","extractedAt":"2025-08-02T13:31:05Z"}},{"type":"Feature","geometry":{"type":"Point","coordinates":[-97.546438,32.900646]},"properties":{"locationId":"184RP1992","locatedOn":"SH0199","locOnAlias":"","type":"SPOT","category":"RAMP","routeType":"","route":"","active":"Yes","fnctClass":"(2)Principal Arterial-Other Freeways and Expressways","latestAadt":3051,"latestAadtYear":2024,"latestDhv30":329,"latestKPercent":11,"latestDPercent":null,"latestVolumeCount":3236,"latestVolumeDate":"2024-04-22","extractedAt":"2025-08-02T13:31:18Z"}},{"type":"Feature","geometry":{"type":"Point","coordinates":[-97.555496,32.902643]},"properties":{"locationId":"184RP1993","locatedOn":"SL0344","locOnAlias":"","type":"SPOT","category":"RAMP","routeType":"","route":"","active":"Yes","fnctClass":"(5)Major Collector","latestAadt":3256,"latestAadtYear":2024,"latestDhv30":299,"latestKPercent":9,"latestDPercent":null,"latestVolumeCount":3378,"latestVolumeDate":"2024-04-22","extractedAt":"2025-08-02T13:31:34Z"}},{"type":"Feature","geometry":{"type":"Point","coordinates":[-97.551418,32.900965]},"properties":{"locationId":"184T22","locatedOn":"FM0730","locOnAlias":"FM0730-KG","type":"SPOT","category":"ANNUAL ACR","routeType":"FM","route":"0730","active":"Yes","fnctClass":"(5)Major Collector","latestAadt":12438,"latestAadtYear":2024,"latestDhv30":921,"latestKPercent":7,"latestDPercent":null,"latestVolumeCount":12068,"latestVolumeDate":"2024-07-08","extractedAt":"2025-08-02T15:41:03Z"}},{"type":"Feature","geometry":{"type":"Point","coordinates":[-97.545877,32.900638]},"properties":{"locationId":"184U3573","locatedOn":"SH0199","locOnAlias":"SH0199-XG","type":"SPOT","category":"INACTIVE","routeType":"SH","route":"0199","active":"No","fnctClass":"(5)Major Collector","latestAadt":1932,"latestAadtYear":2014,"latestDhv30":271,"latestKPercent":14,"latestDPercent":null,"latestVolumeCount":2541,"latestVolumeDate":"2014-04-21","extractedAt":"2025-08-02T16:05:19Z"}},{"type":"Feature","geometry":{"type":"Point","coordinates":[-97.546148,32.899871]},"properties":{"locationId":"184U3574","locatedOn":"SH0199","locOnAlias":"NW Pkwy St","type":"SPOT","category":"INACTIVE","routeType":"SH","route":"0199","active":"No","fnctClass":"(5)Major Collector","latestAadt":1912,"latestAadtYear":2019,"latestDhv30":210,"latestKPercent":11,"latestDPercent":null,"latestVolumeCount":2337,"latestVolumeDate":"2019-05-06","extractedAt":"2025-08-02T16:05:34Z"}}]}