{"type":"FeatureCollection","features":[{"type":"Feature","geometry":{"type":"Point","coordinates":[-98.00813,32.750033]},"properties":{"locationId":"184FS317","locatedOn":"LS0000","locOnAlias":"1173001","type":"SPOT","category":"URBAN ACR","routeType":"LS","route":"0000","active":"Yes","fnctClass":"(7)Local","latestAadt":107,"latestAadtYear":2019,"latestDhv30":30,"latestKPercent":28,"latestDPercent":null,"latestVolumeCount":115,"latestVolumeDate":"2019-05-08","extractedAt":"2025-08-02T00:42:09Z"}}]}