{"type":"FeatureCollection","features":[{"type":"Feature","geometry":{"type":"Point","coordinates":[-98.006732,32.682248]},"properties":{"locationId":"184RP20105","locatedOn":"IH0020","locOnAlias":"IH0020-KG","type":"SPOT","category":"RAMP","routeType":"IH","route":"0020","active":"Yes","fnctClass":"(1)Interstate","latestAadt":8498,"latestAadtYear":2024,"latestDhv30":139,"latestKPercent":16,"latestDPercent":null,"latestVolumeCount":1298,"latestVolumeDate":"2024-04-08","extractedAt":"2025-08-02T13:38:43Z"}},{"type":"Feature","geometry":{"type":"Point","coordinates":[-98.00703,32.682861]},"properties":{"locationId":"184RP20106","locatedOn":"IH0020","locOnAlias":"IH0020-KG","type":"SPOT","category":"RAMP","routeType":"","route":"","active":"Yes","fnctClass":"(1)Interstate","latestAadt":12478,"latestAadtYear":2024,"latestDhv30":130,"latestKPercent":10,"latestDPercent":null,"latestVolumeCount":1136,"latestVolumeDate":"2024-04-08","extractedAt":"2025-08-02T13:38:57Z"}}]}