{"type":"FeatureCollection","features":[{"type":"Feature","geometry":{"type":"Point","coordinates":[-97.657297,32.909795]},"properties":{"locationId":"184CR8D","locatedOn":"-","locOnAlias":"","type":"SPOT","category":"URBAN ACR","routeType":"","route":"","active":"Yes","fnctClass":"(7)Local","latestAadt":1153,"latestAadtYear":2024,"latestDhv30":109,"latestKPercent":10,"latestDPercent":null,"latestVolumeCount":1162,"latestVolumeDate":"2024-05-22","extractedAt":"2025-08-01T23:11:32Z"}},{"type":"Feature","geometry":{"type":"Point","coordinates":[-97.654714,32.912886]},"properties":{"locationId":"184CR8E","locatedOn":"-","locOnAlias":"","type":"SPOT","category":"INACTIVE","routeType":"","route":"","active":"No","fnctClass":"(7)Local","latestAadt":754,"latestAadtYear":2014,"latestDhv30":71,"latestKPercent":9,"latestDPercent":null,"latestVolumeCount":785,"latestVolumeDate":"2014-04-21","extractedAt":"2025-08-01T23:11:46Z"}}]}