{"type":"FeatureCollection","features":[{"type":"Feature","geometry":{"type":"Point","coordinates":[-97.64907,32.78802]},"properties":{"locationId":"184CR317A","locatedOn":"White Settlement Rd","locOnAlias":"298066","type":"SPOT","category":"ANNUAL ACR","routeType":"LS","route":"0000","active":"Yes","fnctClass":"(6)Minor Collector","latestAadt":749,"latestAadtYear":2024,"latestDhv30":89,"latestKPercent":12,"latestDPercent":53,"latestVolumeCount":722,"latestVolumeDate":"2024-05-14","extractedAt":"2025-08-01T20:31:47Z"}},{"type":"Feature","geometry":{"type":"Point","coordinates":[-97.646792,32.789786]},"properties":{"locationId":"184CR317B","locatedOn":"-","locOnAlias":"","type":"SPOT","category":"URBAN ACR","routeType":"","route":"","active":"Yes","fnctClass":"(7)Local","latestAadt":84,"latestAadtYear":2024,"latestDhv30":10,"latestKPercent":13,"latestDPercent":null,"latestVolumeCount":86,"latestVolumeDate":"2024-05-21","extractedAt":"2025-08-01T20:32:03Z"}}]}