{"type":"FeatureCollection","features":[{"type":"Feature","geometry":{"type":"Point","coordinates":[-97.666613,32.780044]},"properties":{"locationId":"184FS312","locatedOn":"CR0000","locOnAlias":"184AA1900","type":"SPOT","category":"URBAN ACR","routeType":"CR","route":"0000","active":"Yes","fnctClass":"(7)Local","latestAadt":40,"latestAadtYear":2024,"latestDhv30":6,"latestKPercent":17,"latestDPercent":null,"latestVolumeCount":41,"latestVolumeDate":"2024-05-21","extractedAt":"2025-08-02T00:40:49Z"}}]}