{"type":"FeatureCollection","features":[{"type":"Feature","geometry":{"type":"Point","coordinates":[-97.653144,32.766614]},"properties":{"locationId":"184CR317","locatedOn":"-","locOnAlias":"","type":"SPOT","category":"URBAN ACR","routeType":"","route":"","active":"Yes","fnctClass":"(5)Major Collector","latestAadt":1055,"latestAadtYear":2019,"latestDhv30":131,"latestKPercent":12,"latestDPercent":null,"latestVolumeCount":1282,"latestVolumeDate":"2019-05-06","extractedAt":"2025-08-01T20:31:32Z"}}]}