{"type":"FeatureCollection","features":[{"type":"Feature","geometry":{"type":"Point","coordinates":[-97.651349,32.743381]},"properties":{"locationId":"184CR318","locatedOn":"-","locOnAlias":"","type":"SPOT","category":"INACTIVE","routeType":"","route":"","active":"No","fnctClass":"(7)Local","latestAadt":590,"latestAadtYear":2019,"latestDhv30":79,"latestKPercent":13,"latestDPercent":null,"latestVolumeCount":635,"latestVolumeDate":"2019-05-08","extractedAt":"2025-08-01T20:32:19Z"}},{"type":"Feature","geometry":{"type":"Point","coordinates":[-97.653083,32.74162]},"properties":{"locationId":"184CR318A","locatedOn":"-","locOnAlias":"","type":"SPOT","category":"URBAN ACR","routeType":"","route":"","active":"Yes","fnctClass":"(7)Local","latestAadt":1519,"latestAadtYear":2024,"latestDhv30":149,"latestKPercent":10,"latestDPercent":null,"latestVolumeCount":1643,"latestVolumeDate":"2024-05-13","extractedAt":"2025-08-01T20:32:32Z"}},{"type":"Feature","geometry":{"type":"Point","coordinates":[-97.666759,32.746727]},"properties":{"locationId":"184CR320","locatedOn":"-","locOnAlias":"","type":"SPOT","category":"URBAN ACR","routeType":"","route":"","active":"Yes","fnctClass":"(7)Local","latestAadt":322,"latestAadtYear":2024,"latestDhv30":40,"latestKPercent":13,"latestDPercent":null,"latestVolumeCount":350,"latestVolumeDate":"2024-05-13","extractedAt":"2025-08-01T20:39:27Z"}},{"type":"Feature","geometry":{"type":"Point","coordinates":[-97.647736,32.74085]},"properties":{"locationId":"184CR340","locatedOn":"Meadow Place Dr","locOnAlias":"CR0000","type":"SPOT","category":"URBAN ACR","routeType":"CR","route":"0000","active":"Yes","fnctClass":"(7)Local","latestAadt":823,"latestAadtYear":2024,"latestDhv30":91,"latestKPercent":11,"latestDPercent":null,"latestVolumeCount":893,"latestVolumeDate":"2024-05-13","extractedAt":"2025-08-01T21:11:43Z"}},{"type":"Feature","geometry":{"type":"Point","coordinates":[-97.650058,32.739426]},"properties":{"locationId":"184H2004","locatedOn":"IH0020","locOnAlias":"IH0020-KG","type":"SPOT","category":"ANNUAL ACR","routeType":"IH","route":"0020","active":"Yes","fnctClass":"(1)Interstate","latestAadt":951248,"latestAadtYear":2024,"latestDhv30":null,"latestKPercent":null,"latestDPercent":null,"latestVolumeCount":null,"latestVolumeDate":null,"extractedAt":"2025-08-02T03:38:09Z"}},{"type":"Feature","geometry":{"type":"Point","coordinates":[-97.650206,32.739037]},"properties":{"locationId":"184H2004EBSR","locatedOn":"IH0020","locOnAlias":"IH0020-AG","type":"SPOT","category":"ANNUAL ACR","routeType":"IH","route":"0020","active":"Yes","fnctClass":"(5)Major Collector","latestAadt":1504,"latestAadtYear":2024,"latestDhv30":131,"latestKPercent":9,"latestDPercent":null,"latestVolumeCount":1534,"latestVolumeDate":"2024-06-04","extractedAt":"2025-08-02T03:38:23Z"}},{"type":"Feature","geometry":{"type":"Point","coordinates":[-97.650502,32.739979]},"properties":{"locationId":"184H2004WBSR","locatedOn":"IH0020","locOnAlias":"IH0020-XG","type":"SPOT","category":"ANNUAL ACR","routeType":"IH","route":"0020","active":"Yes","fnctClass":"(5)Major Collector","latestAadt":9380,"latestAadtYear":2024,"latestDhv30":997,"latestKPercent":11,"latestDPercent":null,"latestVolumeCount":9565,"latestVolumeDate":"2024-06-04","extractedAt":"2025-08-02T03:38:37Z"}}]}