{"type":"FeatureCollection","features":[{"type":"Feature","geometry":{"type":"Point","coordinates":[-97.844212,32.728584]},"properties":{"locationId":"184D48WBSR","locatedOn":"IH0020","locOnAlias":"IH0020-XG","type":"SPOT","category":"ANNUAL ACR","routeType":"IH","route":"0020","active":"Yes","fnctClass":"(5)Major Collector","latestAadt":519,"latestAadtYear":2024,"latestDhv30":119,"latestKPercent":23,"latestDPercent":null,"latestVolumeCount":555,"latestVolumeDate":"2024-05-08","extractedAt":"2025-08-01T23:40:57Z"}},{"type":"Feature","geometry":{"type":"Point","coordinates":[-97.835197,32.728039]},"properties":{"locationId":"184RP205A","locatedOn":"IH0020","locOnAlias":"IH0020-KG","type":"SPOT","category":"RAMP","routeType":"IH","route":"0020","active":"Yes","fnctClass":"(1)Interstate","latestAadt":62618,"latestAadtYear":2024,"latestDhv30":486,"latestKPercent":8,"latestDPercent":null,"latestVolumeCount":5587,"latestVolumeDate":"2024-04-08","extractedAt":"2025-08-02T14:16:31Z"}},{"type":"Feature","geometry":{"type":"Point","coordinates":[-97.8355,32.728551]},"properties":{"locationId":"184RP206A","locatedOn":"IH0020","locOnAlias":"IH0020-KG","type":"SPOT","category":"RAMP","routeType":"IH","route":"0020","active":"Yes","fnctClass":"(1)Interstate","latestAadt":74818,"latestAadtYear":2024,"latestDhv30":651,"latestKPercent":9,"latestDPercent":null,"latestVolumeCount":7354,"latestVolumeDate":"2024-04-08","extractedAt":"2025-08-02T14:17:15Z"}},{"type":"Feature","geometry":{"type":"Point","coordinates":[-97.843985,32.728466]},"properties":{"locationId":"184RP206B","locatedOn":"IH0020","locOnAlias":"IH0020-KG","type":"SPOT","category":"RAMP","routeType":"IH","route":"0020","active":"Yes","fnctClass":"(1)Interstate","latestAadt":3448,"latestAadtYear":2024,"latestDhv30":30,"latestKPercent":9,"latestDPercent":null,"latestVolumeCount":347,"latestVolumeDate":"2024-04-08","extractedAt":"2025-08-02T14:17:28Z"}}]}