{"type":"FeatureCollection","features":[{"type":"Feature","geometry":{"type":"Point","coordinates":[-97.681341,32.906524]},"properties":{"locationId":"184HP6004","locatedOn":"Old Springtown Rd","locOnAlias":"184AA0172","type":"SPOT","category":"URBAN ACR","routeType":"CR","route":"0172","active":"Yes","fnctClass":"(6)Minor Collector","latestAadt":1066,"latestAadtYear":2024,"latestDhv30":107,"latestKPercent":10,"latestDPercent":null,"latestVolumeCount":1144,"latestVolumeDate":"2024-05-22","extractedAt":"2025-08-02T12:43:31Z"}}]}