{"type":"FeatureCollection","features":[{"type":"Feature","geometry":{"type":"Point","coordinates":[-97.6832,32.884697]},"properties":{"locationId":"184FS34","locatedOn":"CR0000","locOnAlias":"184AA1533","type":"SPOT","category":"URBAN ACR","routeType":"CR","route":"0000","active":"Yes","fnctClass":"(7)Local","latestAadt":39,"latestAadtYear":2024,"latestDhv30":5,"latestKPercent":15,"latestDPercent":null,"latestVolumeCount":39,"latestVolumeDate":"2024-05-22","extractedAt":"2025-08-02T00:43:01Z"}}]}