{"type":"FeatureCollection","features":[{"type":"Feature","geometry":{"type":"Point","coordinates":[-97.689846,32.708036]},"properties":{"locationId":"184HP8","locatedOn":"Airport Rd","locOnAlias":"297487","type":"SPOT","category":"ANNUAL ACR","routeType":"FC","route":"0000","active":"Yes","fnctClass":"(6)Minor Collector","latestAadt":11493,"latestAadtYear":2024,"latestDhv30":null,"latestKPercent":null,"latestDPercent":null,"latestVolumeCount":1336,"latestVolumeDate":"2023-07-17","extractedAt":"2025-08-02T12:44:20Z"}}]}