{"type":"FeatureCollection","features":[{"type":"Feature","geometry":{"type":"Point","coordinates":[-97.97822,32.912436]},"properties":{"locationId":"184D13","locatedOn":"FM1885","locOnAlias":"FM1885-KG","type":"SPOT","category":"ANNUAL ACR","routeType":"FM","route":"1885","active":"Yes","fnctClass":"(5)Major Collector","latestAadt":2446,"latestAadtYear":2024,"latestDhv30":219,"latestKPercent":9,"latestDPercent":null,"latestVolumeCount":2587,"latestVolumeDate":"2024-05-14","extractedAt":"2025-08-01T23:38:29Z"}},{"type":"Feature","geometry":{"type":"Point","coordinates":[-97.983384,32.90523]},"properties":{"locationId":"184RS10","locatedOn":"NAPEACH TREE","locOnAlias":"","type":"SPOT","category":"INACTIVE","routeType":"","route":"","active":"No","fnctClass":"(7)Local","latestAadt":22,"latestAadtYear":2019,"latestDhv30":6,"latestKPercent":27,"latestDPercent":null,"latestVolumeCount":24,"latestVolumeDate":"2019-05-15","extractedAt":"2025-08-02T14:25:03Z"}}]}