{"type":"FeatureCollection","features":[{"type":"Feature","geometry":{"type":"Point","coordinates":[-97.957383,32.732329]},"properties":{"locationId":"184CR106B","locatedOn":"-","locOnAlias":"","type":"SPOT","category":"URBAN ACR","routeType":"","route":"","active":"Yes","fnctClass":"(7)Local","latestAadt":267,"latestAadtYear":2024,"latestDhv30":26,"latestKPercent":10,"latestDPercent":null,"latestVolumeCount":274,"latestVolumeDate":"2024-05-06","extractedAt":"2025-08-01T16:58:51Z"}},{"type":"Feature","geometry":{"type":"Point","coordinates":[-97.978642,32.738568]},"properties":{"locationId":"184CR229","locatedOn":"NAFAIRVIEW","locOnAlias":"","type":"SPOT","category":"URBAN ACR","routeType":"","route":"","active":"Yes","fnctClass":"(7)Local","latestAadt":907,"latestAadtYear":2024,"latestDhv30":98,"latestKPercent":11,"latestDPercent":null,"latestVolumeCount":929,"latestVolumeDate":"2024-05-06","extractedAt":"2025-08-01T19:59:06Z"}},{"type":"Feature","geometry":{"type":"Point","coordinates":[-97.997002,32.754922]},"properties":{"locationId":"184CR233","locatedOn":"NACOOL JUNCTION","locOnAlias":"","type":"SPOT","category":"URBAN ACR","routeType":"","route":"","active":"Yes","fnctClass":"(7)Local","latestAadt":123,"latestAadtYear":2019,"latestDhv30":16,"latestKPercent":13,"latestDPercent":null,"latestVolumeCount":132,"latestVolumeDate":"2019-05-08","extractedAt":"2025-08-01T20:00:03Z"}},{"type":"Feature","geometry":{"type":"Point","coordinates":[-97.997002,32.754922]},"properties":{"locationId":"184CR233","locatedOn":"NACOOL JUNCTION","locOnAlias":"","type":"SPOT","category":"URBAN ACR","routeType":"","route":"","active":"Yes","fnctClass":"(7)Local","latestAadt":123,"latestAadtYear":2019,"latestDhv30":16,"latestKPercent":13,"latestDPercent":null,"latestVolumeCount":132,"latestVolumeDate":"2019-05-08","extractedAt":"2025-08-01T20:00:21Z"}}]}