{"type":"FeatureCollection","features":[{"type":"Feature","geometry":{"type":"Point","coordinates":[-97.959952,32.706812]},"properties":{"locationId":"184CR106","locatedOn":"-","locOnAlias":"","type":"SPOT","category":"URBAN ACR","routeType":"","route":"","active":"Yes","fnctClass":"(7)Local","latestAadt":1206,"latestAadtYear":2024,"latestDhv30":124,"latestKPercent":10,"latestDPercent":null,"latestVolumeCount":1237,"latestVolumeDate":"2024-05-06","extractedAt":"2025-08-01T16:58:21Z"}},{"type":"Feature","geometry":{"type":"Point","coordinates":[-97.962815,32.728547]},"properties":{"locationId":"184CR106A","locatedOn":"Fairview Rd","locOnAlias":"184AA0482","type":"SPOT","category":"URBAN ACR","routeType":"CR","route":"0000","active":"Yes","fnctClass":"(7)Local","latestAadt":780,"latestAadtYear":2009,"latestDhv30":null,"latestKPercent":null,"latestDPercent":null,"latestVolumeCount":null,"latestVolumeDate":null,"extractedAt":"2025-08-01T16:58:36Z"}},{"type":"Feature","geometry":{"type":"Point","coordinates":[-97.980144,32.697761]},"properties":{"locationId":"184CR105","locatedOn":"-","locOnAlias":"","type":"SPOT","category":"URBAN ACR","routeType":"","route":"","active":"Yes","fnctClass":"(7)Local","latestAadt":512,"latestAadtYear":2024,"latestDhv30":62,"latestKPercent":12,"latestDPercent":null,"latestVolumeCount":525,"latestVolumeDate":"2024-05-06","extractedAt":"2025-08-01T19:08:35Z"}},{"type":"Feature","geometry":{"type":"Point","coordinates":[-97.955161,32.6995]},"properties":{"locationId":"184CR99","locatedOn":"-","locOnAlias":"","type":"SPOT","category":"URBAN ACR","routeType":"","route":"","active":"Yes","fnctClass":"(7)Local","latestAadt":2615,"latestAadtYear":2024,"latestDhv30":417,"latestKPercent":16,"latestDPercent":null,"latestVolumeCount":2585,"latestVolumeDate":"2024-05-15","extractedAt":"2025-08-01T23:32:08Z"}},{"type":"Feature","geometry":{"type":"Point","coordinates":[-97.954942,32.702695]},"properties":{"locationId":"184RP20101","locatedOn":"IH0020","locOnAlias":"IH0020-KG","type":"SPOT","category":"RAMP","routeType":"IH","route":"0020","active":"Yes","fnctClass":"(1)Interstate","latestAadt":25048,"latestAadtYear":2024,"latestDhv30":304,"latestKPercent":12,"latestDPercent":null,"latestVolumeCount":2234,"latestVolumeDate":"2024-04-08","extractedAt":"2025-08-02T13:32:23Z"}},{"type":"Feature","geometry":{"type":"Point","coordinates":[-97.954956,32.703366]},"properties":{"locationId":"184RP20102","locatedOn":"IH0020","locOnAlias":"IH0020-KG","type":"SPOT","category":"RAMP","routeType":"IH","route":"0020","active":"Yes","fnctClass":"(1)Interstate","latestAadt":24468,"latestAadtYear":2024,"latestDhv30":236,"latestKPercent":10,"latestDPercent":null,"latestVolumeCount":2405,"latestVolumeDate":"2024-04-08","extractedAt":"2025-08-02T13:32:35Z"}},{"type":"Feature","geometry":{"type":"Point","coordinates":[-97.965061,32.699163]},"properties":{"locationId":"184RP20103","locatedOn":"IH0020","locOnAlias":"IH0020-KG","type":"SPOT","category":"RAMP","routeType":"","route":"","active":"Yes","fnctClass":"(1)Interstate","latestAadt":7618,"latestAadtYear":2024,"latestDhv30":86,"latestKPercent":11,"latestDPercent":null,"latestVolumeCount":867,"latestVolumeDate":"2024-04-08","extractedAt":"2025-08-02T13:32:49Z"}},{"type":"Feature","geometry":{"type":"Point","coordinates":[-97.968532,32.698596]},"properties":{"locationId":"184RP20104","locatedOn":"IH0020","locOnAlias":"IH0020-KG","type":"SPOT","category":"RAMP","routeType":"","route":"","active":"Yes","fnctClass":"(1)Interstate","latestAadt":8338,"latestAadtYear":2024,"latestDhv30":77,"latestKPercent":9,"latestDPercent":null,"latestVolumeCount":842,"latestVolumeDate":"2024-04-08","extractedAt":"2025-08-02T13:33:04Z"}}]}