{"type":"FeatureCollection","features":[{"type":"Feature","geometry":{"type":"Point","coordinates":[-97.947184,32.824694]},"properties":{"locationId":"184CR207","locatedOn":"NAOLD GARNER","locOnAlias":"","type":"SPOT","category":"INACTIVE","routeType":"","route":"","active":"No","fnctClass":"(6)Minor Collector","latestAadt":183,"latestAadtYear":2019,"latestDhv30":28,"latestKPercent":15,"latestDPercent":null,"latestVolumeCount":199,"latestVolumeDate":"2019-05-15","extractedAt":"2025-08-01T19:36:53Z"}},{"type":"Feature","geometry":{"type":"Point","coordinates":[-97.932354,32.839393]},"properties":{"locationId":"184FS39","locatedOn":"CR0000","locOnAlias":"184AA0233","type":"SPOT","category":"INACTIVE","routeType":"CR","route":"0000","active":"No","fnctClass":"(7)Local","latestAadt":13,"latestAadtYear":2019,"latestDhv30":3,"latestKPercent":23,"latestDPercent":null,"latestVolumeCount":14,"latestVolumeDate":"2019-05-15","extractedAt":"2025-08-02T00:54:55Z"}}]}