{"type":"FeatureCollection","features":[{"type":"Feature","geometry":{"type":"Point","coordinates":[-97.633446,32.733027]},"properties":{"locationId":"184CR67A","locatedOn":"-","locOnAlias":"","type":"SPOT","category":"URBAN ACR","routeType":"","route":"","active":"Yes","fnctClass":"(5)Major Collector","latestAadt":11496,"latestAadtYear":2024,"latestDhv30":985,"latestKPercent":9,"latestDPercent":60,"latestVolumeCount":11585,"latestVolumeDate":"2024-05-13","extractedAt":"2025-08-01T21:27:02Z"}},{"type":"Feature","geometry":{"type":"Point","coordinates":[-97.632399,32.735605]},"properties":{"locationId":"184CR67B","locatedOn":"-","locOnAlias":"","type":"SPOT","category":"URBAN ACR","routeType":"","route":"","active":"Yes","fnctClass":"(5)Major Collector","latestAadt":7532,"latestAadtYear":2024,"latestDhv30":694,"latestKPercent":9,"latestDPercent":null,"latestVolumeCount":7604,"latestVolumeDate":"2024-05-13","extractedAt":"2025-08-01T21:27:15Z"}},{"type":"Feature","geometry":{"type":"Point","coordinates":[-97.629659,32.73336]},"properties":{"locationId":"184RP2033","locatedOn":"IH0020","locOnAlias":"","type":"SPOT","category":"RAMP","routeType":"","route":"","active":"Yes","fnctClass":"(1)Interstate","latestAadt":57708,"latestAadtYear":2024,"latestDhv30":669,"latestKPercent":12,"latestDPercent":null,"latestVolumeCount":5772,"latestVolumeDate":"2024-12-11","extractedAt":"2025-08-02T14:08:26Z"}},{"type":"Feature","geometry":{"type":"Point","coordinates":[-97.629435,32.733848]},"properties":{"locationId":"184RP2034","locatedOn":"IH0020","locOnAlias":"","type":"SPOT","category":"RAMP","routeType":"","route":"","active":"Yes","fnctClass":"(1)Interstate","latestAadt":74108,"latestAadtYear":2024,"latestDhv30":858,"latestKPercent":12,"latestDPercent":null,"latestVolumeCount":7720,"latestVolumeDate":"2024-04-10","extractedAt":"2025-08-02T14:08:40Z"}}]}