{"type":"FeatureCollection","features":[{"type":"Feature","geometry":{"type":"Point","coordinates":[-97.597284,32.824136]},"properties":{"locationId":"184H17A","locatedOn":"FM3325","locOnAlias":"FM3325-KG","type":"SPOT","category":"ANNUAL ACR","routeType":"FM","route":"3325","active":"Yes","fnctClass":"(5)Major Collector","latestAadt":7551,"latestAadtYear":2024,"latestDhv30":665,"latestKPercent":9,"latestDPercent":null,"latestVolumeCount":7690,"latestVolumeDate":"2024-07-08","extractedAt":"2025-08-02T03:29:14Z"}}]}