{"type":"FeatureCollection","features":[{"type":"Feature","geometry":{"type":"Point","coordinates":[-97.597247,32.835157]},"properties":{"locationId":"184CR34","locatedOn":"-","locOnAlias":"","type":"SPOT","category":"URBAN ACR","routeType":"","route":"","active":"Yes","fnctClass":"(5)Major Collector","latestAadt":5942,"latestAadtYear":2024,"latestDhv30":578,"latestKPercent":10,"latestDPercent":null,"latestVolumeCount":6224,"latestVolumeDate":"2024-05-21","extractedAt":"2025-08-01T21:11:30Z"}}]}