{"type":"FeatureCollection","features":[{"type":"Feature","geometry":{"type":"Point","coordinates":[-97.602421,32.695877]},"properties":{"locationId":"184T24NBDR","locatedOn":"FM1187","locOnAlias":"FM1187-KG","type":"SPOT","category":"ANNUAL ACR","routeType":"FM","route":"1187","active":"Yes","fnctClass":"(4)Minor Arterial","latestAadt":10161,"latestAadtYear":2024,"latestDhv30":1141,"latestKPercent":11,"latestDPercent":null,"latestVolumeCount":11305,"latestVolumeDate":"2024-05-13","extractedAt":"2025-08-02T15:41:33Z"}}]}