{"type":"FeatureCollection","features":[{"type":"Feature","geometry":{"type":"Point","coordinates":[-97.684191,32.810998]},"properties":{"locationId":"184U15","locatedOn":"FM0730","locOnAlias":"FM0730-KG","type":"SPOT","category":"URBAN ACR","routeType":"FM","route":"730","active":"Yes","fnctClass":"(5)Major Collector","latestAadt":null,"latestAadtYear":null,"latestDhv30":null,"latestKPercent":null,"latestDPercent":null,"latestVolumeCount":null,"latestVolumeDate":null,"extractedAt":"2025-08-02T15:57:59Z"}}]}