{"type":"FeatureCollection","features":[{"type":"Feature","geometry":{"type":"Point","coordinates":[-97.791781,32.769734]},"properties":{"locationId":"184HP8005","locatedOn":"1st St","locOnAlias":"1250459","type":"SPOT","category":"URBAN ACR","routeType":"LS","route":"0000","active":"Yes","fnctClass":"(7)Local","latestAadt":511,"latestAadtYear":2024,"latestDhv30":43,"latestKPercent":9,"latestDPercent":null,"latestVolumeCount":501,"latestVolumeDate":"2024-05-21","extractedAt":"2025-08-02T12:45:19Z"}},{"type":"Feature","geometry":{"type":"Point","coordinates":[-97.792281,32.772873]},"properties":{"locationId":"184HP8021","locatedOn":"Rusk","locOnAlias":"267487","type":"SPOT","category":"INACTIVE","routeType":"FC","route":"0000","active":"No","fnctClass":"(5)Major Collector","latestAadt":391,"latestAadtYear":2019,"latestDhv30":66,"latestKPercent":17,"latestDPercent":null,"latestVolumeCount":473,"latestVolumeDate":"2019-05-06","extractedAt":"2025-08-02T12:51:35Z"}}]}