{"type":"FeatureCollection","features":[{"type":"Feature","geometry":{"type":"Point","coordinates":[-97.79233,32.764714]},"properties":{"locationId":"184HP8009","locatedOn":"Rusk","locOnAlias":"267487","type":"SPOT","category":"URBAN ACR","routeType":"FC","route":"0000","active":"Yes","fnctClass":"(5)Major Collector","latestAadt":967,"latestAadtYear":2024,"latestDhv30":94,"latestKPercent":10,"latestDPercent":null,"latestVolumeCount":1016,"latestVolumeDate":"2024-05-21","extractedAt":"2025-08-02T12:45:46Z"}}]}