{"type":"FeatureCollection","features":[{"type":"Feature","geometry":{"type":"Point","coordinates":[-97.791813,32.758731]},"properties":{"locationId":"184D5AEBSR","locatedOn":"US0180","locOnAlias":"US0180-AG","type":"SPOT","category":"ANNUAL ACR","routeType":"US","route":"0180","active":"Yes","fnctClass":"(7)Local","latestAadt":120,"latestAadtYear":2024,"latestDhv30":14,"latestKPercent":12,"latestDPercent":null,"latestVolumeCount":131,"latestVolumeDate":"2024-05-13","extractedAt":"2025-08-01T23:43:53Z"}},{"type":"Feature","geometry":{"type":"Point","coordinates":[-97.791813,32.759004]},"properties":{"locationId":"184D5AWBSR","locatedOn":"US0180","locOnAlias":"US0180-XG","type":"SPOT","category":"ANNUAL ACR","routeType":"US","route":"0180","active":"Yes","fnctClass":"(7)Local","latestAadt":101,"latestAadtYear":2024,"latestDhv30":11,"latestKPercent":11,"latestDPercent":null,"latestVolumeCount":110,"latestVolumeDate":"2024-05-13","extractedAt":"2025-08-01T23:49:29Z"}},{"type":"Feature","geometry":{"type":"Point","coordinates":[-97.792826,32.758357]},"properties":{"locationId":"184T7","locatedOn":"FM2552","locOnAlias":"FM2552-KG","type":"SPOT","category":"ANNUAL ACR","routeType":"FM","route":"2552","active":"Yes","fnctClass":"(4)Minor Arterial","latestAadt":10148,"latestAadtYear":2024,"latestDhv30":910,"latestKPercent":9,"latestDPercent":51,"latestVolumeCount":11786,"latestVolumeDate":"2024-05-22","extractedAt":"2025-08-02T15:50:21Z"}}]}