{"type":"FeatureCollection","features":[{"type":"Feature","geometry":{"type":"Point","coordinates":[-97.789916,32.68645]},"properties":{"locationId":"184CR66A","locatedOn":"-","locOnAlias":"","type":"SPOT","category":"URBAN ACR","routeType":"","route":"","active":"Yes","fnctClass":"(6)Minor Collector","latestAadt":4849,"latestAadtYear":2024,"latestDhv30":495,"latestKPercent":10,"latestDPercent":null,"latestVolumeCount":5026,"latestVolumeDate":"2024-05-15","extractedAt":"2025-08-01T21:26:32Z"}}]}