{"type":"FeatureCollection","features":[{"type":"Feature","geometry":{"type":"Point","coordinates":[-97.548473,32.900989]},"properties":{"locationId":"184H13","locatedOn":"SH0199","locOnAlias":"SH0199-KG","type":"SPOT","category":"INACTIVE","routeType":"SH","route":"0199","active":"No","fnctClass":"(2)Principal Arterial-Other Freeways and Expressways","latestAadt":24603,"latestAadtYear":2021,"latestDhv30":2206,"latestKPercent":9,"latestDPercent":64,"latestVolumeCount":27220,"latestVolumeDate":"2021-08-02","extractedAt":"2025-08-02T01:45:23Z"}},{"type":"Feature","geometry":{"type":"Point","coordinates":[-97.548581,32.900661]},"properties":{"locationId":"184H13EBSR","locatedOn":"SH0199","locOnAlias":"SH0199-AG","type":"SPOT","category":"INACTIVE","routeType":"SH","route":"0199","active":"No","fnctClass":"(5)Major Collector","latestAadt":1899,"latestAadtYear":2020,"latestDhv30":181,"latestKPercent":10,"latestDPercent":null,"latestVolumeCount":2234,"latestVolumeDate":"2020-08-24","extractedAt":"2025-08-02T01:45:39Z"}},{"type":"Feature","geometry":{"type":"Point","coordinates":[-97.548338,32.901365]},"properties":{"locationId":"184H13WBSR","locatedOn":"SH0199","locOnAlias":"SH0199-XG","type":"SPOT","category":"INACTIVE","routeType":"SH","route":"0199","active":"No","fnctClass":"(5)Major Collector","latestAadt":3113,"latestAadtYear":2020,"latestDhv30":345,"latestKPercent":11,"latestDPercent":null,"latestVolumeCount":3659,"latestVolumeDate":"2020-08-24","extractedAt":"2025-08-02T01:47:20Z"}},{"type":"Feature","geometry":{"type":"Point","coordinates":[-97.549214,32.899436]},"properties":{"locationId":"184H14","locatedOn":"SL0344","locOnAlias":"SL0344-KG","type":"SPOT","category":"ANNUAL ACR","routeType":"SL","route":"0344","active":"Yes","fnctClass":"(5)Major Collector","latestAadt":6986,"latestAadtYear":2024,"latestDhv30":560,"latestKPercent":8,"latestDPercent":null,"latestVolumeCount":6888,"latestVolumeDate":"2024-07-08","extractedAt":"2025-08-02T01:47:37Z"}},{"type":"Feature","geometry":{"type":"Point","coordinates":[-97.552167,32.900122]},"properties":{"locationId":"184H16","locatedOn":"FM0730","locOnAlias":"FM0730-KG","type":"SPOT","category":"ANNUAL ACR","routeType":"FM","route":"0730","active":"Yes","fnctClass":"(5)Major Collector","latestAadt":13912,"latestAadtYear":2024,"latestDhv30":998,"latestKPercent":7,"latestDPercent":null,"latestVolumeCount":13493,"latestVolumeDate":"2024-07-08","extractedAt":"2025-08-02T03:28:57Z"}},{"type":"Feature","geometry":{"type":"Point","coordinates":[-97.55021,32.901495]},"properties":{"locationId":"184H19901","locatedOn":"SH0199","locOnAlias":"SH0199-KG","type":"SPOT","category":"ANNUAL ACR","routeType":"SH","route":"0199","active":"Yes","fnctClass":"(2)Principal Arterial-Other Freeways and Expressways","latestAadt":255903,"latestAadtYear":2024,"latestDhv30":null,"latestKPercent":null,"latestDPercent":null,"latestVolumeCount":null,"latestVolumeDate":null,"extractedAt":"2025-08-02T03:30:04Z"}},{"type":"Feature","geometry":{"type":"Point","coordinates":[-97.550336,32.90113]},"properties":{"locationId":"184H19901EBSR","locatedOn":"SH0199","locOnAlias":"SH0199-AG","type":"SPOT","category":"ANNUAL ACR","routeType":"SH","route":"0199","active":"Yes","fnctClass":"(5)Major Collector","latestAadt":2677,"latestAadtYear":2024,"latestDhv30":206,"latestKPercent":8,"latestDPercent":null,"latestVolumeCount":2729,"latestVolumeDate":"2024-06-03","extractedAt":"2025-08-02T03:30:19Z"}},{"type":"Feature","geometry":{"type":"Point","coordinates":[-97.550207,32.9019]},"properties":{"locationId":"184H19901WBSR","locatedOn":"SH0199","locOnAlias":"SH0199-XG","type":"SPOT","category":"ANNUAL ACR","routeType":"SH","route":"0199","active":"Yes","fnctClass":"(5)Major Collector","latestAadt":40333,"latestAadtYear":2024,"latestDhv30":null,"latestKPercent":null,"latestDPercent":null,"latestVolumeCount":4186,"latestVolumeDate":"2023-07-19","extractedAt":"2025-08-02T03:30:35Z"}},{"type":"Feature","geometry":{"type":"Point","coordinates":[-97.550915,32.902518]},"properties":{"locationId":"184HP8035","locatedOn":"Commerce St","locOnAlias":"250334","type":"SPOT","category":"URBAN ACR","routeType":"FC","route":"0000","active":"Yes","fnctClass":"(5)Major Collector","latestAadt":10013,"latestAadtYear":2024,"latestDhv30":949,"latestKPercent":9,"latestDPercent":null,"latestVolumeCount":10492,"latestVolumeDate":"2024-05-21","extractedAt":"2025-08-02T12:53:17Z"}},{"type":"Feature","geometry":{"type":"Point","coordinates":[-97.551418,32.900965]},"properties":{"locationId":"184T22","locatedOn":"FM0730","locOnAlias":"FM0730-KG","type":"SPOT","category":"ANNUAL ACR","routeType":"FM","route":"0730","active":"Yes","fnctClass":"(5)Major Collector","latestAadt":12438,"latestAadtYear":2024,"latestDhv30":921,"latestKPercent":7,"latestDPercent":null,"latestVolumeCount":12068,"latestVolumeDate":"2024-07-08","extractedAt":"2025-08-02T15:41:03Z"}}]}