{"type":"FeatureCollection","features":[{"type":"Feature","geometry":{"type":"Point","coordinates":[-97.552378,32.828213]},"properties":{"locationId":"184D5","locatedOn":"FM1886","locOnAlias":"FM1886-KG","type":"SPOT","category":"INACTIVE","routeType":"FM","route":"1886","active":"No","fnctClass":"(5)Major Collector","latestAadt":4299,"latestAadtYear":2020,"latestDhv30":440,"latestKPercent":10,"latestDPercent":null,"latestVolumeCount":4803,"latestVolumeDate":"2020-08-31","extractedAt":"2025-08-01T23:43:38Z"}}]}