{"type":"FeatureCollection","features":[{"type":"Feature","geometry":{"type":"Point","coordinates":[-97.552049,32.720721]},"properties":{"locationId":"184RP303","locatedOn":"IH0030","locOnAlias":"IH0030-KG","type":"SPOT","category":"RAMP","routeType":"IH","route":"0030","active":"Yes","fnctClass":"(1)Interstate","latestAadt":44698,"latestAadtYear":2024,"latestDhv30":703,"latestKPercent":16,"latestDPercent":null,"latestVolumeCount":4897,"latestVolumeDate":"2024-12-11","extractedAt":"2025-08-02T14:24:13Z"}},{"type":"Feature","geometry":{"type":"Point","coordinates":[-97.550874,32.721247]},"properties":{"locationId":"184RP304","locatedOn":"IH0030","locOnAlias":"IH0030-KG","type":"SPOT","category":"RAMP","routeType":"IH","route":"0030","active":"Yes","fnctClass":"(1)Interstate","latestAadt":36158,"latestAadtYear":2024,"latestDhv30":323,"latestKPercent":9,"latestDPercent":null,"latestVolumeCount":3187,"latestVolumeDate":"2024-04-10","extractedAt":"2025-08-02T14:24:29Z"}}]}