{"type":"FeatureCollection","features":[{"type":"Feature","geometry":{"type":"Point","coordinates":[-97.57827,32.910597]},"properties":{"locationId":"184CR28","locatedOn":"-","locOnAlias":"","type":"SPOT","category":"URBAN ACR","routeType":"","route":"","active":"Yes","fnctClass":"(7)Local","latestAadt":524,"latestAadtYear":2024,"latestDhv30":59,"latestKPercent":11,"latestDPercent":null,"latestVolumeCount":511,"latestVolumeDate":"2024-05-22","extractedAt":"2025-08-01T20:08:17Z"}},{"type":"Feature","geometry":{"type":"Point","coordinates":[-97.559327,32.904466]},"properties":{"locationId":"184U3575WBSR","locatedOn":"SH0199","locOnAlias":"SH0199-XG","type":"SPOT","category":"INACTIVE","routeType":"SH","route":"0199","active":"No","fnctClass":"(5)Major Collector","latestAadt":2541,"latestAadtYear":2020,"latestDhv30":303,"latestKPercent":12,"latestDPercent":null,"latestVolumeCount":2987,"latestVolumeDate":"2020-08-24","extractedAt":"2025-08-02T16:05:51Z"}}]}