{"type":"FeatureCollection","features":[{"type":"Feature","geometry":{"type":"Point","coordinates":[-97.5716,32.830235]},"properties":{"locationId":"184CR34A","locatedOn":"-","locOnAlias":"","type":"SPOT","category":"URBAN ACR","routeType":"","route":"","active":"Yes","fnctClass":"(7)Local","latestAadt":1082,"latestAadtYear":2024,"latestDhv30":92,"latestKPercent":9,"latestDPercent":null,"latestVolumeCount":1095,"latestVolumeDate":"2024-05-21","extractedAt":"2025-08-01T21:11:57Z"}},{"type":"Feature","geometry":{"type":"Point","coordinates":[-97.568338,32.824337]},"properties":{"locationId":"184CR34C","locatedOn":"-","locOnAlias":"","type":"SPOT","category":"URBAN ACR","routeType":"","route":"","active":"Yes","fnctClass":"(7)Local","latestAadt":122,"latestAadtYear":2024,"latestDhv30":16,"latestKPercent":14,"latestDPercent":null,"latestVolumeCount":124,"latestVolumeDate":"2024-05-21","extractedAt":"2025-08-01T21:17:35Z"}},{"type":"Feature","geometry":{"type":"Point","coordinates":[-97.570098,32.836579]},"properties":{"locationId":"184RS6","locatedOn":"NABUCKHORN","locOnAlias":"","type":"SPOT","category":"URBAN ACR","routeType":"","route":"","active":"Yes","fnctClass":"(7)Local","latestAadt":34,"latestAadtYear":2024,"latestDhv30":4,"latestKPercent":15,"latestDPercent":null,"latestVolumeCount":34,"latestVolumeDate":"2024-05-21","extractedAt":"2025-08-02T15:25:30Z"}}]}