{"type":"FeatureCollection","features":[{"type":"Feature","geometry":{"type":"Point","coordinates":[-97.561346,32.739101]},"properties":{"locationId":"184U2","locatedOn":"WALSH RANCH","locOnAlias":"","type":"SPOT","category":"URBAN ACR","routeType":"","route":"","active":"Yes","fnctClass":"(4)Minor Arterial","latestAadt":2294,"latestAadtYear":2024,"latestDhv30":272,"latestKPercent":12,"latestDPercent":null,"latestVolumeCount":2677,"latestVolumeDate":"2024-05-21","extractedAt":"2025-08-02T16:04:34Z"}},{"type":"Feature","geometry":{"type":"Point","coordinates":[-97.574671,32.744223]},"properties":{"locationId":"184U3","locatedOn":"NAOLD WEATHERFORD","locOnAlias":"","type":"SPOT","category":"URBAN ACR","routeType":"","route":"","active":"Yes","fnctClass":"(5)Major Collector","latestAadt":1588,"latestAadtYear":2024,"latestDhv30":205,"latestKPercent":13,"latestDPercent":null,"latestVolumeCount":1661,"latestVolumeDate":"2024-05-21","extractedAt":"2025-08-02T16:05:04Z"}}]}