{"type":"FeatureCollection","features":[{"type":"Feature","geometry":{"type":"Point","coordinates":[-97.5783,32.611221]},"properties":{"locationId":"184CR71A","locatedOn":"-","locOnAlias":"","type":"SPOT","category":"INACTIVE","routeType":"","route":"","active":"No","fnctClass":"(5)Major Collector","latestAadt":1278,"latestAadtYear":2019,"latestDhv30":169,"latestKPercent":13,"latestDPercent":null,"latestVolumeCount":1596,"latestVolumeDate":"2019-05-08","extractedAt":"2025-08-01T21:34:35Z"}},{"type":"Feature","geometry":{"type":"Point","coordinates":[-97.566711,32.607671]},"properties":{"locationId":"184RS5","locatedOn":"NAMCDANIEL","locOnAlias":"","type":"SPOT","category":"URBAN ACR","routeType":"","route":"","active":"Yes","fnctClass":"(7)Local","latestAadt":126,"latestAadtYear":2024,"latestDhv30":16,"latestKPercent":13,"latestDPercent":null,"latestVolumeCount":136,"latestVolumeDate":"2024-05-13","extractedAt":"2025-08-02T15:25:15Z"}}]}