{"type":"FeatureCollection","features":[{"type":"Feature","geometry":{"type":"Point","coordinates":[-97.766964,32.787457]},"properties":{"locationId":"184CR305C","locatedOn":"-","locOnAlias":"","type":"SPOT","category":"URBAN ACR","routeType":"","route":"","active":"Yes","fnctClass":"(7)Local","latestAadt":598,"latestAadtYear":2014,"latestDhv30":72,"latestKPercent":12,"latestDPercent":null,"latestVolumeCount":623,"latestVolumeDate":"2014-04-21","extractedAt":"2025-08-01T20:24:06Z"}},{"type":"Feature","geometry":{"type":"Point","coordinates":[-97.760253,32.792721]},"properties":{"locationId":"184FS25","locatedOn":"CR0000","locOnAlias":"184AA0261","type":"SPOT","category":"INACTIVE","routeType":"CR","route":"0000","active":"No","fnctClass":"(5)Major Collector","latestAadt":651,"latestAadtYear":2014,"latestDhv30":101,"latestKPercent":16,"latestDPercent":null,"latestVolumeCount":844,"latestVolumeDate":"2014-04-21","extractedAt":"2025-08-02T00:11:54Z"}},{"type":"Feature","geometry":{"type":"Point","coordinates":[-97.760267,32.792736]},"properties":{"locationId":"184HP7","locatedOn":"Upper Denton","locOnAlias":"184AA0261","type":"SPOT","category":"ANNUAL ACR","routeType":"CR","route":"0000","active":"Yes","fnctClass":"(6)Minor Collector","latestAadt":1281,"latestAadtYear":2024,"latestDhv30":119,"latestKPercent":9,"latestDPercent":66,"latestVolumeCount":1283,"latestVolumeDate":"2024-05-15","extractedAt":"2025-08-02T12:44:07Z"}}]}