{"type":"FeatureCollection","features":[{"type":"Feature","geometry":{"type":"Point","coordinates":[-97.760035,32.736488]},"properties":{"locationId":"184CR329A","locatedOn":"-","locOnAlias":"","type":"SPOT","category":"URBAN ACR","routeType":"","route":"","active":"Yes","fnctClass":"(7)Local","latestAadt":4144,"latestAadtYear":2019,"latestDhv30":386,"latestKPercent":9,"latestDPercent":null,"latestVolumeCount":4497,"latestVolumeDate":"2019-05-15","extractedAt":"2025-08-01T20:48:48Z"}},{"type":"Feature","geometry":{"type":"Point","coordinates":[-97.764177,32.736356]},"properties":{"locationId":"184PT10","locatedOn":"IH0020","locOnAlias":"IH0020-AG","type":"SPOT","category":"ANNUAL ACR","routeType":"IH","route":"0020","active":"Yes","fnctClass":"(5)Major Collector","latestAadt":14493,"latestAadtYear":2024,"latestDhv30":null,"latestKPercent":null,"latestDPercent":null,"latestVolumeCount":1534,"latestVolumeDate":"2023-07-19","extractedAt":"2025-08-02T13:23:10Z"}},{"type":"Feature","geometry":{"type":"Point","coordinates":[-97.766155,32.736444]},"properties":{"locationId":"184PT11","locatedOn":"IH0020","locOnAlias":"IH0020-XG","type":"SPOT","category":"ANNUAL ACR","routeType":"IH","route":"0020","active":"Yes","fnctClass":"(5)Major Collector","latestAadt":2580,"latestAadtYear":2024,"latestDhv30":196,"latestKPercent":8,"latestDPercent":null,"latestVolumeCount":2626,"latestVolumeDate":"2024-05-13","extractedAt":"2025-08-02T13:23:26Z"}},{"type":"Feature","geometry":{"type":"Point","coordinates":[-97.763439,32.737334]},"properties":{"locationId":"184PT6","locatedOn":"IH0020","locOnAlias":"IH0020-AG","type":"SPOT","category":"ANNUAL ACR","routeType":"IH","route":"0020","active":"Yes","fnctClass":"(5)Major Collector","latestAadt":223,"latestAadtYear":2024,"latestDhv30":null,"latestKPercent":null,"latestDPercent":null,"latestVolumeCount":23,"latestVolumeDate":"2023-07-19","extractedAt":"2025-08-02T13:24:55Z"}},{"type":"Feature","geometry":{"type":"Point","coordinates":[-97.767147,32.735968]},"properties":{"locationId":"184RP2016","locatedOn":"IH0020","locOnAlias":"","type":"SPOT","category":"RAMP","routeType":"","route":"","active":"Yes","fnctClass":"(1)Interstate","latestAadt":7208,"latestAadtYear":2024,"latestDhv30":79,"latestKPercent":11,"latestDPercent":null,"latestVolumeCount":752,"latestVolumeDate":"2024-04-10","extractedAt":"2025-08-02T13:48:14Z"}},{"type":"Feature","geometry":{"type":"Point","coordinates":[-97.760611,32.737668]},"properties":{"locationId":"184RP2017","locatedOn":"IH0020","locOnAlias":"","type":"SPOT","category":"RAMP","routeType":"","route":"","active":"Yes","fnctClass":"(1)Interstate","latestAadt":54088,"latestAadtYear":2024,"latestDhv30":407,"latestKPercent":8,"latestDPercent":null,"latestVolumeCount":5491,"latestVolumeDate":"2024-04-10","extractedAt":"2025-08-02T13:48:30Z"}},{"type":"Feature","geometry":{"type":"Point","coordinates":[-97.760671,32.73834]},"properties":{"locationId":"184RP2018","locatedOn":"IH0020","locOnAlias":"","type":"SPOT","category":"RAMP","routeType":"","route":"","active":"Yes","fnctClass":"(1)Interstate","latestAadt":59368,"latestAadtYear":2024,"latestDhv30":502,"latestKPercent":8,"latestDPercent":null,"latestVolumeCount":6249,"latestVolumeDate":"2024-04-10","extractedAt":"2025-08-02T13:48:46Z"}}]}