{"type":"FeatureCollection","features":[{"type":"Feature","geometry":{"type":"Point","coordinates":[-97.759667,32.690612]},"properties":{"locationId":"184U18","locatedOn":"SH0171","locOnAlias":"SH0171-KG","type":"SPOT","category":"URBAN ACR","routeType":"SH","route":"171","active":"Yes","fnctClass":"(4)Minor Arterial","latestAadt":5229,"latestAadtYear":2024,"latestDhv30":449,"latestKPercent":9,"latestDPercent":null,"latestVolumeCount":6346,"latestVolumeDate":"2024-05-20","extractedAt":"2025-08-02T15:58:39Z"}}]}