{"type":"FeatureCollection","features":[{"type":"Feature","geometry":{"type":"Point","coordinates":[-98.041685,32.658807]},"properties":{"locationId":"184RP20109","locatedOn":"IH0020","locOnAlias":"IH0020-KG","type":"SPOT","category":"RAMP","routeType":"","route":"","active":"Yes","fnctClass":"(1)Interstate","latestAadt":3828,"latestAadtYear":2024,"latestDhv30":58,"latestKPercent":15,"latestDPercent":null,"latestVolumeCount":605,"latestVolumeDate":"2024-05-01","extractedAt":"2025-08-02T13:39:46Z"}},{"type":"Feature","geometry":{"type":"Point","coordinates":[-98.041602,32.659809]},"properties":{"locationId":"184RP20110","locatedOn":"IH0020","locOnAlias":"","type":"SPOT","category":"RAMP","routeType":"","route":"","active":"Yes","fnctClass":"(1)Interstate","latestAadt":5468,"latestAadtYear":2024,"latestDhv30":51,"latestKPercent":9,"latestDPercent":null,"latestVolumeCount":503,"latestVolumeDate":"2024-04-08","extractedAt":"2025-08-02T13:40:28Z"}}]}