{"type":"FeatureCollection","features":[{"type":"Feature","geometry":{"type":"Point","coordinates":[-97.968532,32.698596]},"properties":{"locationId":"184RP20104","locatedOn":"IH0020","locOnAlias":"IH0020-KG","type":"SPOT","category":"RAMP","routeType":"","route":"","active":"Yes","fnctClass":"(1)Interstate","latestAadt":8338,"latestAadtYear":2024,"latestDhv30":77,"latestKPercent":9,"latestDPercent":null,"latestVolumeCount":842,"latestVolumeDate":"2024-04-08","extractedAt":"2025-08-02T13:33:04Z"}}]}