{"type":"FeatureCollection","features":[{"type":"Feature","geometry":{"type":"Point","coordinates":[-97.806398,32.823416]},"properties":{"locationId":"184FS18","locatedOn":"CR0000","locOnAlias":"184AA1102","type":"SPOT","category":"INACTIVE","routeType":"CR","route":"0000","active":"No","fnctClass":"(7)Local","latestAadt":121,"latestAadtYear":2019,"latestDhv30":18,"latestKPercent":15,"latestDPercent":null,"latestVolumeCount":126,"latestVolumeDate":"2019-05-13","extractedAt":"2025-08-02T00:10:51Z"}}]}