{"type":"FeatureCollection","features":[{"type":"Feature","geometry":{"type":"Point","coordinates":[-97.795356,32.785678]},"properties":{"locationId":"184CR303","locatedOn":"-","locOnAlias":"","type":"SPOT","category":"URBAN ACR","routeType":"","route":"","active":"Yes","fnctClass":"(7)Local","latestAadt":809,"latestAadtYear":2024,"latestDhv30":88,"latestKPercent":11,"latestDPercent":null,"latestVolumeCount":821,"latestVolumeDate":"2024-05-22","extractedAt":"2025-08-01T20:16:09Z"}},{"type":"Feature","geometry":{"type":"Point","coordinates":[-97.787602,32.794922]},"properties":{"locationId":"184CR305","locatedOn":"-","locOnAlias":"","type":"SPOT","category":"URBAN ACR","routeType":"","route":"","active":"Yes","fnctClass":"(7)Local","latestAadt":10603,"latestAadtYear":2024,"latestDhv30":null,"latestKPercent":null,"latestDPercent":null,"latestVolumeCount":873,"latestVolumeDate":"2019-05-06","extractedAt":"2025-08-01T20:23:21Z"}},{"type":"Feature","geometry":{"type":"Point","coordinates":[-97.783521,32.804682]},"properties":{"locationId":"184CR306","locatedOn":"-","locOnAlias":"","type":"SPOT","category":"URBAN ACR","routeType":"","route":"","active":"Yes","fnctClass":"(7)Local","latestAadt":289,"latestAadtYear":2024,"latestDhv30":28,"latestKPercent":10,"latestDPercent":null,"latestVolumeCount":294,"latestVolumeDate":"2024-05-22","extractedAt":"2025-08-01T20:24:20Z"}},{"type":"Feature","geometry":{"type":"Point","coordinates":[-97.808826,32.778757]},"properties":{"locationId":"184CR337A","locatedOn":"-","locOnAlias":"","type":"SPOT","category":"URBAN ACR","routeType":"","route":"","active":"Yes","fnctClass":"(7)Local","latestAadt":1210,"latestAadtYear":2024,"latestDhv30":135,"latestKPercent":11,"latestDPercent":null,"latestVolumeCount":1168,"latestVolumeDate":"2024-05-15","extractedAt":"2025-08-01T21:09:58Z"}},{"type":"Feature","geometry":{"type":"Point","coordinates":[-97.810755,32.792269]},"properties":{"locationId":"184CR338","locatedOn":"-","locOnAlias":"","type":"SPOT","category":"URBAN ACR","routeType":"","route":"","active":"Yes","fnctClass":"(7)Local","latestAadt":665,"latestAadtYear":2024,"latestDhv30":59,"latestKPercent":9,"latestDPercent":null,"latestVolumeCount":641,"latestVolumeDate":"2024-05-15","extractedAt":"2025-08-01T21:10:14Z"}},{"type":"Feature","geometry":{"type":"Point","coordinates":[-97.797975,32.76979]},"properties":{"locationId":"184HP8004","locatedOn":"1st St","locOnAlias":"1250784","type":"SPOT","category":"URBAN ACR","routeType":"LS","route":"0000","active":"Yes","fnctClass":"(7)Local","latestAadt":723,"latestAadtYear":2014,"latestDhv30":68,"latestKPercent":9,"latestDPercent":null,"latestVolumeCount":753,"latestVolumeDate":"2014-04-23","extractedAt":"2025-08-02T12:45:05Z"}},{"type":"Feature","geometry":{"type":"Point","coordinates":[-97.791781,32.769734]},"properties":{"locationId":"184HP8005","locatedOn":"1st St","locOnAlias":"1250459","type":"SPOT","category":"URBAN ACR","routeType":"LS","route":"0000","active":"Yes","fnctClass":"(7)Local","latestAadt":511,"latestAadtYear":2024,"latestDhv30":43,"latestKPercent":9,"latestDPercent":null,"latestVolumeCount":501,"latestVolumeDate":"2024-05-21","extractedAt":"2025-08-02T12:45:19Z"}},{"type":"Feature","geometry":{"type":"Point","coordinates":[-97.796604,32.773742]},"properties":{"locationId":"184HP8044","locatedOn":"E 4th St","locOnAlias":"267483","type":"SPOT","category":"URBAN ACR","routeType":"FC","route":"0000","active":"Yes","fnctClass":"(5)Major Collector","latestAadt":1910,"latestAadtYear":2009,"latestDhv30":null,"latestKPercent":null,"latestDPercent":null,"latestVolumeCount":null,"latestVolumeDate":null,"extractedAt":"2025-08-02T13:00:57Z"}},{"type":"Feature","geometry":{"type":"Point","coordinates":[-97.784998,32.792059]},"properties":{"locationId":"184RS25","locatedOn":"NAMEADOW BRIDGE","locOnAlias":"","type":"SPOT","category":"URBAN ACR","routeType":"","route":"","active":"Yes","fnctClass":"(7)Local","latestAadt":84,"latestAadtYear":2019,"latestDhv30":10,"latestKPercent":12,"latestDPercent":null,"latestVolumeCount":89,"latestVolumeDate":"2019-05-06","extractedAt":"2025-08-02T15:18:23Z"}},{"type":"Feature","geometry":{"type":"Point","coordinates":[-97.79728,32.773109]},"properties":{"locationId":"184T2","locatedOn":"FM0051","locOnAlias":"FM0051-KG","type":"SPOT","category":"ANNUAL ACR","routeType":"FM","route":"0051","active":"Yes","fnctClass":"(4)Minor Arterial","latestAadt":20222,"latestAadtYear":2024,"latestDhv30":1674,"latestKPercent":8,"latestDPercent":68,"latestVolumeCount":21976,"latestVolumeDate":"2024-05-22","extractedAt":"2025-08-02T15:35:08Z"}},{"type":"Feature","geometry":{"type":"Point","coordinates":[-97.797815,32.773757]},"properties":{"locationId":"184T3","locatedOn":"FM0920","locOnAlias":"FM0920-KG","type":"SPOT","category":"ANNUAL ACR","routeType":"FM","route":"0920","active":"Yes","fnctClass":"(5)Major Collector","latestAadt":9549,"latestAadtYear":2024,"latestDhv30":760,"latestKPercent":8,"latestDPercent":null,"latestVolumeCount":10300,"latestVolumeDate":"2024-05-22","extractedAt":"2025-08-02T15:43:09Z"}},{"type":"Feature","geometry":{"type":"Point","coordinates":[-97.797271,32.774201]},"properties":{"locationId":"184T4","locatedOn":"FM0051","locOnAlias":"FM0051-KG","type":"SPOT","category":"ANNUAL ACR","routeType":"FM","route":"0051","active":"Yes","fnctClass":"(4)Minor Arterial","latestAadt":12867,"latestAadtYear":2024,"latestDhv30":1163,"latestKPercent":9,"latestDPercent":58,"latestVolumeCount":13995,"latestVolumeDate":"2024-05-22","extractedAt":"2025-08-02T15:49:35Z"}},{"type":"Feature","geometry":{"type":"Point","coordinates":[-97.805437,32.775248]},"properties":{"locationId":"184U21","locatedOn":"FM0920","locOnAlias":"FM0920-KG","type":"SPOT","category":"URBAN ACR","routeType":"FM","route":"920","active":"Yes","fnctClass":"(5)Major Collector","latestAadt":11434,"latestAadtYear":2024,"latestDhv30":1039,"latestKPercent":9,"latestDPercent":null,"latestVolumeCount":12639,"latestVolumeDate":"2024-05-15","extractedAt":"2025-08-02T16:04:51Z"}}]}