{"type":"FeatureCollection","features":[{"type":"Feature","geometry":{"type":"Point","coordinates":[-97.794111,32.71142]},"properties":{"locationId":"184CR215","locatedOn":"NATIN TOP","locOnAlias":"","type":"SPOT","category":"URBAN ACR","routeType":"","route":"","active":"Yes","fnctClass":"(6)Minor Collector","latestAadt":6704,"latestAadtYear":2024,"latestDhv30":699,"latestKPercent":10,"latestDPercent":null,"latestVolumeCount":6949,"latestVolumeDate":"2024-05-15","extractedAt":"2025-08-01T19:44:13Z"}},{"type":"Feature","geometry":{"type":"Point","coordinates":[-97.802089,32.698307]},"properties":{"locationId":"184CR228","locatedOn":"NAHARMONY","locOnAlias":"","type":"SPOT","category":"URBAN ACR","routeType":"","route":"","active":"Yes","fnctClass":"(6)Minor Collector","latestAadt":675,"latestAadtYear":2024,"latestDhv30":69,"latestKPercent":10,"latestDPercent":null,"latestVolumeCount":699,"latestVolumeDate":"2024-05-15","extractedAt":"2025-08-01T19:58:52Z"}},{"type":"Feature","geometry":{"type":"Point","coordinates":[-97.78432,32.72512]},"properties":{"locationId":"184CR331A","locatedOn":"-","locOnAlias":"","type":"SPOT","category":"URBAN ACR","routeType":"","route":"","active":"Yes","fnctClass":"(7)Local","latestAadt":1826,"latestAadtYear":2024,"latestDhv30":178,"latestKPercent":10,"latestDPercent":null,"latestVolumeCount":1830,"latestVolumeDate":"2024-05-15","extractedAt":"2025-08-01T20:55:07Z"}},{"type":"Feature","geometry":{"type":"Point","coordinates":[-97.815129,32.727921]},"properties":{"locationId":"184H2002","locatedOn":"IH0020","locOnAlias":"IH0020-KG","type":"SPOT","category":"ANNUAL ACR","routeType":"IH","route":"0020","active":"Yes","fnctClass":"(1)Interstate","latestAadt":499558,"latestAadtYear":2024,"latestDhv30":null,"latestKPercent":null,"latestDPercent":null,"latestVolumeCount":null,"latestVolumeDate":null,"extractedAt":"2025-08-02T03:37:24Z"}},{"type":"Feature","geometry":{"type":"Point","coordinates":[-97.814681,32.72752]},"properties":{"locationId":"184H2002EBSR","locatedOn":"IH0020","locOnAlias":"IH0020-AG","type":"SPOT","category":"ANNUAL ACR","routeType":"IH","route":"0020","active":"Yes","fnctClass":"(5)Major Collector","latestAadt":103163,"latestAadtYear":2024,"latestDhv30":null,"latestKPercent":null,"latestDPercent":null,"latestVolumeCount":10939,"latestVolumeDate":"2023-07-19","extractedAt":"2025-08-02T03:37:38Z"}},{"type":"Feature","geometry":{"type":"Point","coordinates":[-97.814616,32.728251]},"properties":{"locationId":"184H2002WBSR","locatedOn":"IH0020","locOnAlias":"IH0020-XG","type":"SPOT","category":"ANNUAL ACR","routeType":"IH","route":"0020","active":"Yes","fnctClass":"(5)Major Collector","latestAadt":127383,"latestAadtYear":2024,"latestDhv30":null,"latestKPercent":null,"latestDPercent":null,"latestVolumeCount":13354,"latestVolumeDate":"2023-07-19","extractedAt":"2025-08-02T03:37:53Z"}},{"type":"Feature","geometry":{"type":"Point","coordinates":[-97.813966,32.721591]},"properties":{"locationId":"184HP6005","locatedOn":"WBB FIELDER","locOnAlias":"","type":"SPOT","category":"URBAN ACR","routeType":"","route":"","active":"Yes","fnctClass":"(6)Minor Collector","latestAadt":2746,"latestAadtYear":2024,"latestDhv30":332,"latestKPercent":12,"latestDPercent":74,"latestVolumeCount":2854,"latestVolumeDate":"2024-05-15","extractedAt":"2025-08-02T12:43:49Z"}},{"type":"Feature","geometry":{"type":"Point","coordinates":[-97.797863,32.725584]},"properties":{"locationId":"184HP8001A","locatedOn":"Tin Top","locOnAlias":"250317","type":"SPOT","category":"URBAN ACR","routeType":"FC","route":"0000","active":"Yes","fnctClass":"(5)Major Collector","latestAadt":5536,"latestAadtYear":2024,"latestDhv30":556,"latestKPercent":10,"latestDPercent":null,"latestVolumeCount":5833,"latestVolumeDate":"2024-05-15","extractedAt":"2025-08-02T12:44:50Z"}},{"type":"Feature","geometry":{"type":"Point","coordinates":[-97.820352,32.730429]},"properties":{"locationId":"184HP8030","locatedOn":"BOWIE","locOnAlias":"250313","type":"SPOT","category":"URBAN ACR","routeType":"FC","route":"0000","active":"Yes","fnctClass":"(4)Minor Arterial","latestAadt":6856,"latestAadtYear":2024,"latestDhv30":839,"latestKPercent":12,"latestDPercent":null,"latestVolumeCount":7750,"latestVolumeDate":"2024-05-08","extractedAt":"2025-08-02T12:52:19Z"}},{"type":"Feature","geometry":{"type":"Point","coordinates":[-97.781799,32.72992]},"properties":{"locationId":"184HP8054","locatedOn":"EBB FIELDER","locOnAlias":"","type":"SPOT","category":"URBAN ACR","routeType":"","route":"","active":"Yes","fnctClass":"(5)Major Collector","latestAadt":2440,"latestAadtYear":2024,"latestDhv30":278,"latestKPercent":11,"latestDPercent":null,"latestVolumeCount":2570,"latestVolumeDate":"2024-05-15","extractedAt":"2025-08-02T13:08:45Z"}},{"type":"Feature","geometry":{"type":"Point","coordinates":[-97.788827,32.724862]},"properties":{"locationId":"184HP8056","locatedOn":"WBB FIELDER","locOnAlias":"","type":"SPOT","category":"URBAN ACR","routeType":"","route":"","active":"Yes","fnctClass":"(5)Major Collector","latestAadt":5278,"latestAadtYear":2024,"latestDhv30":639,"latestKPercent":12,"latestDPercent":61,"latestVolumeCount":5560,"latestVolumeDate":"2024-05-15","extractedAt":"2025-08-02T13:09:15Z"}},{"type":"Feature","geometry":{"type":"Point","coordinates":[-97.80881,32.720585]},"properties":{"locationId":"184HP8059","locatedOn":"WBB FIELDER","locOnAlias":"","type":"SPOT","category":"URBAN ACR","routeType":"","route":"","active":"Yes","fnctClass":"(5)Major Collector","latestAadt":3129,"latestAadtYear":2024,"latestDhv30":null,"latestKPercent":null,"latestDPercent":null,"latestVolumeCount":3181,"latestVolumeDate":"2019-05-15","extractedAt":"2025-08-02T13:15:23Z"}},{"type":"Feature","geometry":{"type":"Point","coordinates":[-97.817615,32.73137]},"properties":{"locationId":"184HP9","locatedOn":"W Park Ave","locOnAlias":"250325","type":"SPOT","category":"ANNUAL ACR","routeType":"FC","route":"0000","active":"Yes","fnctClass":"(4)Minor Arterial","latestAadt":1829,"latestAadtYear":2024,"latestDhv30":275,"latestKPercent":15,"latestDPercent":61,"latestVolumeCount":1930,"latestVolumeDate":"2024-05-15","extractedAt":"2025-08-02T13:16:07Z"}},{"type":"Feature","geometry":{"type":"Point","coordinates":[-97.786227,32.730772]},"properties":{"locationId":"184PT16","locatedOn":"IH0020","locOnAlias":"IH0020-XG","type":"SPOT","category":"ANNUAL ACR","routeType":"IH","route":"0020","active":"Yes","fnctClass":"(5)Major Collector","latestAadt":15504,"latestAadtYear":2024,"latestDhv30":1285,"latestKPercent":8,"latestDPercent":null,"latestVolumeCount":15964,"latestVolumeDate":"2024-05-13","extractedAt":"2025-08-02T13:23:56Z"}},{"type":"Feature","geometry":{"type":"Point","coordinates":[-97.789864,32.729087]},"properties":{"locationId":"184PT4","locatedOn":"IH0020","locOnAlias":"IH0020-AG","type":"SPOT","category":"ANNUAL ACR","routeType":"IH","route":"0020","active":"Yes","fnctClass":"(5)Major Collector","latestAadt":14463,"latestAadtYear":2024,"latestDhv30":null,"latestKPercent":null,"latestDPercent":null,"latestVolumeCount":1551,"latestVolumeDate":"2023-07-19","extractedAt":"2025-08-02T13:24:28Z"}},{"type":"Feature","geometry":{"type":"Point","coordinates":[-97.78948,32.72987]},"properties":{"locationId":"184PT5","locatedOn":"IH0020","locOnAlias":"IH0020-XG","type":"SPOT","category":"ANNUAL ACR","routeType":"IH","route":"0020","active":"Yes","fnctClass":"(5)Major Collector","latestAadt":4330,"latestAadtYear":2024,"latestDhv30":389,"latestKPercent":9,"latestDPercent":null,"latestVolumeCount":4455,"latestVolumeDate":"2024-05-13","extractedAt":"2025-08-02T13:24:43Z"}},{"type":"Feature","geometry":{"type":"Point","coordinates":[-97.810116,32.727807]},"properties":{"locationId":"184RP2010","locatedOn":"IH0020","locOnAlias":"IH0020-KG","type":"SPOT","category":"INACTIVE","routeType":"IH","route":"0020","active":"No","fnctClass":"(1)Interstate","latestAadt":30712,"latestAadtYear":2019,"latestDhv30":null,"latestKPercent":null,"latestDPercent":null,"latestVolumeCount":null,"latestVolumeDate":null,"extractedAt":"2025-08-02T13:32:07Z"}},{"type":"Feature","geometry":{"type":"Point","coordinates":[-97.810124,32.7278]},"properties":{"locationId":"184RP2010R","locatedOn":"IH0020","locOnAlias":"IH0020-KG","type":"SPOT","category":"RAMP","routeType":"IH","route":"0020","active":"Yes","fnctClass":"(1)Interstate","latestAadt":57568,"latestAadtYear":2024,"latestDhv30":519,"latestKPercent":9,"latestDPercent":null,"latestVolumeCount":5900,"latestVolumeDate":"2024-05-01","extractedAt":"2025-08-02T13:40:00Z"}},{"type":"Feature","geometry":{"type":"Point","coordinates":[-97.793422,32.728213]},"properties":{"locationId":"184RP2011","locatedOn":"IH0020","locOnAlias":"","type":"SPOT","category":"RAMP","routeType":"","route":"","active":"Yes","fnctClass":"(1)Interstate","latestAadt":46008,"latestAadtYear":2024,"latestDhv30":420,"latestKPercent":9,"latestDPercent":null,"latestVolumeCount":5481,"latestVolumeDate":"2024-04-10","extractedAt":"2025-08-02T13:40:13Z"}},{"type":"Feature","geometry":{"type":"Point","coordinates":[-97.792626,32.728952]},"properties":{"locationId":"184RP2012","locatedOn":"IH0020","locOnAlias":"","type":"SPOT","category":"RAMP","routeType":"","route":"","active":"Yes","fnctClass":"(1)Interstate","latestAadt":45378,"latestAadtYear":2024,"latestDhv30":360,"latestKPercent":8,"latestDPercent":null,"latestVolumeCount":4799,"latestVolumeDate":"2024-04-10","extractedAt":"2025-08-02T13:46:39Z"}},{"type":"Feature","geometry":{"type":"Point","coordinates":[-97.786346,32.73013]},"properties":{"locationId":"184RP2013","locatedOn":"IH0020","locOnAlias":"","type":"SPOT","category":"RAMP","routeType":"","route":"","active":"Yes","fnctClass":"(1)Interstate","latestAadt":11588,"latestAadtYear":2024,"latestDhv30":143,"latestKPercent":12,"latestDPercent":null,"latestVolumeCount":1380,"latestVolumeDate":"2024-04-10","extractedAt":"2025-08-02T13:46:56Z"}},{"type":"Feature","geometry":{"type":"Point","coordinates":[-97.778469,32.731769]},"properties":{"locationId":"184RP2013A","locatedOn":"IH0020","locOnAlias":"","type":"SPOT","category":"RAMP","routeType":"","route":"","active":"Yes","fnctClass":"(1)Interstate","latestAadt":116398,"latestAadtYear":2024,"latestDhv30":916,"latestKPercent":8,"latestDPercent":null,"latestVolumeCount":11817,"latestVolumeDate":"2024-04-10","extractedAt":"2025-08-02T13:47:11Z"}},{"type":"Feature","geometry":{"type":"Point","coordinates":[-97.784794,32.73093]},"properties":{"locationId":"184RP2014","locatedOn":"IH0020","locOnAlias":"IH0020-KG","type":"SPOT","category":"RAMP","routeType":"IH","route":"0020","active":"Yes","fnctClass":"(1)Interstate","latestAadt":22388,"latestAadtYear":2024,"latestDhv30":215,"latestKPercent":10,"latestDPercent":null,"latestVolumeCount":2367,"latestVolumeDate":"2024-04-10","extractedAt":"2025-08-02T13:47:28Z"}},{"type":"Feature","geometry":{"type":"Point","coordinates":[-97.819848,32.728084]},"properties":{"locationId":"184RP207R","locatedOn":"IH0020","locOnAlias":"IH0020-KG","type":"SPOT","category":"RAMP","routeType":"IH","route":"0020","active":"Yes","fnctClass":"(1)Interstate","latestAadt":22398,"latestAadtYear":2024,"latestDhv30":223,"latestKPercent":10,"latestDPercent":null,"latestVolumeCount":2557,"latestVolumeDate":"2024-04-08","extractedAt":"2025-08-02T14:17:45Z"}},{"type":"Feature","geometry":{"type":"Point","coordinates":[-97.817827,32.728387]},"properties":{"locationId":"184RP208R","locatedOn":"IH0020","locOnAlias":"IH0020-KG","type":"SPOT","category":"RAMP","routeType":"IH","route":"0020","active":"Yes","fnctClass":"(1)Interstate","latestAadt":25978,"latestAadtYear":2024,"latestDhv30":251,"latestKPercent":10,"latestDPercent":null,"latestVolumeCount":2618,"latestVolumeDate":"2024-04-08","extractedAt":"2025-08-02T14:18:01Z"}},{"type":"Feature","geometry":{"type":"Point","coordinates":[-97.812394,32.727488]},"properties":{"locationId":"184RP209","locatedOn":"IH0020","locOnAlias":"IH0020-KG","type":"SPOT","category":"RAMP","routeType":"IH","route":"0020","active":"Yes","fnctClass":"(1)Interstate","latestAadt":47478,"latestAadtYear":2024,"latestDhv30":452,"latestKPercent":10,"latestDPercent":null,"latestVolumeCount":4244,"latestVolumeDate":"2024-04-08","extractedAt":"2025-08-02T14:23:41Z"}},{"type":"Feature","geometry":{"type":"Point","coordinates":[-97.784703,32.721664]},"properties":{"locationId":"184U19","locatedOn":"SH0171","locOnAlias":"SH0171-KG","type":"SPOT","category":"URBAN ACR","routeType":"SH","route":"171","active":"Yes","fnctClass":"(4)Minor Arterial","latestAadt":14924,"latestAadtYear":2024,"latestDhv30":1350,"latestKPercent":9,"latestDPercent":null,"latestVolumeCount":17624,"latestVolumeDate":"2024-05-15","extractedAt":"2025-08-02T15:58:52Z"}}]}