{"type":"FeatureCollection","features":[{"type":"Feature","geometry":{"type":"Point","coordinates":[-97.805437,32.775248]},"properties":{"locationId":"184U21","locatedOn":"FM0920","locOnAlias":"FM0920-KG","type":"SPOT","category":"URBAN ACR","routeType":"FM","route":"920","active":"Yes","fnctClass":"(5)Major Collector","latestAadt":11434,"latestAadtYear":2024,"latestDhv30":1039,"latestKPercent":9,"latestDPercent":null,"latestVolumeCount":12639,"latestVolumeDate":"2024-05-15","extractedAt":"2025-08-02T16:04:51Z"}}]}