{"type":"FeatureCollection","features":[{"type":"Feature","geometry":{"type":"Point","coordinates":[-97.804031,32.748865]},"properties":{"locationId":"184HP8017","locatedOn":"S Lamar St","locOnAlias":"250321","type":"SPOT","category":"URBAN ACR","routeType":"FC","route":"0000","active":"Yes","fnctClass":"(5)Major Collector","latestAadt":1469,"latestAadtYear":2024,"latestDhv30":177,"latestKPercent":12,"latestDPercent":null,"latestVolumeCount":1547,"latestVolumeDate":"2024-05-08","extractedAt":"2025-08-02T12:51:20Z"}}]}