{"type":"FeatureCollection","features":[{"type":"Feature","geometry":{"type":"Point","coordinates":[-97.800308,32.763361]},"properties":{"locationId":"184CR302A","locatedOn":"-","locOnAlias":"","type":"SPOT","category":"URBAN ACR","routeType":"","route":"","active":"Yes","fnctClass":"(7)Local","latestAadt":97,"latestAadtYear":2019,"latestDhv30":13,"latestKPercent":13,"latestDPercent":null,"latestVolumeCount":100,"latestVolumeDate":"2019-05-06","extractedAt":"2025-08-01T20:15:40Z"}},{"type":"Feature","geometry":{"type":"Point","coordinates":[-97.801268,32.763394]},"properties":{"locationId":"184CR302B","locatedOn":"-","locOnAlias":"","type":"SPOT","category":"INACTIVE","routeType":"","route":"","active":"No","fnctClass":"(7)Local","latestAadt":64,"latestAadtYear":2019,"latestDhv30":9,"latestKPercent":14,"latestDPercent":null,"latestVolumeCount":66,"latestVolumeDate":"2019-05-06","extractedAt":"2025-08-01T20:15:54Z"}}]}