{"type":"FeatureCollection","features":[{"type":"Feature","geometry":{"type":"Point","coordinates":[-97.80881,32.720585]},"properties":{"locationId":"184HP8059","locatedOn":"WBB FIELDER","locOnAlias":"","type":"SPOT","category":"URBAN ACR","routeType":"","route":"","active":"Yes","fnctClass":"(5)Major Collector","latestAadt":3129,"latestAadtYear":2024,"latestDhv30":null,"latestKPercent":null,"latestDPercent":null,"latestVolumeCount":3181,"latestVolumeDate":"2019-05-15","extractedAt":"2025-08-02T13:15:23Z"}}]}