{"type":"FeatureCollection","features":[{"type":"Feature","geometry":{"type":"Point","coordinates":[-97.810124,32.7278]},"properties":{"locationId":"184RP2010R","locatedOn":"IH0020","locOnAlias":"IH0020-KG","type":"SPOT","category":"RAMP","routeType":"IH","route":"0020","active":"Yes","fnctClass":"(1)Interstate","latestAadt":57568,"latestAadtYear":2024,"latestDhv30":519,"latestKPercent":9,"latestDPercent":null,"latestVolumeCount":5900,"latestVolumeDate":"2024-05-01","extractedAt":"2025-08-02T13:40:00Z"}}]}