{"type":"FeatureCollection","features":[{"type":"Feature","geometry":{"type":"Point","coordinates":[-97.804649,32.732757]},"properties":{"locationId":"184T8B","locatedOn":"FM1884","locOnAlias":"FM1884-KG","type":"SPOT","category":"ANNUAL ACR","routeType":"FM","route":"1884","active":"Yes","fnctClass":"(5)Major Collector","latestAadt":6903,"latestAadtYear":2024,"latestDhv30":536,"latestKPercent":8,"latestDPercent":null,"latestVolumeCount":7404,"latestVolumeDate":"2024-05-21","extractedAt":"2025-08-02T15:56:44Z"}}]}