{"type":"FeatureCollection","features":[{"type":"Feature","geometry":{"type":"Point","coordinates":[-97.585867,32.668798]},"properties":{"locationId":"184CR68A","locatedOn":"-","locOnAlias":"","type":"SPOT","category":"URBAN ACR","routeType":"","route":"","active":"Yes","fnctClass":"(5)Major Collector","latestAadt":3402,"latestAadtYear":2024,"latestDhv30":328,"latestKPercent":10,"latestDPercent":null,"latestVolumeCount":3527,"latestVolumeDate":"2024-05-13","extractedAt":"2025-08-01T21:33:19Z"}}]}