{"type":"FeatureCollection","features":[{"type":"Feature","geometry":{"type":"Point","coordinates":[-97.802181,32.759497]},"properties":{"locationId":"184FS104","locatedOn":"FC0000","locOnAlias":"267324","type":"SPOT","category":"URBAN ACR","routeType":"FC","route":"0000","active":"Yes","fnctClass":"(5)Major Collector","latestAadt":31203,"latestAadtYear":2022,"latestDhv30":null,"latestKPercent":null,"latestDPercent":null,"latestVolumeCount":2308,"latestVolumeDate":"2014-04-23","extractedAt":"2025-08-01T23:59:34Z"}}]}