{"type":"FeatureCollection","features":[{"type":"Feature","geometry":{"type":"Point","coordinates":[-97.692177,32.762383]},"properties":{"locationId":"184FS318","locatedOn":"CR0000","locOnAlias":"184AA1195","type":"SPOT","category":"URBAN ACR","routeType":"CR","route":"0000","active":"Yes","fnctClass":"(5)Major Collector","latestAadt":1506,"latestAadtYear":2024,"latestDhv30":165,"latestKPercent":11,"latestDPercent":null,"latestVolumeCount":1575,"latestVolumeDate":"2024-05-21","extractedAt":"2025-08-02T00:42:25Z"}}]}