{"type":"FeatureCollection","features":[{"type":"Feature","geometry":{"type":"Point","coordinates":[-97.692532,32.755442]},"properties":{"locationId":"184FS305","locatedOn":"LS0000","locOnAlias":"1132827","type":"SPOT","category":"URBAN ACR","routeType":"LS","route":"0000","active":"Yes","fnctClass":"(7)Local","latestAadt":376,"latestAadtYear":2024,"latestDhv30":37,"latestKPercent":10,"latestDPercent":null,"latestVolumeCount":406,"latestVolumeDate":"2024-05-13","extractedAt":"2025-08-02T00:34:01Z"}}]}