{"type":"FeatureCollection","features":[{"type":"Feature","geometry":{"type":"Point","coordinates":[-97.595753,32.879164]},"properties":{"locationId":"184CR31A","locatedOn":"-","locOnAlias":"","type":"SPOT","category":"URBAN ACR","routeType":"","route":"","active":"Yes","fnctClass":"(5)Major Collector","latestAadt":3485,"latestAadtYear":2024,"latestDhv30":337,"latestKPercent":10,"latestDPercent":null,"latestVolumeCount":3653,"latestVolumeDate":"2024-05-21","extractedAt":"2025-08-01T20:33:01Z"}}]}