{"type":"FeatureCollection","features":[{"type":"Feature","geometry":{"type":"Point","coordinates":[-97.592323,32.829484]},"properties":{"locationId":"184H17B","locatedOn":"FM1886","locOnAlias":"FM1886-KG","type":"SPOT","category":"ANNUAL ACR","routeType":"FM","route":"1886","active":"Yes","fnctClass":"(5)Major Collector","latestAadt":3872,"latestAadtYear":2024,"latestDhv30":332,"latestKPercent":9,"latestDPercent":null,"latestVolumeCount":3752,"latestVolumeDate":"2024-07-08","extractedAt":"2025-08-02T03:29:27Z"}}]}