{"type":"FeatureCollection","features":[{"type":"Feature","geometry":{"type":"Point","coordinates":[-97.595623,32.728051]},"properties":{"locationId":"184RP2037","locatedOn":"IH0020","locOnAlias":"","type":"SPOT","category":"RAMP","routeType":"","route":"","active":"Yes","fnctClass":"(1)Interstate","latestAadt":10271,"latestAadtYear":2024,"latestDhv30":1052,"latestKPercent":10,"latestDPercent":null,"latestVolumeCount":10799,"latestVolumeDate":"2024-04-10","extractedAt":"2025-08-02T14:09:24Z"}},{"type":"Feature","geometry":{"type":"Point","coordinates":[-97.593142,32.728411]},"properties":{"locationId":"184RP2038","locatedOn":"IH0020","locOnAlias":"","type":"SPOT","category":"RAMP","routeType":"","route":"","active":"Yes","fnctClass":"(1)Interstate","latestAadt":10306,"latestAadtYear":2024,"latestDhv30":1457,"latestKPercent":14,"latestDPercent":null,"latestVolumeCount":10715,"latestVolumeDate":"2024-04-10","extractedAt":"2025-08-02T14:09:39Z"}}]}