{"type":"FeatureCollection","features":[{"type":"Feature","geometry":{"type":"Point","coordinates":[-97.739499,32.766144]},"properties":{"locationId":"184CR312A","locatedOn":"-","locOnAlias":"","type":"SPOT","category":"INACTIVE","routeType":"","route":"","active":"No","fnctClass":"(7)Local","latestAadt":1670,"latestAadtYear":2009,"latestDhv30":null,"latestKPercent":null,"latestDPercent":null,"latestVolumeCount":null,"latestVolumeDate":null,"extractedAt":"2025-08-01T20:25:02Z"}},{"type":"Feature","geometry":{"type":"Point","coordinates":[-97.742592,32.765284]},"properties":{"locationId":"184HP8038","locatedOn":"Old Dicey Rd","locOnAlias":"269664","type":"SPOT","category":"URBAN ACR","routeType":"FC","route":"0000","active":"Yes","fnctClass":"(5)Major Collector","latestAadt":1565,"latestAadtYear":2024,"latestDhv30":253,"latestKPercent":16,"latestDPercent":null,"latestVolumeCount":1643,"latestVolumeDate":"2024-05-21","extractedAt":"2025-08-02T12:59:26Z"}}]}