{"type":"FeatureCollection","features":[{"type":"Feature","geometry":{"type":"Point","coordinates":[-97.747676,32.74402]},"properties":{"locationId":"184CR330","locatedOn":"-","locOnAlias":"","type":"SPOT","category":"URBAN ACR","routeType":"","route":"","active":"Yes","fnctClass":"(5)Major Collector","latestAadt":8741,"latestAadtYear":2024,"latestDhv30":972,"latestKPercent":11,"latestDPercent":null,"latestVolumeCount":8909,"latestVolumeDate":"2024-05-13","extractedAt":"2025-08-01T20:54:51Z"}},{"type":"Feature","geometry":{"type":"Point","coordinates":[-97.746769,32.742546]},"properties":{"locationId":"184RP2019","locatedOn":"IH0020","locOnAlias":"","type":"SPOT","category":"RAMP","routeType":"","route":"","active":"Yes","fnctClass":"(1)Interstate","latestAadt":27298,"latestAadtYear":2024,"latestDhv30":230,"latestKPercent":8,"latestDPercent":null,"latestVolumeCount":2946,"latestVolumeDate":"2024-04-10","extractedAt":"2025-08-02T13:49:04Z"}},{"type":"Feature","geometry":{"type":"Point","coordinates":[-97.748029,32.742848]},"properties":{"locationId":"184RP2020","locatedOn":"IH0020","locOnAlias":"","type":"SPOT","category":"RAMP","routeType":"","route":"","active":"Yes","fnctClass":"(1)Interstate","latestAadt":36358,"latestAadtYear":2024,"latestDhv30":362,"latestKPercent":10,"latestDPercent":null,"latestVolumeCount":3424,"latestVolumeDate":"2024-04-10","extractedAt":"2025-08-02T13:54:58Z"}},{"type":"Feature","geometry":{"type":"Point","coordinates":[-97.744395,32.743578]},"properties":{"locationId":"184RP2021","locatedOn":"IH0020","locOnAlias":"","type":"SPOT","category":"INACTIVE","routeType":"","route":"","active":"No","fnctClass":"(1)Interstate","latestAadt":1547,"latestAadtYear":2021,"latestDhv30":131,"latestKPercent":8,"latestDPercent":null,"latestVolumeCount":1611,"latestVolumeDate":"2021-07-21","extractedAt":"2025-08-02T13:55:13Z"}},{"type":"Feature","geometry":{"type":"Point","coordinates":[-97.743872,32.74384]},"properties":{"locationId":"184RP2021R","locatedOn":"IH0020","locOnAlias":"IH0020-KG","type":"SPOT","category":"RAMP","routeType":"IH","route":"0020","active":"Yes","fnctClass":"(1)Interstate","latestAadt":23518,"latestAadtYear":2024,"latestDhv30":255,"latestKPercent":11,"latestDPercent":null,"latestVolumeCount":2533,"latestVolumeDate":"2024-04-10","extractedAt":"2025-08-02T13:55:45Z"}},{"type":"Feature","geometry":{"type":"Point","coordinates":[-97.74099,32.745166]},"properties":{"locationId":"184RP2022","locatedOn":"IH0020","locOnAlias":"","type":"SPOT","category":"INACTIVE","routeType":"","route":"","active":"No","fnctClass":"(1)Interstate","latestAadt":1574,"latestAadtYear":2021,"latestDhv30":235,"latestKPercent":15,"latestDPercent":null,"latestVolumeCount":1629,"latestVolumeDate":"2021-07-21","extractedAt":"2025-08-02T13:56:01Z"}},{"type":"Feature","geometry":{"type":"Point","coordinates":[-97.740881,32.74516]},"properties":{"locationId":"184RP2022R","locatedOn":"IH0020","locOnAlias":"IH0020-KG","type":"SPOT","category":"RAMP","routeType":"IH","route":"0020","active":"Yes","fnctClass":"(1)Interstate","latestAadt":37078,"latestAadtYear":2024,"latestDhv30":640,"latestKPercent":17,"latestDPercent":null,"latestVolumeCount":4212,"latestVolumeDate":"2024-12-11","extractedAt":"2025-08-02T13:56:31Z"}}]}