{"type":"FeatureCollection","features":[{"type":"Feature","geometry":{"type":"Point","coordinates":[-97.771911,32.733979]},"properties":{"locationId":"184H2001","locatedOn":"IH0020","locOnAlias":"IH0020-KG","type":"SPOT","category":"ANNUAL ACR","routeType":"IH","route":"0020","active":"Yes","fnctClass":"(1)Interstate","latestAadt":716488,"latestAadtYear":2024,"latestDhv30":null,"latestKPercent":null,"latestDPercent":null,"latestVolumeCount":null,"latestVolumeDate":null,"extractedAt":"2025-08-02T03:36:41Z"}},{"type":"Feature","geometry":{"type":"Point","coordinates":[-97.772075,32.733483]},"properties":{"locationId":"184H2001EBSR","locatedOn":"IH0020","locOnAlias":"IH0020-AG","type":"SPOT","category":"ANNUAL ACR","routeType":"IH","route":"0020","active":"Yes","fnctClass":"(5)Major Collector","latestAadt":2977,"latestAadtYear":2024,"latestDhv30":356,"latestKPercent":12,"latestDPercent":null,"latestVolumeCount":3184,"latestVolumeDate":"2024-05-08","extractedAt":"2025-08-02T03:36:54Z"}},{"type":"Feature","geometry":{"type":"Point","coordinates":[-97.771981,32.734354]},"properties":{"locationId":"184H2001WBSR","locatedOn":"IH0020","locOnAlias":"IH0020-XG","type":"SPOT","category":"ANNUAL ACR","routeType":"IH","route":"0020","active":"Yes","fnctClass":"(5)Major Collector","latestAadt":3416,"latestAadtYear":2024,"latestDhv30":321,"latestKPercent":9,"latestDPercent":null,"latestVolumeCount":3654,"latestVolumeDate":"2024-05-08","extractedAt":"2025-08-02T03:37:08Z"}},{"type":"Feature","geometry":{"type":"Point","coordinates":[-97.774112,32.739121]},"properties":{"locationId":"184HP8037","locatedOn":"Holland Lake Dr","locOnAlias":"267322","type":"SPOT","category":"INACTIVE","routeType":"FC","route":"0000","active":"No","fnctClass":"(5)Major Collector","latestAadt":51023,"latestAadtYear":2022,"latestDhv30":null,"latestKPercent":null,"latestDPercent":null,"latestVolumeCount":6325,"latestVolumeDate":"2019-05-06","extractedAt":"2025-08-02T12:59:11Z"}},{"type":"Feature","geometry":{"type":"Point","coordinates":[-97.775788,32.73288]},"properties":{"locationId":"184PT13","locatedOn":"IH0020","locOnAlias":"IH0020-KG","type":"SPOT","category":"INACTIVE","routeType":"IH","route":"0020","active":"No","fnctClass":"(1)Interstate","latestAadt":7672,"latestAadtYear":2021,"latestDhv30":544,"latestKPercent":7,"latestDPercent":null,"latestVolumeCount":6989,"latestVolumeDate":"2021-09-08","extractedAt":"2025-08-02T13:23:40Z"}},{"type":"Feature","geometry":{"type":"Point","coordinates":[-97.773835,32.732458]},"properties":{"locationId":"184PT7","locatedOn":"Fossil Hill Rd","locOnAlias":"1250504","type":"SPOT","category":"ANNUAL ACR","routeType":"LS","route":"0000","active":"Yes","fnctClass":"(7)Local","latestAadt":422,"latestAadtYear":2024,"latestDhv30":58,"latestKPercent":14,"latestDPercent":null,"latestVolumeCount":442,"latestVolumeDate":"2024-05-13","extractedAt":"2025-08-02T13:25:11Z"}},{"type":"Feature","geometry":{"type":"Point","coordinates":[-97.774195,32.733779]},"properties":{"locationId":"184PT8","locatedOn":"Holland Lake Dr","locOnAlias":"267322","type":"SPOT","category":"ANNUAL ACR","routeType":"LS","route":"0000","active":"Yes","fnctClass":"(5)Major Collector","latestAadt":60563,"latestAadtYear":2024,"latestDhv30":null,"latestKPercent":null,"latestDPercent":null,"latestVolumeCount":6257,"latestVolumeDate":"2023-07-19","extractedAt":"2025-08-02T13:30:50Z"}},{"type":"Feature","geometry":{"type":"Point","coordinates":[-97.775691,32.732936]},"properties":{"locationId":"184RP2014A","locatedOn":"IH0020","locOnAlias":"IH0020-KG","type":"SPOT","category":"RAMP","routeType":"IH","route":"0020","active":"Yes","fnctClass":"(1)Interstate","latestAadt":120848,"latestAadtYear":2024,"latestDhv30":1168,"latestKPercent":10,"latestDPercent":null,"latestVolumeCount":12684,"latestVolumeDate":"2024-04-10","extractedAt":"2025-08-02T13:47:43Z"}},{"type":"Feature","geometry":{"type":"Point","coordinates":[-97.769165,32.73472]},"properties":{"locationId":"184RP2015","locatedOn":"IH0020","locOnAlias":"","type":"SPOT","category":"RAMP","routeType":"","route":"","active":"Yes","fnctClass":"(1)Interstate","latestAadt":13068,"latestAadtYear":2024,"latestDhv30":150,"latestKPercent":11,"latestDPercent":null,"latestVolumeCount":1327,"latestVolumeDate":"2024-04-10","extractedAt":"2025-08-02T13:47:57Z"}}]}