{"type":"FeatureCollection","features":[{"type":"Feature","geometry":{"type":"Point","coordinates":[-97.777248,32.760565]},"properties":{"locationId":"184HP8007","locatedOn":"Jameson","locOnAlias":"250320","type":"SPOT","category":"URBAN ACR","routeType":"FC","route":"0000","active":"Yes","fnctClass":"(5)Major Collector","latestAadt":2380,"latestAadtYear":2024,"latestDhv30":275,"latestKPercent":12,"latestDPercent":null,"latestVolumeCount":2500,"latestVolumeDate":"2024-05-21","extractedAt":"2025-08-02T12:45:32Z"}}]}