{"type":"FeatureCollection","features":[{"type":"Feature","geometry":{"type":"Point","coordinates":[-97.662913,32.889789]},"properties":{"locationId":"184CR31C","locatedOn":"-","locOnAlias":"","type":"SPOT","category":"URBAN ACR","routeType":"","route":"","active":"Yes","fnctClass":"(6)Minor Collector","latestAadt":1155,"latestAadtYear":2024,"latestDhv30":115,"latestKPercent":10,"latestDPercent":null,"latestVolumeCount":1202,"latestVolumeDate":"2024-05-22","extractedAt":"2025-08-01T20:38:57Z"}}]}