{"type":"FeatureCollection","features":[{"type":"Feature","geometry":{"type":"Point","coordinates":[-97.599769,32.914434]},"properties":{"locationId":"184CR27","locatedOn":"-","locOnAlias":"","type":"SPOT","category":"URBAN ACR","routeType":"","route":"","active":"Yes","fnctClass":"(5)Major Collector","latestAadt":2816,"latestAadtYear":2019,"latestDhv30":412,"latestKPercent":15,"latestDPercent":null,"latestVolumeCount":3446,"latestVolumeDate":"2019-05-13","extractedAt":"2025-08-01T20:07:47Z"}},{"type":"Feature","geometry":{"type":"Point","coordinates":[-97.584166,32.910767]},"properties":{"locationId":"184CR28A","locatedOn":"-","locOnAlias":"","type":"SPOT","category":"URBAN ACR","routeType":"","route":"","active":"Yes","fnctClass":"(7)Local","latestAadt":445,"latestAadtYear":2024,"latestDhv30":46,"latestKPercent":10,"latestDPercent":null,"latestVolumeCount":439,"latestVolumeDate":"2024-05-22","extractedAt":"2025-08-01T20:13:54Z"}}]}