{"type":"FeatureCollection","features":[{"type":"Feature","geometry":{"type":"Point","coordinates":[-97.597247,32.835157]},"properties":{"locationId":"184CR34","locatedOn":"-","locOnAlias":"","type":"SPOT","category":"URBAN ACR","routeType":"","route":"","active":"Yes","fnctClass":"(5)Major Collector","latestAadt":5942,"latestAadtYear":2024,"latestDhv30":578,"latestKPercent":10,"latestDPercent":null,"latestVolumeCount":6224,"latestVolumeDate":"2024-05-21","extractedAt":"2025-08-01T21:11:30Z"}},{"type":"Feature","geometry":{"type":"Point","coordinates":[-97.599878,32.831262]},"properties":{"locationId":"184E28A","locatedOn":"FM1886","locOnAlias":"FM1886-KG","type":"SPOT","category":"ANNUAL ACR","routeType":"FM","route":"1886","active":"Yes","fnctClass":"(5)Major Collector","latestAadt":3645,"latestAadtYear":2024,"latestDhv30":283,"latestKPercent":8,"latestDPercent":null,"latestVolumeCount":3533,"latestVolumeDate":"2024-07-08","extractedAt":"2025-08-01T23:57:51Z"}},{"type":"Feature","geometry":{"type":"Point","coordinates":[-97.592323,32.829484]},"properties":{"locationId":"184H17B","locatedOn":"FM1886","locOnAlias":"FM1886-KG","type":"SPOT","category":"ANNUAL ACR","routeType":"FM","route":"1886","active":"Yes","fnctClass":"(5)Major Collector","latestAadt":3872,"latestAadtYear":2024,"latestDhv30":332,"latestKPercent":9,"latestDPercent":null,"latestVolumeCount":3752,"latestVolumeDate":"2024-07-08","extractedAt":"2025-08-02T03:29:27Z"}}]}