{"type":"FeatureCollection","features":[{"type":"Feature","geometry":{"type":"Point","coordinates":[-97.583983,32.592786]},"properties":{"locationId":"184E27A","locatedOn":"US0377","locOnAlias":"US0377-KG","type":"SPOT","category":"INACTIVE","routeType":"US","route":"0377","active":"No","fnctClass":"(3)Principal Arterial-Other","latestAadt":23728,"latestAadtYear":2019,"latestDhv30":null,"latestKPercent":null,"latestDPercent":null,"latestVolumeCount":22622,"latestVolumeDate":"2018-07-30","extractedAt":"2025-08-01T23:57:19Z"}}]}