{"type":"FeatureCollection","features":[{"type":"Feature","geometry":{"type":"Point","coordinates":[-97.704916,32.797581]},"properties":{"locationId":"184CR315","locatedOn":"-","locOnAlias":"","type":"SPOT","category":"URBAN ACR","routeType":"","route":"","active":"Yes","fnctClass":"(7)Local","latestAadt":738,"latestAadtYear":2024,"latestDhv30":87,"latestKPercent":12,"latestDPercent":null,"latestVolumeCount":742,"latestVolumeDate":"2024-05-21","extractedAt":"2025-08-01T20:31:18Z"}},{"type":"Feature","geometry":{"type":"Point","coordinates":[-97.698983,32.787738]},"properties":{"locationId":"184RS23","locatedOn":"NALAKEVIEW","locOnAlias":"","type":"SPOT","category":"URBAN ACR","routeType":"","route":"","active":"Yes","fnctClass":"(7)Local","latestAadt":279,"latestAadtYear":2024,"latestDhv30":24,"latestKPercent":9,"latestDPercent":null,"latestVolumeCount":278,"latestVolumeDate":"2024-05-21","extractedAt":"2025-08-02T15:17:54Z"}}]}