{"type":"FeatureCollection","features":[{"type":"Feature","geometry":{"type":"Point","coordinates":[-97.69712,32.755769]},"properties":{"locationId":"184CC1","locatedOn":"GS0000","locOnAlias":"20010","type":"SPOT","category":"RAMP","routeType":"GS","route":"0000","active":"Yes","fnctClass":"(1)Interstate","latestAadt":8388,"latestAadtYear":2024,"latestDhv30":660,"latestKPercent":8,"latestDPercent":null,"latestVolumeCount":8746,"latestVolumeDate":"2024-04-10","extractedAt":"2025-08-01T19:06:31Z"}},{"type":"Feature","geometry":{"type":"Point","coordinates":[-97.698881,32.757352]},"properties":{"locationId":"184CR325","locatedOn":"-","locOnAlias":"","type":"SPOT","category":"URBAN ACR","routeType":"","route":"","active":"Yes","fnctClass":"(5)Major Collector","latestAadt":9701,"latestAadtYear":2024,"latestDhv30":920,"latestKPercent":9,"latestDPercent":51,"latestVolumeCount":9801,"latestVolumeDate":"2024-05-13","extractedAt":"2025-08-01T20:46:39Z"}},{"type":"Feature","geometry":{"type":"Point","coordinates":[-97.707466,32.753057]},"properties":{"locationId":"184CR325A","locatedOn":"Newell Dr","locOnAlias":"297488","type":"SPOT","category":"URBAN ACR","routeType":"LS","route":"0000","active":"Yes","fnctClass":"(6)Minor Collector","latestAadt":526,"latestAadtYear":2024,"latestDhv30":49,"latestKPercent":9,"latestDPercent":null,"latestVolumeCount":524,"latestVolumeDate":"2024-05-13","extractedAt":"2025-08-01T20:46:53Z"}},{"type":"Feature","geometry":{"type":"Point","coordinates":[-97.699129,32.753452]},"properties":{"locationId":"184CR325B","locatedOn":"-","locOnAlias":"","type":"SPOT","category":"URBAN ACR","routeType":"","route":"","active":"Yes","fnctClass":"(7)Local","latestAadt":1684,"latestAadtYear":2024,"latestDhv30":172,"latestKPercent":10,"latestDPercent":null,"latestVolumeCount":1811,"latestVolumeDate":"2024-05-13","extractedAt":"2025-08-01T20:47:06Z"}},{"type":"Feature","geometry":{"type":"Point","coordinates":[-97.710674,32.75781]},"properties":{"locationId":"184CR326","locatedOn":"-","locOnAlias":"","type":"SPOT","category":"URBAN ACR","routeType":"","route":"","active":"Yes","fnctClass":"(5)Major Collector","latestAadt":6994,"latestAadtYear":2024,"latestDhv30":597,"latestKPercent":9,"latestDPercent":null,"latestVolumeCount":7195,"latestVolumeDate":"2024-05-21","extractedAt":"2025-08-01T20:47:21Z"}},{"type":"Feature","geometry":{"type":"Point","coordinates":[-97.711506,32.763383]},"properties":{"locationId":"184FS301","locatedOn":"FC0000","locOnAlias":"297467","type":"SPOT","category":"INACTIVE","routeType":"FC","route":"0000","active":"No","fnctClass":"(5)Major Collector","latestAadt":61333,"latestAadtYear":2022,"latestDhv30":null,"latestKPercent":null,"latestDPercent":null,"latestVolumeCount":4537,"latestVolumeDate":"2014-04-22","extractedAt":"2025-08-02T00:33:31Z"}},{"type":"Feature","geometry":{"type":"Point","coordinates":[-97.706362,32.760682]},"properties":{"locationId":"184FS304F","locatedOn":"-","locOnAlias":"","type":"SPOT","category":"INACTIVE","routeType":"","route":"","active":"No","fnctClass":"(7)Local","latestAadt":925,"latestAadtYear":2019,"latestDhv30":121,"latestKPercent":13,"latestDPercent":null,"latestVolumeCount":968,"latestVolumeDate":"2019-05-06","extractedAt":"2025-08-02T00:33:44Z"}},{"type":"Feature","geometry":{"type":"Point","coordinates":[-97.692532,32.755442]},"properties":{"locationId":"184FS305","locatedOn":"LS0000","locOnAlias":"1132827","type":"SPOT","category":"URBAN ACR","routeType":"LS","route":"0000","active":"Yes","fnctClass":"(7)Local","latestAadt":376,"latestAadtYear":2024,"latestDhv30":37,"latestKPercent":10,"latestDPercent":null,"latestVolumeCount":406,"latestVolumeDate":"2024-05-13","extractedAt":"2025-08-02T00:34:01Z"}},{"type":"Feature","geometry":{"type":"Point","coordinates":[-97.698041,32.760701]},"properties":{"locationId":"184FS306","locatedOn":"CR0000","locOnAlias":"184AA2071","type":"SPOT","category":"INACTIVE","routeType":"CR","route":"0000","active":"No","fnctClass":"(7)Local","latestAadt":209,"latestAadtYear":2019,"latestDhv30":22,"latestKPercent":11,"latestDPercent":null,"latestVolumeCount":219,"latestVolumeDate":"2019-05-06","extractedAt":"2025-08-02T00:34:15Z"}},{"type":"Feature","geometry":{"type":"Point","coordinates":[-97.699882,32.760673]},"properties":{"locationId":"184FS311","locatedOn":"LS0000","locOnAlias":"1132791","type":"SPOT","category":"URBAN ACR","routeType":"LS","route":"0000","active":"Yes","fnctClass":"(7)Local","latestAadt":1305,"latestAadtYear":2024,"latestDhv30":157,"latestKPercent":12,"latestDPercent":null,"latestVolumeCount":1334,"latestVolumeDate":"2024-05-21","extractedAt":"2025-08-02T00:35:15Z"}},{"type":"Feature","geometry":{"type":"Point","coordinates":[-97.692177,32.762383]},"properties":{"locationId":"184FS318","locatedOn":"CR0000","locOnAlias":"184AA1195","type":"SPOT","category":"URBAN ACR","routeType":"CR","route":"0000","active":"Yes","fnctClass":"(5)Major Collector","latestAadt":1506,"latestAadtYear":2024,"latestDhv30":165,"latestKPercent":11,"latestDPercent":null,"latestVolumeCount":1575,"latestVolumeDate":"2024-05-21","extractedAt":"2025-08-02T00:42:25Z"}},{"type":"Feature","geometry":{"type":"Point","coordinates":[-97.70094,32.763604]},"properties":{"locationId":"184FS33","locatedOn":"LS0000","locOnAlias":"1250776","type":"SPOT","category":"INACTIVE","routeType":"LS","route":"0000","active":"No","fnctClass":"(7)Local","latestAadt":282,"latestAadtYear":2014,"latestDhv30":34,"latestKPercent":16,"latestDPercent":null,"latestVolumeCount":294,"latestVolumeDate":"2014-04-21","extractedAt":"2025-08-02T00:42:42Z"}},{"type":"Feature","geometry":{"type":"Point","coordinates":[-97.698929,32.761531]},"properties":{"locationId":"184HP8051","locatedOn":"NALAKESHORE","locOnAlias":"","type":"SPOT","category":"URBAN ACR","routeType":"","route":"","active":"Yes","fnctClass":"(5)Major Collector","latestAadt":4190,"latestAadtYear":2024,"latestDhv30":380,"latestKPercent":9,"latestDPercent":null,"latestVolumeCount":4381,"latestVolumeDate":"2024-05-21","extractedAt":"2025-08-02T13:07:56Z"}},{"type":"Feature","geometry":{"type":"Point","coordinates":[-97.711752,32.755152]},"properties":{"locationId":"184HP8057","locatedOn":"SOAKRIDGE","locOnAlias":"","type":"SPOT","category":"URBAN ACR","routeType":"","route":"","active":"Yes","fnctClass":"(5)Major Collector","latestAadt":5009,"latestAadtYear":2024,"latestDhv30":433,"latestKPercent":9,"latestDPercent":null,"latestVolumeCount":5237,"latestVolumeDate":"2024-05-21","extractedAt":"2025-08-02T13:14:57Z"}},{"type":"Feature","geometry":{"type":"Point","coordinates":[-97.702696,32.754731]},"properties":{"locationId":"184RP2023","locatedOn":"IH0020","locOnAlias":"","type":"SPOT","category":"RAMP","routeType":"","route":"","active":"Yes","fnctClass":"(1)Interstate","latestAadt":33508,"latestAadtYear":2024,"latestDhv30":295,"latestKPercent":9,"latestDPercent":null,"latestVolumeCount":3609,"latestVolumeDate":"2024-04-10","extractedAt":"2025-08-02T13:56:48Z"}}]}