{"type":"FeatureCollection","features":[{"type":"Feature","geometry":{"type":"Point","coordinates":[-97.618976,32.731183]},"properties":{"locationId":"184SP208","locatedOn":"IH0020","locOnAlias":"IH0020-KG","type":"SPOT","category":"ANNUAL ACR","routeType":"IH","route":"0020","active":"Yes","fnctClass":"(1)Interstate","latestAadt":1012318,"latestAadtYear":2024,"latestDhv30":null,"latestKPercent":null,"latestDPercent":null,"latestVolumeCount":null,"latestVolumeDate":null,"extractedAt":"2025-08-02T15:26:28Z"}},{"type":"Feature","geometry":{"type":"Point","coordinates":[-97.619001,32.730777]},"properties":{"locationId":"184SP208EBSR","locatedOn":"IH0020","locOnAlias":"IH0020-AG","type":"SPOT","category":"ANNUAL ACR","routeType":"IH","route":"0020","active":"Yes","fnctClass":"(5)Major Collector","latestAadt":4798,"latestAadtYear":2024,"latestDhv30":479,"latestKPercent":10,"latestDPercent":null,"latestVolumeCount":4817,"latestVolumeDate":"2024-06-04","extractedAt":"2025-08-02T15:26:44Z"}},{"type":"Feature","geometry":{"type":"Point","coordinates":[-97.618831,32.731558]},"properties":{"locationId":"184SP208WBSR","locatedOn":"IH0020","locOnAlias":"IH0020-XG","type":"SPOT","category":"ANNUAL ACR","routeType":"IH","route":"0020","active":"Yes","fnctClass":"(5)Major Collector","latestAadt":16643,"latestAadtYear":2024,"latestDhv30":null,"latestKPercent":null,"latestDPercent":null,"latestVolumeCount":1636,"latestVolumeDate":"2022-08-16","extractedAt":"2025-08-02T15:27:00Z"}}]}