{"type":"FeatureCollection","features":[{"type":"Feature","geometry":{"type":"Point","coordinates":[-97.73861,32.904967]},"properties":{"locationId":"184CR174A","locatedOn":"-","locOnAlias":"","type":"SPOT","category":"URBAN ACR","routeType":"","route":"","active":"Yes","fnctClass":"(5)Major Collector","latestAadt":1688,"latestAadtYear":2024,"latestDhv30":163,"latestKPercent":10,"latestDPercent":null,"latestVolumeCount":1778,"latestVolumeDate":"2024-05-22","extractedAt":"2025-08-01T19:34:35Z"}},{"type":"Feature","geometry":{"type":"Point","coordinates":[-97.741201,32.906524]},"properties":{"locationId":"184HP8047","locatedOn":"NACARTER","locOnAlias":"","type":"SPOT","category":"URBAN ACR","routeType":"","route":"","active":"Yes","fnctClass":"(5)Major Collector","latestAadt":1350,"latestAadtYear":2024,"latestDhv30":134,"latestKPercent":10,"latestDPercent":null,"latestVolumeCount":1422,"latestVolumeDate":"2024-05-22","extractedAt":"2025-08-02T13:06:59Z"}}]}