{"type":"FeatureCollection","features":[{"type":"Feature","geometry":{"type":"Point","coordinates":[-97.739292,32.718719]},"properties":{"locationId":"184CR214","locatedOn":"NAAIRPORT","locOnAlias":"","type":"SPOT","category":"URBAN ACR","routeType":"","route":"","active":"Yes","fnctClass":"(6)Minor Collector","latestAadt":922,"latestAadtYear":2019,"latestDhv30":98,"latestKPercent":11,"latestDPercent":null,"latestVolumeCount":1017,"latestVolumeDate":"2019-05-15","extractedAt":"2025-08-01T19:43:56Z"}}]}