{"type":"FeatureCollection","features":[{"type":"Feature","geometry":{"type":"Point","coordinates":[-97.873184,32.727357]},"properties":{"locationId":"184RP204","locatedOn":"IH0020","locOnAlias":"IH0020-KG","type":"SPOT","category":"RAMP","routeType":"IH","route":"0020","active":"Yes","fnctClass":"(1)Interstate","latestAadt":46328,"latestAadtYear":2024,"latestDhv30":388,"latestKPercent":8,"latestDPercent":null,"latestVolumeCount":4544,"latestVolumeDate":"2024-04-08","extractedAt":"2025-08-02T14:10:09Z"}}]}