{"type":"FeatureCollection","features":[{"type":"Feature","geometry":{"type":"Point","coordinates":[-97.759536,32.570529]},"properties":{"locationId":"184D8","locatedOn":"FM0051","locOnAlias":"","type":"SPOT","category":"INACTIVE","routeType":"","route":"","active":"No","fnctClass":"(4)Minor Arterial","latestAadt":6522,"latestAadtYear":2020,"latestDhv30":636,"latestKPercent":10,"latestDPercent":null,"latestVolumeCount":7173,"latestVolumeDate":"2020-08-19","extractedAt":"2025-08-01T23:51:13Z"}},{"type":"Feature","geometry":{"type":"Point","coordinates":[-97.820035,32.574146]},"properties":{"locationId":"184FS3","locatedOn":"CR0000","locOnAlias":"184AA0602","type":"SPOT","category":"INACTIVE","routeType":"CR","route":"0000","active":"No","fnctClass":"(7)Local","latestAadt":38,"latestAadtYear":2019,"latestDhv30":5,"latestKPercent":13,"latestDPercent":null,"latestVolumeCount":41,"latestVolumeDate":"2019-05-15","extractedAt":"2025-08-02T00:33:01Z"}}]}