{"type":"FeatureCollection","features":[{"type":"Feature","geometry":{"type":"Point","coordinates":[-97.636863,32.735298]},"properties":{"locationId":"184RP2031","locatedOn":"IH0020","locOnAlias":"","type":"SPOT","category":"RAMP","routeType":"","route":"","active":"Yes","fnctClass":"(1)Interstate","latestAadt":69888,"latestAadtYear":2024,"latestDhv30":631,"latestKPercent":9,"latestDPercent":null,"latestVolumeCount":7432,"latestVolumeDate":"2024-12-11","extractedAt":"2025-08-02T14:07:59Z"}},{"type":"Feature","geometry":{"type":"Point","coordinates":[-97.635902,32.735709]},"properties":{"locationId":"184RP2032","locatedOn":"IH0020","locOnAlias":"","type":"SPOT","category":"RAMP","routeType":"","route":"","active":"Yes","fnctClass":"(1)Interstate","latestAadt":54388,"latestAadtYear":2024,"latestDhv30":495,"latestKPercent":9,"latestDPercent":null,"latestVolumeCount":5082,"latestVolumeDate":"2024-04-10","extractedAt":"2025-08-02T14:08:13Z"}}]}