{"type":"FeatureCollection","features":[{"type":"Feature","geometry":{"type":"Point","coordinates":[-97.605021,32.716497]},"properties":{"locationId":"184CR40","locatedOn":"Bankhead Highway","locOnAlias":"184AA0879","type":"SPOT","category":"URBAN ACR","routeType":"CR","route":"0000","active":"Yes","fnctClass":"(5)Major Collector","latestAadt":8008,"latestAadtYear":2024,"latestDhv30":787,"latestKPercent":10,"latestDPercent":null,"latestVolumeCount":8072,"latestVolumeDate":"2024-05-13","extractedAt":"2025-08-01T21:19:16Z"}},{"type":"Feature","geometry":{"type":"Point","coordinates":[-97.606036,32.72924]},"properties":{"locationId":"184RP2035","locatedOn":"IH0020","locOnAlias":"","type":"SPOT","category":"RAMP","routeType":"","route":"","active":"Yes","fnctClass":"(1)Interstate","latestAadt":5877,"latestAadtYear":2024,"latestDhv30":513,"latestKPercent":9,"latestDPercent":null,"latestVolumeCount":6153,"latestVolumeDate":"2024-04-10","extractedAt":"2025-08-02T14:08:55Z"}},{"type":"Feature","geometry":{"type":"Point","coordinates":[-97.60418,32.729705]},"properties":{"locationId":"184RP2036","locatedOn":"IH0020","locOnAlias":"","type":"SPOT","category":"RAMP","routeType":"","route":"","active":"Yes","fnctClass":"(1)Interstate","latestAadt":5721,"latestAadtYear":2024,"latestDhv30":522,"latestKPercent":9,"latestDPercent":null,"latestVolumeCount":5954,"latestVolumeDate":"2024-04-10","extractedAt":"2025-08-02T14:09:09Z"}},{"type":"Feature","geometry":{"type":"Point","coordinates":[-97.618976,32.731183]},"properties":{"locationId":"184SP208","locatedOn":"IH0020","locOnAlias":"IH0020-KG","type":"SPOT","category":"ANNUAL ACR","routeType":"IH","route":"0020","active":"Yes","fnctClass":"(1)Interstate","latestAadt":1012318,"latestAadtYear":2024,"latestDhv30":null,"latestKPercent":null,"latestDPercent":null,"latestVolumeCount":null,"latestVolumeDate":null,"extractedAt":"2025-08-02T15:26:28Z"}},{"type":"Feature","geometry":{"type":"Point","coordinates":[-97.619001,32.730777]},"properties":{"locationId":"184SP208EBSR","locatedOn":"IH0020","locOnAlias":"IH0020-AG","type":"SPOT","category":"ANNUAL ACR","routeType":"IH","route":"0020","active":"Yes","fnctClass":"(5)Major Collector","latestAadt":4798,"latestAadtYear":2024,"latestDhv30":479,"latestKPercent":10,"latestDPercent":null,"latestVolumeCount":4817,"latestVolumeDate":"2024-06-04","extractedAt":"2025-08-02T15:26:44Z"}},{"type":"Feature","geometry":{"type":"Point","coordinates":[-97.618831,32.731558]},"properties":{"locationId":"184SP208WBSR","locatedOn":"IH0020","locOnAlias":"IH0020-XG","type":"SPOT","category":"ANNUAL ACR","routeType":"IH","route":"0020","active":"Yes","fnctClass":"(5)Major Collector","latestAadt":16643,"latestAadtYear":2024,"latestDhv30":null,"latestKPercent":null,"latestDPercent":null,"latestVolumeCount":1636,"latestVolumeDate":"2022-08-16","extractedAt":"2025-08-02T15:27:00Z"}}]}