{"type":"FeatureCollection","features":[{"type":"Feature","geometry":{"type":"Point","coordinates":[-97.662913,32.889789]},"properties":{"locationId":"184CR31C","locatedOn":"-","locOnAlias":"","type":"SPOT","category":"URBAN ACR","routeType":"","route":"","active":"Yes","fnctClass":"(6)Minor Collector","latestAadt":1155,"latestAadtYear":2024,"latestDhv30":115,"latestKPercent":10,"latestDPercent":null,"latestVolumeCount":1202,"latestVolumeDate":"2024-05-22","extractedAt":"2025-08-01T20:38:57Z"}},{"type":"Feature","geometry":{"type":"Point","coordinates":[-97.657297,32.909795]},"properties":{"locationId":"184CR8D","locatedOn":"-","locOnAlias":"","type":"SPOT","category":"URBAN ACR","routeType":"","route":"","active":"Yes","fnctClass":"(7)Local","latestAadt":1153,"latestAadtYear":2024,"latestDhv30":109,"latestKPercent":10,"latestDPercent":null,"latestVolumeCount":1162,"latestVolumeDate":"2024-05-22","extractedAt":"2025-08-01T23:11:32Z"}},{"type":"Feature","geometry":{"type":"Point","coordinates":[-97.6832,32.884697]},"properties":{"locationId":"184FS34","locatedOn":"CR0000","locOnAlias":"184AA1533","type":"SPOT","category":"URBAN ACR","routeType":"CR","route":"0000","active":"Yes","fnctClass":"(7)Local","latestAadt":39,"latestAadtYear":2024,"latestDhv30":5,"latestKPercent":15,"latestDPercent":null,"latestVolumeCount":39,"latestVolumeDate":"2024-05-22","extractedAt":"2025-08-02T00:43:01Z"}},{"type":"Feature","geometry":{"type":"Point","coordinates":[-97.681341,32.906524]},"properties":{"locationId":"184HP6004","locatedOn":"Old Springtown Rd","locOnAlias":"184AA0172","type":"SPOT","category":"URBAN ACR","routeType":"CR","route":"0172","active":"Yes","fnctClass":"(6)Minor Collector","latestAadt":1066,"latestAadtYear":2024,"latestDhv30":107,"latestKPercent":10,"latestDPercent":null,"latestVolumeCount":1144,"latestVolumeDate":"2024-05-22","extractedAt":"2025-08-02T12:43:31Z"}}]}