{"type":"FeatureCollection","features":[{"type":"Feature","geometry":{"type":"Point","coordinates":[-97.659178,32.838312]},"properties":{"locationId":"184CR35","locatedOn":"Tucker","locOnAlias":"184AA0125","type":"SPOT","category":"URBAN ACR","routeType":"CR","route":"0000","active":"Yes","fnctClass":"(7)Local","latestAadt":1734,"latestAadtYear":2024,"latestDhv30":185,"latestKPercent":11,"latestDPercent":null,"latestVolumeCount":1733,"latestVolumeDate":"2024-05-21","extractedAt":"2025-08-01T21:17:49Z"}},{"type":"Feature","geometry":{"type":"Point","coordinates":[-97.661776,32.808056]},"properties":{"locationId":"184RS8","locatedOn":"NAPEARSON RANCH","locOnAlias":"","type":"SPOT","category":"URBAN ACR","routeType":"","route":"","active":"Yes","fnctClass":"(7)Local","latestAadt":75,"latestAadtYear":2024,"latestDhv30":7,"latestKPercent":11,"latestDPercent":null,"latestVolumeCount":75,"latestVolumeDate":"2024-05-21","extractedAt":"2025-08-02T15:25:59Z"}},{"type":"Feature","geometry":{"type":"Point","coordinates":[-97.684191,32.810998]},"properties":{"locationId":"184U15","locatedOn":"FM0730","locOnAlias":"FM0730-KG","type":"SPOT","category":"URBAN ACR","routeType":"FM","route":"730","active":"Yes","fnctClass":"(5)Major Collector","latestAadt":null,"latestAadtYear":null,"latestDhv30":null,"latestKPercent":null,"latestDPercent":null,"latestVolumeCount":null,"latestVolumeDate":null,"extractedAt":"2025-08-02T15:57:59Z"}}]}