{"type":"FeatureCollection","features":[{"type":"Feature","geometry":{"type":"Point","coordinates":[-97.653144,32.766614]},"properties":{"locationId":"184CR317","locatedOn":"-","locOnAlias":"","type":"SPOT","category":"URBAN ACR","routeType":"","route":"","active":"Yes","fnctClass":"(5)Major Collector","latestAadt":1055,"latestAadtYear":2019,"latestDhv30":131,"latestKPercent":12,"latestDPercent":null,"latestVolumeCount":1282,"latestVolumeDate":"2019-05-06","extractedAt":"2025-08-01T20:31:32Z"}},{"type":"Feature","geometry":{"type":"Point","coordinates":[-97.653083,32.74162]},"properties":{"locationId":"184CR318A","locatedOn":"-","locOnAlias":"","type":"SPOT","category":"URBAN ACR","routeType":"","route":"","active":"Yes","fnctClass":"(7)Local","latestAadt":1519,"latestAadtYear":2024,"latestDhv30":149,"latestKPercent":10,"latestDPercent":null,"latestVolumeCount":1643,"latestVolumeDate":"2024-05-13","extractedAt":"2025-08-01T20:32:32Z"}},{"type":"Feature","geometry":{"type":"Point","coordinates":[-97.666759,32.746727]},"properties":{"locationId":"184CR320","locatedOn":"-","locOnAlias":"","type":"SPOT","category":"URBAN ACR","routeType":"","route":"","active":"Yes","fnctClass":"(7)Local","latestAadt":322,"latestAadtYear":2024,"latestDhv30":40,"latestKPercent":13,"latestDPercent":null,"latestVolumeCount":350,"latestVolumeDate":"2024-05-13","extractedAt":"2025-08-01T20:39:27Z"}},{"type":"Feature","geometry":{"type":"Point","coordinates":[-97.670961,32.739305]},"properties":{"locationId":"184CR321","locatedOn":"-","locOnAlias":"","type":"SPOT","category":"URBAN ACR","routeType":"","route":"","active":"Yes","fnctClass":"(5)Major Collector","latestAadt":846,"latestAadtYear":2024,"latestDhv30":117,"latestKPercent":14,"latestDPercent":null,"latestVolumeCount":862,"latestVolumeDate":"2024-05-13","extractedAt":"2025-08-01T20:39:43Z"}},{"type":"Feature","geometry":{"type":"Point","coordinates":[-97.674234,32.749431]},"properties":{"locationId":"184CR323","locatedOn":"-","locOnAlias":"","type":"SPOT","category":"URBAN ACR","routeType":"","route":"","active":"Yes","fnctClass":"(5)Major Collector","latestAadt":6602,"latestAadtYear":2024,"latestDhv30":565,"latestKPercent":9,"latestDPercent":null,"latestVolumeCount":6673,"latestVolumeDate":"2024-05-13","extractedAt":"2025-08-01T20:40:29Z"}},{"type":"Feature","geometry":{"type":"Point","coordinates":[-97.673487,32.752015]},"properties":{"locationId":"184CR323A","locatedOn":"-","locOnAlias":"","type":"SPOT","category":"URBAN ACR","routeType":"","route":"","active":"Yes","fnctClass":"(7)Local","latestAadt":3264,"latestAadtYear":2024,"latestDhv30":297,"latestKPercent":9,"latestDPercent":null,"latestVolumeCount":3539,"latestVolumeDate":"2024-05-13","extractedAt":"2025-08-01T20:40:44Z"}},{"type":"Feature","geometry":{"type":"Point","coordinates":[-97.686059,32.753216]},"properties":{"locationId":"184CR324","locatedOn":"-","locOnAlias":"","type":"SPOT","category":"URBAN ACR","routeType":"","route":"","active":"Yes","fnctClass":"(7)Local","latestAadt":241,"latestAadtYear":2019,"latestDhv30":31,"latestKPercent":13,"latestDPercent":null,"latestVolumeCount":259,"latestVolumeDate":"2019-05-08","extractedAt":"2025-08-01T20:40:57Z"}},{"type":"Feature","geometry":{"type":"Point","coordinates":[-97.679896,32.74883]},"properties":{"locationId":"184CR332B","locatedOn":"-","locOnAlias":"","type":"SPOT","category":"URBAN ACR","routeType":"","route":"","active":"Yes","fnctClass":"(7)Local","latestAadt":310,"latestAadtYear":2024,"latestDhv30":35,"latestKPercent":11,"latestDPercent":null,"latestVolumeCount":335,"latestVolumeDate":"2024-05-13","extractedAt":"2025-08-01T20:55:24Z"}},{"type":"Feature","geometry":{"type":"Point","coordinates":[-97.647736,32.74085]},"properties":{"locationId":"184CR340","locatedOn":"Meadow Place Dr","locOnAlias":"CR0000","type":"SPOT","category":"URBAN ACR","routeType":"CR","route":"0000","active":"Yes","fnctClass":"(7)Local","latestAadt":823,"latestAadtYear":2024,"latestDhv30":91,"latestKPercent":11,"latestDPercent":null,"latestVolumeCount":893,"latestVolumeDate":"2024-05-13","extractedAt":"2025-08-01T21:11:43Z"}},{"type":"Feature","geometry":{"type":"Point","coordinates":[-97.685584,32.765777]},"properties":{"locationId":"184FS316","locatedOn":"CR0000","locOnAlias":"184AA1172","type":"SPOT","category":"URBAN ACR","routeType":"CR","route":"0000","active":"Yes","fnctClass":"(7)Local","latestAadt":710,"latestAadtYear":2024,"latestDhv30":75,"latestKPercent":11,"latestDPercent":null,"latestVolumeCount":726,"latestVolumeDate":"2024-05-21","extractedAt":"2025-08-02T00:41:55Z"}},{"type":"Feature","geometry":{"type":"Point","coordinates":[-97.650058,32.739426]},"properties":{"locationId":"184H2004","locatedOn":"IH0020","locOnAlias":"IH0020-KG","type":"SPOT","category":"ANNUAL ACR","routeType":"IH","route":"0020","active":"Yes","fnctClass":"(1)Interstate","latestAadt":951248,"latestAadtYear":2024,"latestDhv30":null,"latestKPercent":null,"latestDPercent":null,"latestVolumeCount":null,"latestVolumeDate":null,"extractedAt":"2025-08-02T03:38:09Z"}},{"type":"Feature","geometry":{"type":"Point","coordinates":[-97.650206,32.739037]},"properties":{"locationId":"184H2004EBSR","locatedOn":"IH0020","locOnAlias":"IH0020-AG","type":"SPOT","category":"ANNUAL ACR","routeType":"IH","route":"0020","active":"Yes","fnctClass":"(5)Major Collector","latestAadt":1504,"latestAadtYear":2024,"latestDhv30":131,"latestKPercent":9,"latestDPercent":null,"latestVolumeCount":1534,"latestVolumeDate":"2024-06-04","extractedAt":"2025-08-02T03:38:23Z"}},{"type":"Feature","geometry":{"type":"Point","coordinates":[-97.650502,32.739979]},"properties":{"locationId":"184H2004WBSR","locatedOn":"IH0020","locOnAlias":"IH0020-XG","type":"SPOT","category":"ANNUAL ACR","routeType":"IH","route":"0020","active":"Yes","fnctClass":"(5)Major Collector","latestAadt":9380,"latestAadtYear":2024,"latestDhv30":997,"latestKPercent":11,"latestDPercent":null,"latestVolumeCount":9565,"latestVolumeDate":"2024-06-04","extractedAt":"2025-08-02T03:38:37Z"}},{"type":"Feature","geometry":{"type":"Point","coordinates":[-97.676344,32.764715]},"properties":{"locationId":"184HP8041","locatedOn":"MIKUS RD","locOnAlias":"267319","type":"SPOT","category":"URBAN ACR","routeType":"FC","route":"0000","active":"Yes","fnctClass":"(5)Major Collector","latestAadt":2766,"latestAadtYear":2024,"latestDhv30":296,"latestKPercent":11,"latestDPercent":null,"latestVolumeCount":2892,"latestVolumeDate":"2024-05-21","extractedAt":"2025-08-02T13:00:08Z"}},{"type":"Feature","geometry":{"type":"Point","coordinates":[-97.674516,32.768446]},"properties":{"locationId":"184HP8055","locatedOn":"ELAKE","locOnAlias":"","type":"SPOT","category":"URBAN ACR","routeType":"","route":"","active":"Yes","fnctClass":"(5)Major Collector","latestAadt":2440,"latestAadtYear":2024,"latestDhv30":227,"latestKPercent":9,"latestDPercent":null,"latestVolumeCount":2551,"latestVolumeDate":"2024-05-21","extractedAt":"2025-08-02T13:09:01Z"}}]}