{"type":"FeatureCollection","features":[{"type":"Feature","geometry":{"type":"Point","coordinates":[-97.677097,32.719537]},"properties":{"locationId":"184CR322A","locatedOn":"-","locOnAlias":"","type":"SPOT","category":"URBAN ACR","routeType":"","route":"","active":"Yes","fnctClass":"(7)Local","latestAadt":785,"latestAadtYear":2024,"latestDhv30":71,"latestKPercent":9,"latestDPercent":null,"latestVolumeCount":819,"latestVolumeDate":"2024-05-13","extractedAt":"2025-08-01T20:40:13Z"}},{"type":"Feature","geometry":{"type":"Point","coordinates":[-97.674023,32.705508]},"properties":{"locationId":"184CR67C","locatedOn":"-","locOnAlias":"","type":"SPOT","category":"URBAN ACR","routeType":"","route":"","active":"Yes","fnctClass":"(7)Local","latestAadt":3467,"latestAadtYear":2024,"latestDhv30":368,"latestKPercent":11,"latestDPercent":null,"latestVolumeCount":3617,"latestVolumeDate":"2024-05-13","extractedAt":"2025-08-01T21:27:31Z"}},{"type":"Feature","geometry":{"type":"Point","coordinates":[-97.689846,32.708036]},"properties":{"locationId":"184HP8","locatedOn":"Airport Rd","locOnAlias":"297487","type":"SPOT","category":"ANNUAL ACR","routeType":"FC","route":"0000","active":"Yes","fnctClass":"(6)Minor Collector","latestAadt":11493,"latestAadtYear":2024,"latestDhv30":null,"latestKPercent":null,"latestDPercent":null,"latestVolumeCount":1336,"latestVolumeDate":"2023-07-17","extractedAt":"2025-08-02T12:44:20Z"}},{"type":"Feature","geometry":{"type":"Point","coordinates":[-97.663581,32.729869]},"properties":{"locationId":"184RS204A","locatedOn":"MCDAVID DR","locOnAlias":"184AA0854","type":"SPOT","category":"URBAN ACR","routeType":"CR","route":"854","active":"Yes","fnctClass":"(7)Local","latestAadt":429,"latestAadtYear":2024,"latestDhv30":52,"latestKPercent":12,"latestDPercent":null,"latestVolumeCount":462,"latestVolumeDate":"2024-05-13","extractedAt":"2025-08-02T15:17:10Z"}}]}