{"type":"FeatureCollection","features":[{"type":"Feature","geometry":{"type":"Point","coordinates":[-97.576062,32.882191]},"properties":{"locationId":"184CR29B","locatedOn":"-","locOnAlias":"","type":"SPOT","category":"URBAN ACR","routeType":"","route":"","active":"Yes","fnctClass":"(5)Major Collector","latestAadt":2684,"latestAadtYear":2024,"latestDhv30":395,"latestKPercent":15,"latestDPercent":null,"latestVolumeCount":2812,"latestVolumeDate":"2024-05-21","extractedAt":"2025-08-01T20:14:27Z"}}]}