{"type":"FeatureCollection","features":[{"type":"Feature","geometry":{"type":"Point","coordinates":[-97.571595,32.721054]},"properties":{"locationId":"184DC3020ESF","locatedOn":"IH0020","locOnAlias":"IH0020-KG","type":"SPOT","category":"RAMP","routeType":"IH","route":"0020","active":"Yes","fnctClass":"(1)Interstate","latestAadt":182638,"latestAadtYear":2024,"latestDhv30":null,"latestKPercent":null,"latestDPercent":null,"latestVolumeCount":18496,"latestVolumeDate":"2023-05-17","extractedAt":"2025-08-01T23:51:44Z"}},{"type":"Feature","geometry":{"type":"Point","coordinates":[-97.573585,32.721989]},"properties":{"locationId":"184ML2001EB","locatedOn":"IH0020","locOnAlias":"IH0020-KG","type":"SPOT","category":"RAMP","routeType":"IH","route":"0020","active":"Yes","fnctClass":"(1)Interstate","latestAadt":36199,"latestAadtYear":2024,"latestDhv30":3123,"latestKPercent":9,"latestDPercent":null,"latestVolumeCount":38073,"latestVolumeDate":"2024-04-10","extractedAt":"2025-08-02T13:16:25Z"}},{"type":"Feature","geometry":{"type":"Point","coordinates":[-97.572244,32.721838]},"properties":{"locationId":"184ML2001WB","locatedOn":"IH0020","locOnAlias":"IH0020-KG","type":"SPOT","category":"RAMP","routeType":"IH","route":"0020","active":"Yes","fnctClass":"(1)Interstate","latestAadt":31002,"latestAadtYear":2024,"latestDhv30":3071,"latestKPercent":10,"latestDPercent":null,"latestVolumeCount":32223,"latestVolumeDate":"2024-04-10","extractedAt":"2025-08-02T13:16:40Z"}},{"type":"Feature","geometry":{"type":"Point","coordinates":[-97.572445,32.72166]},"properties":{"locationId":"184ML301X","locatedOn":"IH0030","locOnAlias":"IH0030-KG","type":"SPOT","category":"INACTIVE","routeType":"IH","route":"0030","active":"No","fnctClass":"(1)Interstate","latestAadt":339718,"latestAadtYear":2019,"latestDhv30":null,"latestKPercent":null,"latestDPercent":null,"latestVolumeCount":null,"latestVolumeDate":null,"extractedAt":"2025-08-02T13:16:56Z"}},{"type":"Feature","geometry":{"type":"Point","coordinates":[-97.572191,32.721298]},"properties":{"locationId":"184RP2039","locatedOn":"IH0020","locOnAlias":"","type":"SPOT","category":"INACTIVE","routeType":"","route":"","active":"No","fnctClass":"(1)Interstate","latestAadt":158869,"latestAadtYear":2019,"latestDhv30":null,"latestKPercent":null,"latestDPercent":null,"latestVolumeCount":18182,"latestVolumeDate":"2015-08-19","extractedAt":"2025-08-02T14:09:54Z"}}]}