{"type":"FeatureCollection","features":[{"type":"Feature","geometry":{"type":"Point","coordinates":[-97.797179,32.742408]},"properties":{"locationId":"184HP8034","locatedOn":"E Park Ave","locOnAlias":"250325","type":"SPOT","category":"URBAN ACR","routeType":"FC","route":"0000","active":"Yes","fnctClass":"(4)Minor Arterial","latestAadt":4493,"latestAadtYear":2024,"latestDhv30":422,"latestKPercent":9,"latestDPercent":null,"latestVolumeCount":5076,"latestVolumeDate":"2024-05-08","extractedAt":"2025-08-02T12:53:01Z"}}]}