{"type":"FeatureCollection","features":[{"type":"Feature","geometry":{"type":"Point","coordinates":[-97.79984,32.735232]},"properties":{"locationId":"184HP8001","locatedOn":"Tin Top","locOnAlias":"250317","type":"SPOT","category":"URBAN ACR","routeType":"FC","route":"0000","active":"Yes","fnctClass":"(5)Major Collector","latestAadt":5978,"latestAadtYear":2024,"latestDhv30":null,"latestKPercent":null,"latestDPercent":null,"latestVolumeCount":5970,"latestVolumeDate":"2019-05-06","extractedAt":"2025-08-02T12:44:34Z"}},{"type":"Feature","geometry":{"type":"Point","coordinates":[-97.790166,32.734805]},"properties":{"locationId":"184HP8052","locatedOn":"MARTIN","locOnAlias":"","type":"SPOT","category":"URBAN ACR","routeType":"","route":"","active":"Yes","fnctClass":"(4)Minor Arterial","latestAadt":5477,"latestAadtYear":2019,"latestDhv30":637,"latestKPercent":12,"latestDPercent":null,"latestVolumeCount":6753,"latestVolumeDate":"2019-05-06","extractedAt":"2025-08-02T13:08:14Z"}},{"type":"Feature","geometry":{"type":"Point","coordinates":[-97.792001,32.732371]},"properties":{"locationId":"184T8A","locatedOn":"SH0171","locOnAlias":"SH0171-KG","type":"SPOT","category":"ANNUAL ACR","routeType":"SH","route":"0171","active":"Yes","fnctClass":"(3)Principal Arterial-Other","latestAadt":24481,"latestAadtYear":2024,"latestDhv30":2282,"latestKPercent":9,"latestDPercent":53,"latestVolumeCount":26984,"latestVolumeDate":"2024-05-22","extractedAt":"2025-08-02T15:51:04Z"}}]}