{"type":"FeatureCollection","features":[{"type":"Feature","geometry":{"type":"Point","coordinates":[-97.797975,32.76979]},"properties":{"locationId":"184HP8004","locatedOn":"1st St","locOnAlias":"1250784","type":"SPOT","category":"URBAN ACR","routeType":"LS","route":"0000","active":"Yes","fnctClass":"(7)Local","latestAadt":723,"latestAadtYear":2014,"latestDhv30":68,"latestKPercent":9,"latestDPercent":null,"latestVolumeCount":753,"latestVolumeDate":"2014-04-23","extractedAt":"2025-08-02T12:45:05Z"}},{"type":"Feature","geometry":{"type":"Point","coordinates":[-97.791781,32.769734]},"properties":{"locationId":"184HP8005","locatedOn":"1st St","locOnAlias":"1250459","type":"SPOT","category":"URBAN ACR","routeType":"LS","route":"0000","active":"Yes","fnctClass":"(7)Local","latestAadt":511,"latestAadtYear":2024,"latestDhv30":43,"latestKPercent":9,"latestDPercent":null,"latestVolumeCount":501,"latestVolumeDate":"2024-05-21","extractedAt":"2025-08-02T12:45:19Z"}},{"type":"Feature","geometry":{"type":"Point","coordinates":[-97.796604,32.773742]},"properties":{"locationId":"184HP8044","locatedOn":"E 4th St","locOnAlias":"267483","type":"SPOT","category":"URBAN ACR","routeType":"FC","route":"0000","active":"Yes","fnctClass":"(5)Major Collector","latestAadt":1910,"latestAadtYear":2009,"latestDhv30":null,"latestKPercent":null,"latestDPercent":null,"latestVolumeCount":null,"latestVolumeDate":null,"extractedAt":"2025-08-02T13:00:57Z"}},{"type":"Feature","geometry":{"type":"Point","coordinates":[-97.79728,32.773109]},"properties":{"locationId":"184T2","locatedOn":"FM0051","locOnAlias":"FM0051-KG","type":"SPOT","category":"ANNUAL ACR","routeType":"FM","route":"0051","active":"Yes","fnctClass":"(4)Minor Arterial","latestAadt":20222,"latestAadtYear":2024,"latestDhv30":1674,"latestKPercent":8,"latestDPercent":68,"latestVolumeCount":21976,"latestVolumeDate":"2024-05-22","extractedAt":"2025-08-02T15:35:08Z"}},{"type":"Feature","geometry":{"type":"Point","coordinates":[-97.797815,32.773757]},"properties":{"locationId":"184T3","locatedOn":"FM0920","locOnAlias":"FM0920-KG","type":"SPOT","category":"ANNUAL ACR","routeType":"FM","route":"0920","active":"Yes","fnctClass":"(5)Major Collector","latestAadt":9549,"latestAadtYear":2024,"latestDhv30":760,"latestKPercent":8,"latestDPercent":null,"latestVolumeCount":10300,"latestVolumeDate":"2024-05-22","extractedAt":"2025-08-02T15:43:09Z"}},{"type":"Feature","geometry":{"type":"Point","coordinates":[-97.797271,32.774201]},"properties":{"locationId":"184T4","locatedOn":"FM0051","locOnAlias":"FM0051-KG","type":"SPOT","category":"ANNUAL ACR","routeType":"FM","route":"0051","active":"Yes","fnctClass":"(4)Minor Arterial","latestAadt":12867,"latestAadtYear":2024,"latestDhv30":1163,"latestKPercent":9,"latestDPercent":58,"latestVolumeCount":13995,"latestVolumeDate":"2024-05-22","extractedAt":"2025-08-02T15:49:35Z"}}]}