{"type":"FeatureCollection","features":[{"type":"Feature","geometry":{"type":"Point","coordinates":[-97.797863,32.725584]},"properties":{"locationId":"184HP8001A","locatedOn":"Tin Top","locOnAlias":"250317","type":"SPOT","category":"URBAN ACR","routeType":"FC","route":"0000","active":"Yes","fnctClass":"(5)Major Collector","latestAadt":5536,"latestAadtYear":2024,"latestDhv30":556,"latestKPercent":10,"latestDPercent":null,"latestVolumeCount":5833,"latestVolumeDate":"2024-05-15","extractedAt":"2025-08-02T12:44:50Z"}},{"type":"Feature","geometry":{"type":"Point","coordinates":[-97.789864,32.729087]},"properties":{"locationId":"184PT4","locatedOn":"IH0020","locOnAlias":"IH0020-AG","type":"SPOT","category":"ANNUAL ACR","routeType":"IH","route":"0020","active":"Yes","fnctClass":"(5)Major Collector","latestAadt":14463,"latestAadtYear":2024,"latestDhv30":null,"latestKPercent":null,"latestDPercent":null,"latestVolumeCount":1551,"latestVolumeDate":"2023-07-19","extractedAt":"2025-08-02T13:24:28Z"}},{"type":"Feature","geometry":{"type":"Point","coordinates":[-97.78948,32.72987]},"properties":{"locationId":"184PT5","locatedOn":"IH0020","locOnAlias":"IH0020-XG","type":"SPOT","category":"ANNUAL ACR","routeType":"IH","route":"0020","active":"Yes","fnctClass":"(5)Major Collector","latestAadt":4330,"latestAadtYear":2024,"latestDhv30":389,"latestKPercent":9,"latestDPercent":null,"latestVolumeCount":4455,"latestVolumeDate":"2024-05-13","extractedAt":"2025-08-02T13:24:43Z"}},{"type":"Feature","geometry":{"type":"Point","coordinates":[-97.793422,32.728213]},"properties":{"locationId":"184RP2011","locatedOn":"IH0020","locOnAlias":"","type":"SPOT","category":"RAMP","routeType":"","route":"","active":"Yes","fnctClass":"(1)Interstate","latestAadt":46008,"latestAadtYear":2024,"latestDhv30":420,"latestKPercent":9,"latestDPercent":null,"latestVolumeCount":5481,"latestVolumeDate":"2024-04-10","extractedAt":"2025-08-02T13:40:13Z"}},{"type":"Feature","geometry":{"type":"Point","coordinates":[-97.792626,32.728952]},"properties":{"locationId":"184RP2012","locatedOn":"IH0020","locOnAlias":"","type":"SPOT","category":"RAMP","routeType":"","route":"","active":"Yes","fnctClass":"(1)Interstate","latestAadt":45378,"latestAadtYear":2024,"latestDhv30":360,"latestKPercent":8,"latestDPercent":null,"latestVolumeCount":4799,"latestVolumeDate":"2024-04-10","extractedAt":"2025-08-02T13:46:39Z"}}]}