{"type":"FeatureCollection","features":[{"type":"Feature","geometry":{"type":"Point","coordinates":[-97.791813,32.758731]},"properties":{"locationId":"184D5AEBSR","locatedOn":"US0180","locOnAlias":"US0180-AG","type":"SPOT","category":"ANNUAL ACR","routeType":"US","route":"0180","active":"Yes","fnctClass":"(7)Local","latestAadt":120,"latestAadtYear":2024,"latestDhv30":14,"latestKPercent":12,"latestDPercent":null,"latestVolumeCount":131,"latestVolumeDate":"2024-05-13","extractedAt":"2025-08-01T23:43:53Z"}},{"type":"Feature","geometry":{"type":"Point","coordinates":[-97.791813,32.759004]},"properties":{"locationId":"184D5AWBSR","locatedOn":"US0180","locOnAlias":"US0180-XG","type":"SPOT","category":"ANNUAL ACR","routeType":"US","route":"0180","active":"Yes","fnctClass":"(7)Local","latestAadt":101,"latestAadtYear":2024,"latestDhv30":11,"latestKPercent":11,"latestDPercent":null,"latestVolumeCount":110,"latestVolumeDate":"2024-05-13","extractedAt":"2025-08-01T23:49:29Z"}},{"type":"Feature","geometry":{"type":"Point","coordinates":[-97.797107,32.754665]},"properties":{"locationId":"184HP8039","locatedOn":"Lee Ave","locOnAlias":"267482","type":"SPOT","category":"URBAN ACR","routeType":"FC","route":"0000","active":"Yes","fnctClass":"(5)Major Collector","latestAadt":2666,"latestAadtYear":2024,"latestDhv30":257,"latestKPercent":10,"latestDPercent":null,"latestVolumeCount":2799,"latestVolumeDate":"2024-05-21","extractedAt":"2025-08-02T12:59:42Z"}},{"type":"Feature","geometry":{"type":"Point","coordinates":[-97.7955,32.757873]},"properties":{"locationId":"184HP8060","locatedOn":"ELM ST","locOnAlias":"267484","type":"SPOT","category":"URBAN ACR","routeType":"CS","route":"267484","active":"Yes","fnctClass":"(5)Major Collector","latestAadt":1696,"latestAadtYear":2024,"latestDhv30":164,"latestKPercent":10,"latestDPercent":null,"latestVolumeCount":1851,"latestVolumeDate":"2024-05-21","extractedAt":"2025-08-02T13:15:38Z"}},{"type":"Feature","geometry":{"type":"Point","coordinates":[-97.795784,32.75894]},"properties":{"locationId":"184T5","locatedOn":"US0180","locOnAlias":"US0180-KG","type":"SPOT","category":"ANNUAL ACR","routeType":"US","route":"0180","active":"Yes","fnctClass":"(3)Principal Arterial-Other","latestAadt":144943,"latestAadtYear":2024,"latestDhv30":null,"latestKPercent":null,"latestDPercent":null,"latestVolumeCount":15586,"latestVolumeDate":"2023-07-19","extractedAt":"2025-08-02T15:49:49Z"}},{"type":"Feature","geometry":{"type":"Point","coordinates":[-97.792826,32.758357]},"properties":{"locationId":"184T7","locatedOn":"FM2552","locOnAlias":"FM2552-KG","type":"SPOT","category":"ANNUAL ACR","routeType":"FM","route":"2552","active":"Yes","fnctClass":"(4)Minor Arterial","latestAadt":10148,"latestAadtYear":2024,"latestDhv30":910,"latestKPercent":9,"latestDPercent":51,"latestVolumeCount":11786,"latestVolumeDate":"2024-05-22","extractedAt":"2025-08-02T15:50:21Z"}},{"type":"Feature","geometry":{"type":"Point","coordinates":[-97.79739,32.757948]},"properties":{"locationId":"184T8","locatedOn":"SH0171","locOnAlias":"SH0171-KG","type":"SPOT","category":"ANNUAL ACR","routeType":"SH","route":"0171","active":"Yes","fnctClass":"(3)Principal Arterial-Other","latestAadt":16640,"latestAadtYear":2024,"latestDhv30":1379,"latestKPercent":8,"latestDPercent":53,"latestVolumeCount":18291,"latestVolumeDate":"2024-05-22","extractedAt":"2025-08-02T15:50:49Z"}},{"type":"Feature","geometry":{"type":"Point","coordinates":[-97.798786,32.758988]},"properties":{"locationId":"184T9","locatedOn":"US0180","locOnAlias":"US0180-KG","type":"SPOT","category":"ANNUAL ACR","routeType":"US","route":"0180","active":"Yes","fnctClass":"(3)Principal Arterial-Other","latestAadt":15349,"latestAadtYear":2024,"latestDhv30":1409,"latestKPercent":9,"latestDPercent":55,"latestVolumeCount":16324,"latestVolumeDate":"2024-05-13","extractedAt":"2025-08-02T15:57:00Z"}}]}