{"type":"FeatureCollection","features":[{"type":"Feature","geometry":{"type":"Point","coordinates":[-97.828602,32.764054]},"properties":{"locationId":"184CR336","locatedOn":"-","locOnAlias":"","type":"SPOT","category":"URBAN ACR","routeType":"","route":"","active":"Yes","fnctClass":"(7)Local","latestAadt":937,"latestAadtYear":2024,"latestDhv30":107,"latestKPercent":11,"latestDPercent":null,"latestVolumeCount":935,"latestVolumeDate":"2024-05-08","extractedAt":"2025-08-01T20:56:37Z"}},{"type":"Feature","geometry":{"type":"Point","coordinates":[-97.822881,32.760947]},"properties":{"locationId":"184HP8031","locatedOn":"Garner Rd","locOnAlias":"296523","type":"SPOT","category":"URBAN ACR","routeType":"FC","route":"0000","active":"Yes","fnctClass":"(6)Minor Collector","latestAadt":1765,"latestAadtYear":2019,"latestDhv30":192,"latestKPercent":11,"latestDPercent":null,"latestVolumeCount":1936,"latestVolumeDate":"2019-05-06","extractedAt":"2025-08-02T12:52:31Z"}}]}