{"type":"FeatureCollection","features":[{"type":"Feature","geometry":{"type":"Point","coordinates":[-97.600786,32.903515]},"properties":{"locationId":"184CR16A","locatedOn":"-","locOnAlias":"","type":"SPOT","category":"INACTIVE","routeType":"","route":"","active":"No","fnctClass":"(5)Major Collector","latestAadt":1871,"latestAadtYear":2019,"latestDhv30":279,"latestKPercent":15,"latestDPercent":null,"latestVolumeCount":2290,"latestVolumeDate":"2019-05-13","extractedAt":"2025-08-01T19:17:23Z"}},{"type":"Feature","geometry":{"type":"Point","coordinates":[-97.622098,32.896564]},"properties":{"locationId":"184CR17A","locatedOn":"-","locOnAlias":"","type":"SPOT","category":"URBAN ACR","routeType":"","route":"","active":"Yes","fnctClass":"(7)Local","latestAadt":801,"latestAadtYear":2024,"latestDhv30":74,"latestKPercent":9,"latestDPercent":null,"latestVolumeCount":801,"latestVolumeDate":"2024-05-21","extractedAt":"2025-08-01T19:35:04Z"}},{"type":"Feature","geometry":{"type":"Point","coordinates":[-97.634229,32.900799]},"properties":{"locationId":"184CR17B","locatedOn":"-","locOnAlias":"","type":"SPOT","category":"URBAN ACR","routeType":"","route":"","active":"Yes","fnctClass":"(7)Local","latestAadt":350,"latestAadtYear":2024,"latestDhv30":36,"latestKPercent":10,"latestDPercent":null,"latestVolumeCount":351,"latestVolumeDate":"2024-05-21","extractedAt":"2025-08-01T19:35:21Z"}},{"type":"Feature","geometry":{"type":"Point","coordinates":[-97.599769,32.914434]},"properties":{"locationId":"184CR27","locatedOn":"-","locOnAlias":"","type":"SPOT","category":"URBAN ACR","routeType":"","route":"","active":"Yes","fnctClass":"(5)Major Collector","latestAadt":2816,"latestAadtYear":2019,"latestDhv30":412,"latestKPercent":15,"latestDPercent":null,"latestVolumeCount":3446,"latestVolumeDate":"2019-05-13","extractedAt":"2025-08-01T20:07:47Z"}},{"type":"Feature","geometry":{"type":"Point","coordinates":[-97.57827,32.910597]},"properties":{"locationId":"184CR28","locatedOn":"-","locOnAlias":"","type":"SPOT","category":"URBAN ACR","routeType":"","route":"","active":"Yes","fnctClass":"(7)Local","latestAadt":524,"latestAadtYear":2024,"latestDhv30":59,"latestKPercent":11,"latestDPercent":null,"latestVolumeCount":511,"latestVolumeDate":"2024-05-22","extractedAt":"2025-08-01T20:08:17Z"}},{"type":"Feature","geometry":{"type":"Point","coordinates":[-97.584166,32.910767]},"properties":{"locationId":"184CR28A","locatedOn":"-","locOnAlias":"","type":"SPOT","category":"URBAN ACR","routeType":"","route":"","active":"Yes","fnctClass":"(7)Local","latestAadt":445,"latestAadtYear":2024,"latestDhv30":46,"latestKPercent":10,"latestDPercent":null,"latestVolumeCount":439,"latestVolumeDate":"2024-05-22","extractedAt":"2025-08-01T20:13:54Z"}},{"type":"Feature","geometry":{"type":"Point","coordinates":[-97.576062,32.882191]},"properties":{"locationId":"184CR29B","locatedOn":"-","locOnAlias":"","type":"SPOT","category":"URBAN ACR","routeType":"","route":"","active":"Yes","fnctClass":"(5)Major Collector","latestAadt":2684,"latestAadtYear":2024,"latestDhv30":395,"latestKPercent":15,"latestDPercent":null,"latestVolumeCount":2812,"latestVolumeDate":"2024-05-21","extractedAt":"2025-08-01T20:14:27Z"}},{"type":"Feature","geometry":{"type":"Point","coordinates":[-97.595753,32.879164]},"properties":{"locationId":"184CR31A","locatedOn":"-","locOnAlias":"","type":"SPOT","category":"URBAN ACR","routeType":"","route":"","active":"Yes","fnctClass":"(5)Major Collector","latestAadt":3485,"latestAadtYear":2024,"latestDhv30":337,"latestKPercent":10,"latestDPercent":null,"latestVolumeCount":3653,"latestVolumeDate":"2024-05-21","extractedAt":"2025-08-01T20:33:01Z"}},{"type":"Feature","geometry":{"type":"Point","coordinates":[-97.623416,32.877469]},"properties":{"locationId":"184CR31B","locatedOn":"-","locOnAlias":"","type":"SPOT","category":"URBAN ACR","routeType":"","route":"","active":"Yes","fnctClass":"(6)Minor Collector","latestAadt":2945,"latestAadtYear":2024,"latestDhv30":290,"latestKPercent":10,"latestDPercent":null,"latestVolumeCount":2914,"latestVolumeDate":"2024-05-21","extractedAt":"2025-08-01T20:38:42Z"}},{"type":"Feature","geometry":{"type":"Point","coordinates":[-97.581849,32.87741]},"properties":{"locationId":"184CR32","locatedOn":"-","locOnAlias":"","type":"SPOT","category":"URBAN ACR","routeType":"","route":"","active":"Yes","fnctClass":"(7)Local","latestAadt":2664,"latestAadtYear":2024,"latestDhv30":284,"latestKPercent":11,"latestDPercent":null,"latestVolumeCount":2679,"latestVolumeDate":"2024-05-21","extractedAt":"2025-08-01T20:39:13Z"}},{"type":"Feature","geometry":{"type":"Point","coordinates":[-97.59417,32.866956]},"properties":{"locationId":"184CR33","locatedOn":"-","locOnAlias":"","type":"SPOT","category":"URBAN ACR","routeType":"","route":"","active":"Yes","fnctClass":"(5)Major Collector","latestAadt":5933,"latestAadtYear":2024,"latestDhv30":550,"latestKPercent":9,"latestDPercent":null,"latestVolumeCount":6214,"latestVolumeDate":"2024-05-21","extractedAt":"2025-08-01T20:54:36Z"}},{"type":"Feature","geometry":{"type":"Point","coordinates":[-97.572007,32.869618]},"properties":{"locationId":"184CR33B","locatedOn":"-","locOnAlias":"","type":"SPOT","category":"INACTIVE","routeType":"","route":"","active":"No","fnctClass":"(7)Local","latestAadt":1197,"latestAadtYear":2019,"latestDhv30":140,"latestKPercent":12,"latestDPercent":null,"latestVolumeCount":1269,"latestVolumeDate":"2019-05-13","extractedAt":"2025-08-01T21:11:15Z"}},{"type":"Feature","geometry":{"type":"Point","coordinates":[-97.59663,32.869517]},"properties":{"locationId":"184E29A","locatedOn":"FM0730","locOnAlias":"FM0730-KG","type":"SPOT","category":"ANNUAL ACR","routeType":"FM","route":"0730","active":"Yes","fnctClass":"(5)Major Collector","latestAadt":7511,"latestAadtYear":2024,"latestDhv30":571,"latestKPercent":8,"latestDPercent":null,"latestVolumeCount":7259,"latestVolumeDate":"2024-07-08","extractedAt":"2025-08-01T23:58:06Z"}},{"type":"Feature","geometry":{"type":"Point","coordinates":[-97.604058,32.891067]},"properties":{"locationId":"184RS3","locatedOn":"NAFOREST TRAIL","locOnAlias":"","type":"SPOT","category":"URBAN ACR","routeType":"","route":"","active":"Yes","fnctClass":"(7)Local","latestAadt":39,"latestAadtYear":2024,"latestDhv30":5,"latestKPercent":15,"latestDPercent":null,"latestVolumeCount":39,"latestVolumeDate":"2024-05-21","extractedAt":"2025-08-02T15:19:24Z"}},{"type":"Feature","geometry":{"type":"Point","coordinates":[-97.565384,32.891752]},"properties":{"locationId":"184U11","locatedOn":"FM0730","locOnAlias":"FM0730-KG","type":"SPOT","category":"URBAN ACR","routeType":"FM","route":"730","active":"Yes","fnctClass":"(5)Major Collector","latestAadt":13580,"latestAadtYear":2024,"latestDhv30":1259,"latestKPercent":9,"latestDPercent":null,"latestVolumeCount":14793,"latestVolumeDate":"2024-05-21","extractedAt":"2025-08-02T15:57:45Z"}},{"type":"Feature","geometry":{"type":"Point","coordinates":[-97.559327,32.904466]},"properties":{"locationId":"184U3575WBSR","locatedOn":"SH0199","locOnAlias":"SH0199-XG","type":"SPOT","category":"INACTIVE","routeType":"SH","route":"0199","active":"No","fnctClass":"(5)Major Collector","latestAadt":2541,"latestAadtYear":2020,"latestDhv30":303,"latestKPercent":12,"latestDPercent":null,"latestVolumeCount":2987,"latestVolumeDate":"2020-08-24","extractedAt":"2025-08-02T16:05:51Z"}}]}