{"type":"FeatureCollection","features":[{"type":"Feature","geometry":{"type":"Point","coordinates":[-97.643938,32.739167]},"properties":{"locationId":"184CR318B","locatedOn":"-","locOnAlias":"","type":"SPOT","category":"URBAN ACR","routeType":"","route":"","active":"Yes","fnctClass":"(7)Local","latestAadt":1089,"latestAadtYear":2024,"latestDhv30":131,"latestKPercent":12,"latestDPercent":null,"latestVolumeCount":1183,"latestVolumeDate":"2024-05-13","extractedAt":"2025-08-01T20:32:47Z"}},{"type":"Feature","geometry":{"type":"Point","coordinates":[-97.605021,32.716497]},"properties":{"locationId":"184CR40","locatedOn":"Bankhead Highway","locOnAlias":"184AA0879","type":"SPOT","category":"URBAN ACR","routeType":"CR","route":"0000","active":"Yes","fnctClass":"(5)Major Collector","latestAadt":8008,"latestAadtYear":2024,"latestDhv30":787,"latestKPercent":10,"latestDPercent":null,"latestVolumeCount":8072,"latestVolumeDate":"2024-05-13","extractedAt":"2025-08-01T21:19:16Z"}},{"type":"Feature","geometry":{"type":"Point","coordinates":[-97.615959,32.701939]},"properties":{"locationId":"184CR40A","locatedOn":"-","locOnAlias":"","type":"SPOT","category":"URBAN ACR","routeType":"","route":"","active":"Yes","fnctClass":"(7)Local","latestAadt":1248,"latestAadtYear":2024,"latestDhv30":215,"latestKPercent":17,"latestDPercent":null,"latestVolumeCount":1285,"latestVolumeDate":"2024-05-13","extractedAt":"2025-08-01T21:19:30Z"}},{"type":"Feature","geometry":{"type":"Point","coordinates":[-97.633446,32.733027]},"properties":{"locationId":"184CR67A","locatedOn":"-","locOnAlias":"","type":"SPOT","category":"URBAN ACR","routeType":"","route":"","active":"Yes","fnctClass":"(5)Major Collector","latestAadt":11496,"latestAadtYear":2024,"latestDhv30":985,"latestKPercent":9,"latestDPercent":60,"latestVolumeCount":11585,"latestVolumeDate":"2024-05-13","extractedAt":"2025-08-01T21:27:02Z"}},{"type":"Feature","geometry":{"type":"Point","coordinates":[-97.632399,32.735605]},"properties":{"locationId":"184CR67B","locatedOn":"-","locOnAlias":"","type":"SPOT","category":"URBAN ACR","routeType":"","route":"","active":"Yes","fnctClass":"(5)Major Collector","latestAadt":7532,"latestAadtYear":2024,"latestDhv30":694,"latestKPercent":9,"latestDPercent":null,"latestVolumeCount":7604,"latestVolumeDate":"2024-05-13","extractedAt":"2025-08-01T21:27:15Z"}},{"type":"Feature","geometry":{"type":"Point","coordinates":[-97.568954,32.722168]},"properties":{"locationId":"184D6AWBSR","locatedOn":"IH0020","locOnAlias":"IH0020-XG","type":"SPOT","category":"ANNUAL ACR","routeType":"IH","route":"0020","active":"Yes","fnctClass":"(5)Major Collector","latestAadt":3963,"latestAadtYear":2024,"latestDhv30":null,"latestKPercent":null,"latestDPercent":null,"latestVolumeCount":409,"latestVolumeDate":"2023-07-19","extractedAt":"2025-08-01T23:50:00Z"}},{"type":"Feature","geometry":{"type":"Point","coordinates":[-97.569143,32.72161]},"properties":{"locationId":"184DC2030NWF","locatedOn":"IH0020","locOnAlias":"IH0020-KG","type":"SPOT","category":"RAMP","routeType":"IH","route":"0020","active":"Yes","fnctClass":"(1)Interstate","latestAadt":18524,"latestAadtYear":2024,"latestDhv30":1773,"latestKPercent":10,"latestDPercent":null,"latestVolumeCount":19267,"latestVolumeDate":"2024-04-10","extractedAt":"2025-08-01T23:51:30Z"}},{"type":"Feature","geometry":{"type":"Point","coordinates":[-97.571595,32.721054]},"properties":{"locationId":"184DC3020ESF","locatedOn":"IH0020","locOnAlias":"IH0020-KG","type":"SPOT","category":"RAMP","routeType":"IH","route":"0020","active":"Yes","fnctClass":"(1)Interstate","latestAadt":182638,"latestAadtYear":2024,"latestDhv30":null,"latestKPercent":null,"latestDPercent":null,"latestVolumeCount":18496,"latestVolumeDate":"2023-05-17","extractedAt":"2025-08-01T23:51:44Z"}},{"type":"Feature","geometry":{"type":"Point","coordinates":[-97.632163,32.727426]},"properties":{"locationId":"184HP8050","locatedOn":"EBANKHEAD","locOnAlias":"","type":"SPOT","category":"URBAN ACR","routeType":"","route":"","active":"Yes","fnctClass":"(5)Major Collector","latestAadt":9773,"latestAadtYear":2024,"latestDhv30":959,"latestKPercent":10,"latestDPercent":null,"latestVolumeCount":9846,"latestVolumeDate":"2024-05-13","extractedAt":"2025-08-02T13:07:44Z"}},{"type":"Feature","geometry":{"type":"Point","coordinates":[-97.573585,32.721989]},"properties":{"locationId":"184ML2001EB","locatedOn":"IH0020","locOnAlias":"IH0020-KG","type":"SPOT","category":"RAMP","routeType":"IH","route":"0020","active":"Yes","fnctClass":"(1)Interstate","latestAadt":36199,"latestAadtYear":2024,"latestDhv30":3123,"latestKPercent":9,"latestDPercent":null,"latestVolumeCount":38073,"latestVolumeDate":"2024-04-10","extractedAt":"2025-08-02T13:16:25Z"}},{"type":"Feature","geometry":{"type":"Point","coordinates":[-97.572244,32.721838]},"properties":{"locationId":"184ML2001WB","locatedOn":"IH0020","locOnAlias":"IH0020-KG","type":"SPOT","category":"RAMP","routeType":"IH","route":"0020","active":"Yes","fnctClass":"(1)Interstate","latestAadt":31002,"latestAadtYear":2024,"latestDhv30":3071,"latestKPercent":10,"latestDPercent":null,"latestVolumeCount":32223,"latestVolumeDate":"2024-04-10","extractedAt":"2025-08-02T13:16:40Z"}},{"type":"Feature","geometry":{"type":"Point","coordinates":[-97.636863,32.735298]},"properties":{"locationId":"184RP2031","locatedOn":"IH0020","locOnAlias":"","type":"SPOT","category":"RAMP","routeType":"","route":"","active":"Yes","fnctClass":"(1)Interstate","latestAadt":69888,"latestAadtYear":2024,"latestDhv30":631,"latestKPercent":9,"latestDPercent":null,"latestVolumeCount":7432,"latestVolumeDate":"2024-12-11","extractedAt":"2025-08-02T14:07:59Z"}},{"type":"Feature","geometry":{"type":"Point","coordinates":[-97.635902,32.735709]},"properties":{"locationId":"184RP2032","locatedOn":"IH0020","locOnAlias":"","type":"SPOT","category":"RAMP","routeType":"","route":"","active":"Yes","fnctClass":"(1)Interstate","latestAadt":54388,"latestAadtYear":2024,"latestDhv30":495,"latestKPercent":9,"latestDPercent":null,"latestVolumeCount":5082,"latestVolumeDate":"2024-04-10","extractedAt":"2025-08-02T14:08:13Z"}},{"type":"Feature","geometry":{"type":"Point","coordinates":[-97.629659,32.73336]},"properties":{"locationId":"184RP2033","locatedOn":"IH0020","locOnAlias":"","type":"SPOT","category":"RAMP","routeType":"","route":"","active":"Yes","fnctClass":"(1)Interstate","latestAadt":57708,"latestAadtYear":2024,"latestDhv30":669,"latestKPercent":12,"latestDPercent":null,"latestVolumeCount":5772,"latestVolumeDate":"2024-12-11","extractedAt":"2025-08-02T14:08:26Z"}},{"type":"Feature","geometry":{"type":"Point","coordinates":[-97.629435,32.733848]},"properties":{"locationId":"184RP2034","locatedOn":"IH0020","locOnAlias":"","type":"SPOT","category":"RAMP","routeType":"","route":"","active":"Yes","fnctClass":"(1)Interstate","latestAadt":74108,"latestAadtYear":2024,"latestDhv30":858,"latestKPercent":12,"latestDPercent":null,"latestVolumeCount":7720,"latestVolumeDate":"2024-04-10","extractedAt":"2025-08-02T14:08:40Z"}},{"type":"Feature","geometry":{"type":"Point","coordinates":[-97.606036,32.72924]},"properties":{"locationId":"184RP2035","locatedOn":"IH0020","locOnAlias":"","type":"SPOT","category":"RAMP","routeType":"","route":"","active":"Yes","fnctClass":"(1)Interstate","latestAadt":5877,"latestAadtYear":2024,"latestDhv30":513,"latestKPercent":9,"latestDPercent":null,"latestVolumeCount":6153,"latestVolumeDate":"2024-04-10","extractedAt":"2025-08-02T14:08:55Z"}},{"type":"Feature","geometry":{"type":"Point","coordinates":[-97.60418,32.729705]},"properties":{"locationId":"184RP2036","locatedOn":"IH0020","locOnAlias":"","type":"SPOT","category":"RAMP","routeType":"","route":"","active":"Yes","fnctClass":"(1)Interstate","latestAadt":5721,"latestAadtYear":2024,"latestDhv30":522,"latestKPercent":9,"latestDPercent":null,"latestVolumeCount":5954,"latestVolumeDate":"2024-04-10","extractedAt":"2025-08-02T14:09:09Z"}},{"type":"Feature","geometry":{"type":"Point","coordinates":[-97.595623,32.728051]},"properties":{"locationId":"184RP2037","locatedOn":"IH0020","locOnAlias":"","type":"SPOT","category":"RAMP","routeType":"","route":"","active":"Yes","fnctClass":"(1)Interstate","latestAadt":10271,"latestAadtYear":2024,"latestDhv30":1052,"latestKPercent":10,"latestDPercent":null,"latestVolumeCount":10799,"latestVolumeDate":"2024-04-10","extractedAt":"2025-08-02T14:09:24Z"}},{"type":"Feature","geometry":{"type":"Point","coordinates":[-97.593142,32.728411]},"properties":{"locationId":"184RP2038","locatedOn":"IH0020","locOnAlias":"","type":"SPOT","category":"RAMP","routeType":"","route":"","active":"Yes","fnctClass":"(1)Interstate","latestAadt":10306,"latestAadtYear":2024,"latestDhv30":1457,"latestKPercent":14,"latestDPercent":null,"latestVolumeCount":10715,"latestVolumeDate":"2024-04-10","extractedAt":"2025-08-02T14:09:39Z"}},{"type":"Feature","geometry":{"type":"Point","coordinates":[-97.578036,32.724363]},"properties":{"locationId":"184RP2040","locatedOn":"IH0020","locOnAlias":"","type":"SPOT","category":"RAMP","routeType":"","route":"","active":"Yes","fnctClass":"(1)Interstate","latestAadt":203508,"latestAadtYear":2024,"latestDhv30":2502,"latestKPercent":12,"latestDPercent":null,"latestVolumeCount":25727,"latestVolumeDate":"2024-05-01","extractedAt":"2025-08-02T14:15:47Z"}},{"type":"Feature","geometry":{"type":"Point","coordinates":[-97.56869,32.721861]},"properties":{"locationId":"184RP2040A","locatedOn":"IH0030","locOnAlias":"IH0030-XG","type":"SPOT","category":"RAMP","routeType":"IH","route":"0030","active":"Yes","fnctClass":"(5)Major Collector","latestAadt":1082,"latestAadtYear":2024,"latestDhv30":143,"latestKPercent":13,"latestDPercent":null,"latestVolumeCount":1164,"latestVolumeDate":"2024-04-10","extractedAt":"2025-08-02T14:16:01Z"}},{"type":"Feature","geometry":{"type":"Point","coordinates":[-97.569092,32.720844]},"properties":{"locationId":"184RP301","locatedOn":"IH0030","locOnAlias":"IH0030-KG","type":"SPOT","category":"RAMP","routeType":"IH","route":"0030","active":"Yes","fnctClass":"(1)Interstate","latestAadt":675,"latestAadtYear":2024,"latestDhv30":94,"latestKPercent":14,"latestDPercent":null,"latestVolumeCount":702,"latestVolumeDate":"2024-05-01","extractedAt":"2025-08-02T14:23:58Z"}},{"type":"Feature","geometry":{"type":"Point","coordinates":[-97.644084,32.761344]},"properties":{"locationId":"184RS24","locatedOn":"FAIRWAY","locOnAlias":"","type":"SPOT","category":"URBAN ACR","routeType":"","route":"","active":"Yes","fnctClass":"(7)Local","latestAadt":85,"latestAadtYear":2024,"latestDhv30":11,"latestKPercent":14,"latestDPercent":null,"latestVolumeCount":87,"latestVolumeDate":"2024-05-21","extractedAt":"2025-08-02T15:18:08Z"}},{"type":"Feature","geometry":{"type":"Point","coordinates":[-97.604871,32.702807]},"properties":{"locationId":"184RS26","locatedOn":"JOHN","locOnAlias":"","type":"SPOT","category":"URBAN ACR","routeType":"","route":"","active":"Yes","fnctClass":"(7)Local","latestAadt":186,"latestAadtYear":2024,"latestDhv30":22,"latestKPercent":12,"latestDPercent":null,"latestVolumeCount":192,"latestVolumeDate":"2024-05-13","extractedAt":"2025-08-02T15:18:41Z"}},{"type":"Feature","geometry":{"type":"Point","coordinates":[-97.618976,32.731183]},"properties":{"locationId":"184SP208","locatedOn":"IH0020","locOnAlias":"IH0020-KG","type":"SPOT","category":"ANNUAL ACR","routeType":"IH","route":"0020","active":"Yes","fnctClass":"(1)Interstate","latestAadt":1012318,"latestAadtYear":2024,"latestDhv30":null,"latestKPercent":null,"latestDPercent":null,"latestVolumeCount":null,"latestVolumeDate":null,"extractedAt":"2025-08-02T15:26:28Z"}},{"type":"Feature","geometry":{"type":"Point","coordinates":[-97.619001,32.730777]},"properties":{"locationId":"184SP208EBSR","locatedOn":"IH0020","locOnAlias":"IH0020-AG","type":"SPOT","category":"ANNUAL ACR","routeType":"IH","route":"0020","active":"Yes","fnctClass":"(5)Major Collector","latestAadt":4798,"latestAadtYear":2024,"latestDhv30":479,"latestKPercent":10,"latestDPercent":null,"latestVolumeCount":4817,"latestVolumeDate":"2024-06-04","extractedAt":"2025-08-02T15:26:44Z"}},{"type":"Feature","geometry":{"type":"Point","coordinates":[-97.618831,32.731558]},"properties":{"locationId":"184SP208WBSR","locatedOn":"IH0020","locOnAlias":"IH0020-XG","type":"SPOT","category":"ANNUAL ACR","routeType":"IH","route":"0020","active":"Yes","fnctClass":"(5)Major Collector","latestAadt":16643,"latestAadtYear":2024,"latestDhv30":null,"latestKPercent":null,"latestDPercent":null,"latestVolumeCount":1636,"latestVolumeDate":"2022-08-16","extractedAt":"2025-08-02T15:27:00Z"}},{"type":"Feature","geometry":{"type":"Point","coordinates":[-97.603132,32.696368]},"properties":{"locationId":"184T24","locatedOn":"FM1187","locOnAlias":"FM1187-KG","type":"SPOT","category":"ANNUAL ACR","routeType":"FM","route":"1187","active":"Yes","fnctClass":"(4)Minor Arterial","latestAadt":194203,"latestAadtYear":2024,"latestDhv30":null,"latestKPercent":null,"latestDPercent":null,"latestVolumeCount":16781,"latestVolumeDate":"2016-06-15","extractedAt":"2025-08-02T15:41:19Z"}},{"type":"Feature","geometry":{"type":"Point","coordinates":[-97.602421,32.695877]},"properties":{"locationId":"184T24NBDR","locatedOn":"FM1187","locOnAlias":"FM1187-KG","type":"SPOT","category":"ANNUAL ACR","routeType":"FM","route":"1187","active":"Yes","fnctClass":"(4)Minor Arterial","latestAadt":10161,"latestAadtYear":2024,"latestDhv30":1141,"latestKPercent":11,"latestDPercent":null,"latestVolumeCount":11305,"latestVolumeDate":"2024-05-13","extractedAt":"2025-08-02T15:41:33Z"}},{"type":"Feature","geometry":{"type":"Point","coordinates":[-97.603848,32.69687]},"properties":{"locationId":"184T24SBDR","locatedOn":"FM1187","locOnAlias":"FM1187-KG","type":"SPOT","category":"ANNUAL ACR","routeType":"FM","route":"1187","active":"Yes","fnctClass":"(4)Minor Arterial","latestAadt":9545,"latestAadtYear":2024,"latestDhv30":1085,"latestKPercent":11,"latestDPercent":null,"latestVolumeCount":10618,"latestVolumeDate":"2024-05-13","extractedAt":"2025-08-02T15:41:50Z"}},{"type":"Feature","geometry":{"type":"Point","coordinates":[-97.561346,32.739101]},"properties":{"locationId":"184U2","locatedOn":"WALSH RANCH","locOnAlias":"","type":"SPOT","category":"URBAN ACR","routeType":"","route":"","active":"Yes","fnctClass":"(4)Minor Arterial","latestAadt":2294,"latestAadtYear":2024,"latestDhv30":272,"latestKPercent":12,"latestDPercent":null,"latestVolumeCount":2677,"latestVolumeDate":"2024-05-21","extractedAt":"2025-08-02T16:04:34Z"}},{"type":"Feature","geometry":{"type":"Point","coordinates":[-97.574671,32.744223]},"properties":{"locationId":"184U3","locatedOn":"NAOLD WEATHERFORD","locOnAlias":"","type":"SPOT","category":"URBAN ACR","routeType":"","route":"","active":"Yes","fnctClass":"(5)Major Collector","latestAadt":1588,"latestAadtYear":2024,"latestDhv30":205,"latestKPercent":13,"latestDPercent":null,"latestVolumeCount":1661,"latestVolumeDate":"2024-05-21","extractedAt":"2025-08-02T16:05:04Z"}}]}