{"type":"FeatureCollection","features":[{"type":"Feature","geometry":{"type":"Point","coordinates":[-97.616913,32.691718]},"properties":{"locationId":"184CR41A","locatedOn":"-","locOnAlias":"","type":"SPOT","category":"URBAN ACR","routeType":"","route":"","active":"Yes","fnctClass":"(7)Local","latestAadt":5263,"latestAadtYear":2024,"latestDhv30":549,"latestKPercent":10,"latestDPercent":null,"latestVolumeCount":5476,"latestVolumeDate":"2024-05-13","extractedAt":"2025-08-01T21:19:43Z"}},{"type":"Feature","geometry":{"type":"Point","coordinates":[-97.585867,32.668798]},"properties":{"locationId":"184CR68A","locatedOn":"-","locOnAlias":"","type":"SPOT","category":"URBAN ACR","routeType":"","route":"","active":"Yes","fnctClass":"(5)Major Collector","latestAadt":3402,"latestAadtYear":2024,"latestDhv30":328,"latestKPercent":10,"latestDPercent":null,"latestVolumeCount":3527,"latestVolumeDate":"2024-05-13","extractedAt":"2025-08-01T21:33:19Z"}},{"type":"Feature","geometry":{"type":"Point","coordinates":[-97.599782,32.694082]},"properties":{"locationId":"184CR69A","locatedOn":"Chestnut St","locOnAlias":"1002153","type":"SPOT","category":"URBAN ACR","routeType":"LS","route":"0000","active":"Yes","fnctClass":"(7)Local","latestAadt":390,"latestAadtYear":2009,"latestDhv30":null,"latestKPercent":null,"latestDPercent":null,"latestVolumeCount":null,"latestVolumeDate":null,"extractedAt":"2025-08-01T21:33:53Z"}},{"type":"Feature","geometry":{"type":"Point","coordinates":[-97.602832,32.692435]},"properties":{"locationId":"184T25","locatedOn":"FM1187","locOnAlias":"FM1187-KG","type":"SPOT","category":"ANNUAL ACR","routeType":"FM","route":"1187","active":"Yes","fnctClass":"(4)Minor Arterial","latestAadt":100983,"latestAadtYear":2024,"latestDhv30":null,"latestKPercent":null,"latestDPercent":null,"latestVolumeCount":11676,"latestVolumeDate":"2023-07-19","extractedAt":"2025-08-02T15:42:07Z"}}]}