{"type":"FeatureCollection","features":[{"type":"Feature","geometry":{"type":"Point","coordinates":[-97.566794,32.580571]},"properties":{"locationId":"184CR72A","locatedOn":"-","locOnAlias":"","type":"SPOT","category":"URBAN ACR","routeType":"","route":"","active":"Yes","fnctClass":"(7)Local","latestAadt":125,"latestAadtYear":2019,"latestDhv30":33,"latestKPercent":26,"latestDPercent":null,"latestVolumeCount":135,"latestVolumeDate":"2019-05-08","extractedAt":"2025-08-01T21:34:51Z"}},{"type":"Feature","geometry":{"type":"Point","coordinates":[-97.566711,32.607671]},"properties":{"locationId":"184RS5","locatedOn":"NAMCDANIEL","locOnAlias":"","type":"SPOT","category":"URBAN ACR","routeType":"","route":"","active":"Yes","fnctClass":"(7)Local","latestAadt":126,"latestAadtYear":2024,"latestDhv30":16,"latestKPercent":13,"latestDPercent":null,"latestVolumeCount":136,"latestVolumeDate":"2024-05-13","extractedAt":"2025-08-02T15:25:15Z"}}]}