{"type":"FeatureCollection","features":[{"type":"Feature","geometry":{"type":"Point","coordinates":[-97.546535,32.900164]},"properties":{"locationId":"184RP1991","locatedOn":"SH0199","locOnAlias":"","type":"SPOT","category":"RAMP","routeType":"","route":"","active":"Yes","fnctClass":"(2)Principal Arterial-Other Freeways and Expressways","latestAadt":2271,"latestAadtYear":2024,"latestDhv30":213,"latestKPercent":9,"latestDPercent":null,"latestVolumeCount":2425,"latestVolumeDate":"2024-04-22","extractedAt":"2025-08-02T13:31:05Z"}},{"type":"Feature","geometry":{"type":"Point","coordinates":[-97.546438,32.900646]},"properties":{"locationId":"184RP1992","locatedOn":"SH0199","locOnAlias":"","type":"SPOT","category":"RAMP","routeType":"","route":"","active":"Yes","fnctClass":"(2)Principal Arterial-Other Freeways and Expressways","latestAadt":3051,"latestAadtYear":2024,"latestDhv30":329,"latestKPercent":11,"latestDPercent":null,"latestVolumeCount":3236,"latestVolumeDate":"2024-04-22","extractedAt":"2025-08-02T13:31:18Z"}},{"type":"Feature","geometry":{"type":"Point","coordinates":[-97.545877,32.900638]},"properties":{"locationId":"184U3573","locatedOn":"SH0199","locOnAlias":"SH0199-XG","type":"SPOT","category":"INACTIVE","routeType":"SH","route":"0199","active":"No","fnctClass":"(5)Major Collector","latestAadt":1932,"latestAadtYear":2014,"latestDhv30":271,"latestKPercent":14,"latestDPercent":null,"latestVolumeCount":2541,"latestVolumeDate":"2014-04-21","extractedAt":"2025-08-02T16:05:19Z"}},{"type":"Feature","geometry":{"type":"Point","coordinates":[-97.546148,32.899871]},"properties":{"locationId":"184U3574","locatedOn":"SH0199","locOnAlias":"NW Pkwy St","type":"SPOT","category":"INACTIVE","routeType":"SH","route":"0199","active":"No","fnctClass":"(5)Major Collector","latestAadt":1912,"latestAadtYear":2019,"latestDhv30":210,"latestKPercent":11,"latestDPercent":null,"latestVolumeCount":2337,"latestVolumeDate":"2019-05-06","extractedAt":"2025-08-02T16:05:34Z"}}]}