{"type":"FeatureCollection","features":[{"type":"Feature","geometry":{"type":"Point","coordinates":[-97.73368,32.746613]},"properties":{"locationId":"184RP2021A","locatedOn":"IH0020","locOnAlias":"IH0020-KG","type":"SPOT","category":"RAMP","routeType":"IH","route":"0020","active":"Yes","fnctClass":"(1)Interstate","latestAadt":37988,"latestAadtYear":2024,"latestDhv30":290,"latestKPercent":8,"latestDPercent":null,"latestVolumeCount":3863,"latestVolumeDate":"2024-04-10","extractedAt":"2025-08-02T13:55:30Z"}},{"type":"Feature","geometry":{"type":"Point","coordinates":[-97.731651,32.747718]},"properties":{"locationId":"184RP2022A","locatedOn":"IH0020","locOnAlias":"IH0020-KG","type":"SPOT","category":"RAMP","routeType":"IH","route":"0020","active":"Yes","fnctClass":"(1)Interstate","latestAadt":34108,"latestAadtYear":2024,"latestDhv30":419,"latestKPercent":12,"latestDPercent":null,"latestVolumeCount":3570,"latestVolumeDate":"2024-04-10","extractedAt":"2025-08-02T13:56:17Z"}}]}