{"type":"FeatureCollection","features":[{"type":"Feature","geometry":{"type":"Point","coordinates":[-97.845338,32.727951]},"properties":{"locationId":"184RP205B","locatedOn":"IH0020","locOnAlias":"IH0020-KG","type":"SPOT","category":"RAMP","routeType":"","route":"","active":"Yes","fnctClass":"(1)Interstate","latestAadt":3628,"latestAadtYear":2024,"latestDhv30":41,"latestKPercent":11,"latestDPercent":null,"latestVolumeCount":412,"latestVolumeDate":"2024-04-08","extractedAt":"2025-08-02T14:16:49Z"}}]}