{"type":"FeatureCollection","features":[{"type":"Feature","geometry":{"type":"Point","coordinates":[-98.039351,32.811388]},"properties":{"locationId":"184FS100","locatedOn":"PR0071","locOnAlias":"PR0071-KG","type":"SPOT","category":"INACTIVE","routeType":"PR","route":"0071","active":"No","fnctClass":"(5)Major Collector","latestAadt":118,"latestAadtYear":2014,"latestDhv30":19,"latestKPercent":21,"latestDPercent":null,"latestVolumeCount":123,"latestVolumeDate":"2014-04-21","extractedAt":"2025-08-01T23:58:48Z"}}]}